{
"type": "FeatureCollection",
"name": "borrego_palm_canyon_huc12",
"crs": { "type": "name", "properties": { "name": "urn:ogc:def:crs:EPSG::4269" } },
"features": [
{ "type": "Feature", "properties": { "huc12": "181002030302", "name": "Borrego Palm Canyon", "source": "USGS Watershed Boundary Dataset (WBD) HUC12 181002030302", "area_km2": 149.1 }, "geometry": { "type": "Polygon", "coordinates": [ [ [ -116.412045668287362, 33.347571638862689 ], [ -116.411762114121132, 33.347427020112946 ], [ -116.411281158913539, 33.347357856571364 ], [ -116.410854674539223, 33.347256934696532 ], [ -116.410398151623269, 33.347242405529869 ], [ -116.410203324540248, 33.347304930529788 ], [ -116.409866729749069, 33.347412956571304 ], [ -116.409453557874713, 33.347522251362761 ], [ -116.409070514125347, 33.347532794071128 ], [ -116.40871717766754, 33.347506386779457 ], [ -116.40842334537632, 33.347393725321297 ], [ -116.408246593293256, 33.347392883654663 ], [ -116.408099552668489, 33.347355096154729 ], [ -116.407904440168807, 33.347222558654892 ], [ -116.407659680794211, 33.347056301363523 ], [ -116.407218727669886, 33.34691821073875 ], [ -116.406851338087108, 33.346792830530603 ], [ -116.406571903712518, 33.346729684697323 ], [ -116.40627765475466, 33.346678828447409 ], [ -116.405924153713556, 33.346677137822439 ], [ -116.405866686005311, 33.346676863864104 ], [ -116.405585383922414, 33.34667551698908 ], [ -116.405305277672824, 33.346711262822396 ], [ -116.404966676631716, 33.346684915947435 ], [ -116.404686906840482, 33.346671212822457 ], [ -116.404348303716006, 33.346644864905841 ], [ -116.404083264133078, 33.346631230530818 ], [ -116.403685661008694, 33.346616959697542 ], [ -116.403332162050901, 33.346615260739213 ], [ -116.403052478717996, 33.346589193030923 ], [ -116.402773806843413, 33.346414780531177 ], [ -116.402538394343821, 33.346376558656232 ], [ -116.402243222469281, 33.346461676364413 ], [ -116.402035662052924, 33.346658474280787 ], [ -116.401805807886603, 33.346916469072085 ], [ -116.401578850595286, 33.347131661780054 ], [ -116.401127886012659, 33.347129486780091 ], [ -116.400935725596298, 33.346966347196997 ], [ -116.400745232888255, 33.346559891989273 ], [ -116.400468121430322, 33.346111761781629 ], [ -116.400426639138743, 33.346044676365068 ], [ -116.400041773514317, 33.345799498240467 ], [ -116.399271117265528, 33.345444308657704 ], [ -116.399042312057588, 33.345371920116122 ], [ -116.398403275600231, 33.345169749283116 ], [ -116.397793871434487, 33.344788294075386 ], [ -116.397315179768555, 33.344137119076379 ], [ -116.396997732894079, 33.343459684702452 ], [ -116.396810248519387, 33.342620666995401 ], [ -116.396363038103402, 33.34207778053792 ], [ -116.394251603731675, 33.339985752416169 ], [ -116.391913305818605, 33.33810886387738 ], [ -116.390984908945086, 33.337293243045337 ], [ -116.389735018322028, 33.336394930546703 ], [ -116.388843396448408, 33.334930619090642 ], [ -116.388624369365402, 33.334010325342092 ], [ -116.388535679782194, 33.3328743888855 ], [ -116.388289555824258, 33.331223998263113 ], [ -116.388105394366221, 33.329925378473433 ], [ -116.388143076657798, 33.329141525349655 ], [ -116.388445201657362, 33.32738569201905 ], [ -116.388548231865514, 33.326466983687112 ], [ -116.388772034990154, 33.322088294110586 ], [ -116.388801005823439, 33.321608100361345 ], [ -116.388990528739839, 33.318466575366244 ], [ -116.389091469364701, 33.31784524724219 ], [ -116.389062096448072, 33.317439567034455 ], [ -116.389035572489774, 33.317364828492941 ], [ -116.388841032906726, 33.316816657660468 ], [ -116.38834129436583, 33.315336747246079 ], [ -116.388210052699378, 33.314948081621708 ], [ -116.388138081866146, 33.314822744121898 ], [ -116.387478343325483, 33.313673794123645 ], [ -116.38627674436907, 33.310531710795203 ], [ -116.385672561036642, 33.309447296213534 ], [ -116.38557938082846, 33.308960189964296 ], [ -116.385685832911633, 33.307554855591491 ], [ -116.385794013119778, 33.306713707676124 ], [ -116.385856104786342, 33.306230939968543 ], [ -116.385865009994689, 33.30496029934551 ], [ -116.385664175619979, 33.304064901430252 ], [ -116.385646464161709, 33.303985929555381 ], [ -116.385025316245958, 33.300738556643751 ], [ -116.384719695413139, 33.298411961855663 ], [ -116.384720684996466, 33.298382982689077 ], [ -116.384760241246397, 33.297222582690836 ], [ -116.385434625620348, 33.292873144155919 ], [ -116.385867701661368, 33.290793523325817 ], [ -116.386200589160808, 33.289227084786603 ], [ -116.386204186035798, 33.288713421245745 ], [ -116.385861079786366, 33.287143646248182 ], [ -116.385228661037331, 33.285518362917344 ], [ -116.384113441247393, 33.283890688961549 ], [ -116.383795547497868, 33.283321357712452 ], [ -116.383082123540646, 33.282625588963526 ], [ -116.383011034999129, 33.282568657713625 ], [ -116.382034236042273, 33.281786348339836 ], [ -116.380803271460877, 33.281048315007638 ], [ -116.379409129796386, 33.280462645216858 ], [ -116.377954093340293, 33.279893675426081 ], [ -116.376378583967721, 33.279170895218897 ], [ -116.375633790218899, 33.278469288969973 ], [ -116.375253749594492, 33.27776951292941 ], [ -116.375218316261225, 33.277054447305488 ], [ -116.37516455896963, 33.276066951473695 ], [ -116.375174257927938, 33.274705309809121 ], [ -116.375068619386468, 33.273792057727235 ], [ -116.374918076678341, 33.273404983769524 ], [ -116.374435854804062, 33.27295185252018 ], [ -116.373979798554785, 33.272413002521034 ], [ -116.373626710013696, 33.271767357730369 ], [ -116.373223602722646, 33.270971225439951 ], [ -116.372665371473488, 33.270431857732433 ], [ -116.371158171475827, 33.270402781690848 ], [ -116.370469288143568, 33.270270520232714 ], [ -116.369170490228953, 33.269684457733604 ], [ -116.367948664189157, 33.269055850442896 ], [ -116.367238427731934, 33.26834398690238 ], [ -116.36655731627468, 33.267138637945891 ], [ -116.366159255858577, 33.265655717114839 ], [ -116.366036792317118, 33.264925379615988 ], [ -116.364997915235392, 33.263739656701148 ], [ -116.363328981904658, 33.261370280663186 ], [ -116.361373210032696, 33.259814975457232 ], [ -116.35941734649407, 33.258281098376301 ], [ -116.357716682955015, 33.256791434836941 ], [ -116.356810876706447, 33.254406491090663 ], [ -116.356605343373417, 33.252367796302167 ], [ -116.356603654831758, 33.251302415053829 ], [ -116.357018003789449, 33.251573510886715 ], [ -116.357282403789043, 33.251746499428123 ], [ -116.357852007954818, 33.252405095260428 ], [ -116.357975572537953, 33.25255380463517 ], [ -116.35931015482754, 33.253934051508054 ], [ -116.363549682945973, 33.255542618172228 ], [ -116.364803819402368, 33.256074262963068 ], [ -116.367325724606815, 33.256265109837784 ], [ -116.369152401687302, 33.256156053587915 ], [ -116.370681140226566, 33.255511086922297 ], [ -116.373491761055561, 33.254673586923559 ], [ -116.373989553763124, 33.254656184840258 ], [ -116.375567755843974, 33.254614090048676 ], [ -116.37628278500955, 33.254542637965471 ], [ -116.378075131881758, 33.254346033799095 ], [ -116.379583461046082, 33.254184724424306 ], [ -116.380468851669718, 33.254026807757896 ], [ -116.383193279790476, 33.253606884841872 ], [ -116.38372058708137, 33.253512339008694 ], [ -116.385728643328207, 33.252954320259562 ], [ -116.386171222494227, 33.252668785885021 ], [ -116.386728016243353, 33.252340420260509 ], [ -116.387218575617567, 33.251971347344409 ], [ -116.387302793325773, 33.251901411927861 ], [ -116.387454978742198, 33.251691108803186 ], [ -116.387738097491763, 33.251178449429005 ], [ -116.38791655790817, 33.250988093179274 ], [ -116.388356757907502, 33.25076204422129 ], [ -116.38880885582347, 33.250678762971461 ], [ -116.389034903739741, 33.250607378596555 ], [ -116.389260952697725, 33.250440817138497 ], [ -116.389629769363864, 33.250309946305322 ], [ -116.389903407905081, 33.250345637971975 ], [ -116.390331709987777, 33.250583584846595 ], [ -116.390522067279107, 33.250631173388172 ], [ -116.39064104019559, 33.250500303596709 ], [ -116.390771911028708, 33.250238562972129 ], [ -116.39083331415361, 33.249906712972631 ], [ -116.39106862352827, 33.249781231722807 ], [ -116.391437798527704, 33.24967047963969 ], [ -116.391724025610586, 33.249446753598363 ], [ -116.392126196443314, 33.249406510890083 ], [ -116.392661748525825, 33.249451336931656 ], [ -116.392996706858639, 33.249477134848291 ], [ -116.393447987066224, 33.249567737973166 ], [ -116.393983149565429, 33.249668836931335 ], [ -116.394301307898274, 33.249670387973026 ], [ -116.39478808081418, 33.249503914014952 ], [ -116.395141082896941, 33.249308647348585 ], [ -116.395644403729477, 33.249170392140456 ], [ -116.39609671206216, 33.249144449432151 ], [ -116.396532276644791, 33.249118424432197 ], [ -116.396851494352632, 33.248965199432462 ], [ -116.397003454769049, 33.24878302339107 ], [ -116.39724010581034, 33.248460553599898 ], [ -116.397446298518389, 33.248287404641815 ], [ -116.397672347476373, 33.248204123391929 ], [ -116.398112547475648, 33.248144636933716 ], [ -116.398517055808384, 33.248239815058582 ], [ -116.398778796432964, 33.248073253600467 ], [ -116.398992948515968, 33.247752025475961 ], [ -116.399028640182564, 33.247490284851381 ], [ -116.399183305807355, 33.247192852560204 ], [ -116.399456943306916, 33.247085776518702 ], [ -116.399873348514632, 33.247050084852049 ], [ -116.400099397472559, 33.246978701518856 ], [ -116.400349346430517, 33.246801225477441 ], [ -116.400685870388315, 33.24656365464449 ], [ -116.401038270387801, 33.246452790061312 ], [ -116.401240071429129, 33.246327128603184 ], [ -116.401455096428833, 33.245788856729007 ], [ -116.401509624553739, 33.245641348395907 ], [ -116.401878802678141, 33.245090649438453 ], [ -116.402059367261188, 33.24467250048076 ], [ -116.402235179760964, 33.244311372356321 ], [ -116.402913561009882, 33.244013581731792 ], [ -116.403333024550875, 33.243888962981998 ], [ -116.403702346425348, 33.243750031732191 ], [ -116.403954939133257, 33.243540187982546 ], [ -116.404157777674641, 33.243259753607958 ], [ -116.404326742257695, 33.243035439024993 ], [ -116.404395531840919, 33.242768434858704 ], [ -116.404514838090734, 33.242459458817507 ], [ -116.404550328715686, 33.24216415569299 ], [ -116.404519128715719, 33.241826318193489 ], [ -116.404152868299605, 33.241515020277348 ], [ -116.404154490174619, 33.241275831736061 ], [ -116.404172954757939, 33.241022655694735 ], [ -116.40419322975788, 33.240502152570571 ], [ -116.404203755799529, 33.240473669237304 ], [ -116.404312625591047, 33.240179108821053 ], [ -116.404514023507375, 33.240109723404487 ], [ -116.404710817257069, 33.240073127571236 ], [ -116.404882853715151, 33.240041136946274 ], [ -116.405168346423068, 33.239915868196476 ], [ -116.40552456933915, 33.239780831738358 ], [ -116.405881488088596, 33.239876009863224 ], [ -116.406155119338166, 33.239948724446435 ], [ -116.406289956837952, 33.239949368196449 ], [ -116.406725946420636, 33.239852955696563 ], [ -116.407130704753342, 33.239542885905394 ], [ -116.407303670378099, 33.239533854655406 ], [ -116.407939721418757, 33.23957857757199 ], [ -116.408332332876455, 33.23964996090524 ], [ -116.40872494433421, 33.239792728613338 ], [ -116.409260322458351, 33.239745140071761 ], [ -116.409831393290801, 33.239566679655354 ], [ -116.410283491206769, 33.239530987988758 ], [ -116.410485745373137, 33.239459604655508 ], [ -116.410708995372772, 33.23921234736423 ], [ -116.410897403705803, 33.239328054655743 ], [ -116.410934108914091, 33.239350598405679 ], [ -116.411310333913491, 33.239426247363895 ], [ -116.411736227662857, 33.239586552572007 ], [ -116.41193658078754, 33.239671923405183 ], [ -116.412099616203989, 33.239704351530122 ], [ -116.412225258912088, 33.239694392155172 ], [ -116.412439089120085, 33.239642639030251 ], [ -116.412841420369489, 33.239570671322042 ], [ -116.413155922452347, 33.239487733822159 ], [ -116.413520931826781, 33.239362822364001 ], [ -116.414138707867437, 33.238996387989573 ], [ -116.414502806825226, 33.238693832781735 ], [ -116.414907076616259, 33.238329907782258 ], [ -116.415047255782724, 33.238148901532554 ], [ -116.415211075574121, 33.237937370282907 ], [ -116.415546681823628, 33.237826384866366 ], [ -116.416066927656118, 33.237645915075007 ], [ -116.416486062030458, 33.237563460908461 ], [ -116.4166011839053, 33.237561067158481 ], [ -116.4170386693213, 33.237551981741831 ], [ -116.417307208904219, 33.23745474736694 ], [ -116.41760969848707, 33.237287320283883 ], [ -116.41781162452844, 33.237105533825854 ], [ -116.418013950569787, 33.236923384867794 ], [ -116.418418198485824, 33.236559448410048 ], [ -116.419091442234787, 33.236027924452515 ], [ -116.419378297442677, 33.235691575494684 ], [ -116.419631759942263, 33.235341001536938 ], [ -116.419867453691893, 33.235145116120577 ], [ -116.42015356202478, 33.234921326537574 ], [ -116.420289450566258, 33.23462648278803 ], [ -116.420442543274362, 33.234261367163583 ], [ -116.420713018273943, 33.233868659872542 ], [ -116.420949170356891, 33.233602423414595 ], [ -116.421369855772923, 33.233280765081759 ], [ -116.421671766189093, 33.233197746331882 ], [ -116.421932378688723, 33.23319895779025 ], [ -116.421973125563625, 33.233199147373568 ], [ -116.422441346396226, 33.23328574320675 ], [ -116.422709314104168, 33.233272917165152 ], [ -116.42284445264562, 33.233090629665412 ], [ -116.423013720353708, 33.23281000883253 ], [ -116.423132853686809, 33.232515084874649 ], [ -116.423352900561497, 33.232150278625227 ], [ -116.423404785978107, 33.231897253625618 ], [ -116.423507084936261, 33.231616321334343 ], [ -116.423568928686166, 33.231398526543046 ], [ -116.423829145352443, 33.231012789043632 ], [ -116.42398138910221, 33.230774298419021 ], [ -116.424352930768293, 33.230283557794792 ], [ -116.42463873493449, 33.230101967170071 ], [ -116.424777108892613, 33.230137122378324 ], [ -116.425090014100476, 33.230216616128189 ], [ -116.425725457849467, 33.2303321140447 ], [ -116.426210870348712, 33.230348423419684 ], [ -116.426528867223226, 33.230363958836335 ], [ -116.426947863055887, 33.2302955411281 ], [ -116.427299984930357, 33.230212739044873 ], [ -116.427854103679522, 33.229962022378572 ], [ -116.428106324512441, 33.229794338003842 ], [ -116.428457895345218, 33.229795954670521 ], [ -116.429026005761045, 33.229967407795243 ], [ -116.429811941176467, 33.230111714045051 ], [ -116.430364684925621, 33.230072035920102 ], [ -116.430783769299978, 33.229989531753574 ], [ -116.43126945367419, 33.229963614045289 ], [ -116.431622206798636, 33.229782310920541 ], [ -116.431715483881874, 33.229709938003964 ], [ -116.431874602631581, 33.229586478629187 ], [ -116.432193417214421, 33.229475373420996 ], [ -116.432862799505074, 33.229520636962604 ], [ -116.433381508879279, 33.229565210920896 ], [ -116.433804677628586, 33.229656172379066 ], [ -116.433983383878342, 33.229694583837329 ], [ -116.434551232835759, 33.229908222378697 ], [ -116.434902895335256, 33.229895749462059 ], [ -116.435289304709613, 33.229686448420694 ], [ -116.435642592209092, 33.229420717171081 ], [ -116.436147993249961, 33.228930546338518 ], [ -116.436434400541202, 33.228650438005616 ], [ -116.43646887449944, 33.228495819255897 ], [ -116.436558371374304, 33.22830545154784 ], [ -116.436587686999303, 33.228243094256243 ], [ -116.43685689741551, 33.228033257798245 ], [ -116.437109638040113, 33.227781135923635 ], [ -116.437446260956278, 33.227501252590741 ], [ -116.437749670330788, 33.227179005716266 ], [ -116.438120668246881, 33.226758571341918 ], [ -116.438423263038089, 33.226562954675558 ], [ -116.438792907829168, 33.226353567175863 ], [ -116.439145274495331, 33.226228522384417 ], [ -116.439362385953302, 33.226229499467706 ], [ -116.439630757827899, 33.226230710926075 ], [ -116.440066106785537, 33.226218599467757 ], [ -116.440317755743479, 33.226135309884512 ], [ -116.440569046368125, 33.22610829946791 ], [ -116.440920154700905, 33.226180229676118 ], [ -116.441438225533432, 33.226323259884225 ], [ -116.441856655741105, 33.226339207800891 ], [ -116.442292006782111, 33.226327089050926 ], [ -116.44276164115638, 33.226188492176107 ], [ -116.443231273447282, 33.226049890093009 ], [ -116.443835096363046, 33.225869677593266 ], [ -116.444271514070692, 33.225688713010243 ], [ -116.444707749486668, 33.225535885927115 ], [ -116.445176753652618, 33.225495768218877 ], [ -116.445779684901709, 33.225456245302269 ], [ -116.446265339067622, 33.225430267177273 ], [ -116.44641784323403, 33.225471397385547 ], [ -116.446668354691951, 33.225567485927058 ], [ -116.446856554691692, 33.225589429677029 ], [ -116.44710753281629, 33.225611649468703 ], [ -116.447571622398925, 33.225687579676901 ], [ -116.447909891148356, 33.225805160926711 ], [ -116.448235805731201, 33.22589103071823 ], [ -116.448586965105676, 33.225955903634826 ], [ -116.448900192188489, 33.226062819259653 ], [ -116.449339173437806, 33.226138632801224 ], [ -116.449792713020429, 33.226179407801112 ], [ -116.450130440103237, 33.22609992134295 ], [ -116.450444990102767, 33.225995784884731 ], [ -116.450681896352421, 33.226260648426035 ], [ -116.450815911977202, 33.226464716134046 ], [ -116.450918211977012, 33.226620485925423 ], [ -116.451129944268359, 33.226895792175014 ], [ -116.451467498434511, 33.227129440091346 ], [ -116.452169501558444, 33.227311931757697 ], [ -116.45260829634941, 33.227419391132571 ], [ -116.452846921349021, 33.227409888007571 ], [ -116.453249167181752, 33.227337786966018 ], [ -116.453449204681419, 33.227475851549116 ], [ -116.453799783847558, 33.22763568384056 ], [ -116.453961828638967, 33.22782634321527 ], [ -116.454325424471733, 33.227912360923426 ], [ -116.454752649471061, 33.227861469256879 ], [ -116.455155093220469, 33.227757705715362 ], [ -116.455520322386576, 33.22757990779894 ], [ -116.456087161969037, 33.22728691092442 ], [ -116.456477565093394, 33.227098668216399 ], [ -116.456512145301701, 33.22705896925811 ], [ -116.45674312967634, 33.226793795300182 ], [ -116.457094950509145, 33.226753121341915 ], [ -116.457534074466764, 33.226807800508482 ], [ -116.45756485467507, 33.226818736966834 ], [ -116.457834759882985, 33.226914638008338 ], [ -116.458184693215742, 33.227179983841268 ], [ -116.458460593215307, 33.227233948424498 ], [ -116.458548679673527, 33.227202672382873 ], [ -116.458649842173372, 33.227087033841372 ], [ -116.458889958839677, 33.226834810925141 ], [ -116.459117260922653, 33.226624745300455 ], [ -116.459344172380611, 33.226477991134004 ], [ -116.459483127588726, 33.226341409884242 ], [ -116.459434138005463, 33.226140694259527 ], [ -116.459411040088867, 33.225813457801678 ], [ -116.4593706057139, 33.225559126552071 ], [ -116.459350600505616, 33.225433295302309 ], [ -116.459440370297159, 33.225127655719461 ], [ -116.459529167171979, 33.224980303636357 ], [ -116.459612726546879, 33.224834761969873 ], [ -116.459656083838468, 33.224759247386658 ], [ -116.459807850504887, 33.224580507803637 ], [ -116.460046626546216, 33.224300267179046 ], [ -116.460237847379233, 33.224075842179388 ], [ -116.46054079321209, 33.223813335929833 ], [ -116.461020676544706, 33.2233616463472 ], [ -116.461298377585933, 33.223120135930913 ], [ -116.461626234877087, 33.222889395306254 ], [ -116.461839091126762, 33.222809182806373 ], [ -116.461903095293337, 33.222785065098094 ], [ -116.462179696334545, 33.222722943223175 ], [ -116.462430927584194, 33.222702922389885 ], [ -116.46273250883371, 33.222662016139907 ], [ -116.462958821333359, 33.222610229681663 ], [ -116.463247846332877, 33.222569264056744 ], [ -116.463536809874142, 33.222538852598461 ], [ -116.463963554665099, 33.222561798431741 ], [ -116.464302349456261, 33.222594915098341 ], [ -116.464628845289099, 33.222585767181727 ], [ -116.46489314528867, 33.222481375515201 ], [ -116.465282419246421, 33.22247249634853 ], [ -116.465546203620988, 33.222452526556935 ], [ -116.465797947370618, 33.222348080723748 ], [ -116.465998956745295, 33.222327838015474 ], [ -116.466237503619936, 33.222328859890467 ], [ -116.466588467161046, 33.222425341140308 ], [ -116.46688908903559, 33.222542710931805 ], [ -116.467127507785221, 33.22256483697339 ], [ -116.467403719243123, 33.222566018223404 ], [ -116.467856343200765, 33.222462428640256 ], [ -116.468321583825002, 33.222348335932111 ], [ -116.468836660907584, 33.222297772390505 ], [ -116.46964075986466, 33.222206227598974 ], [ -116.469969633822473, 33.222149590099036 ], [ -116.47033901819691, 33.22196824634932 ], [ -116.470691912988002, 33.221744622391327 ], [ -116.470943355695965, 33.221689411974751 ], [ -116.471227340070527, 33.22178910989129 ], [ -116.471444961945167, 33.221790033849629 ], [ -116.47166308694483, 33.221706539058061 ], [ -116.471897872361126, 33.221637185933162 ], [ -116.47229988486049, 33.221596678641561 ], [ -116.472568653610097, 33.221443044266834 ], [ -116.472837335901374, 33.221303479683684 ], [ -116.473121830692548, 33.221318754683693 ], [ -116.47352316715029, 33.221390805725207 ], [ -116.473741293191608, 33.221307307808672 ], [ -116.473893299441386, 33.221082823434074 ], [ -116.473994748399548, 33.220914406767633 ], [ -116.47402901923283, 33.220746783851212 ], [ -116.474063729649458, 33.220577010934846 ], [ -116.474198655690884, 33.220408735935109 ], [ -116.474316678607408, 33.220268530726969 ], [ -116.47448466298215, 33.220170747393809 ], [ -116.474719440065087, 33.22010138593555 ], [ -116.475054571314558, 33.220046518227321 ], [ -116.475540777563822, 33.219921939060839 ], [ -116.475875822354965, 33.219881138019218 ], [ -116.476261170271016, 33.219826478644336 ], [ -116.476613542145515, 33.2196872588529 ], [ -116.476982483811582, 33.219576247394741 ], [ -116.477166786936323, 33.219548880728098 ], [ -116.477350334852702, 33.219648143227914 ], [ -116.477652819227217, 33.219866448435937 ], [ -116.477683707768847, 33.219888739060877 ], [ -116.477973427560016, 33.219839274477636 ], [ -116.478085877559863, 33.219820076561007 ], [ -116.478421087976017, 33.219751128644475 ], [ -116.479041373391738, 33.219598954686376 ], [ -116.479644665057435, 33.21948891510317 ], [ -116.480096384848423, 33.219533015103138 ], [ -116.48039761505629, 33.219548344269754 ], [ -116.480916543180456, 33.219550510936415 ], [ -116.481234510888328, 33.219565907811386 ], [ -116.481436861929694, 33.219661500519578 ], [ -116.481534996304504, 33.219707863019494 ], [ -116.482003124428786, 33.219808304686012 ], [ -116.482572275469579, 33.219810673436029 ], [ -116.483008168177207, 33.219699922394511 ], [ -116.483393098384965, 33.219715591144507 ], [ -116.483844735884247, 33.219773748436069 ], [ -116.484363172341773, 33.219860320310943 ], [ -116.48499829109079, 33.220031796352373 ], [ -116.485624464006492, 33.22022396822706 ], [ -116.485955360881007, 33.220492819268316 ], [ -116.486216507755557, 33.220684068226319 ], [ -116.486583469213372, 33.220910708850965 ], [ -116.486850321296288, 33.221080654684044 ], [ -116.487046982754293, 33.221242500517121 ], [ -116.487185295254051, 33.221466035933474 ], [ -116.487345030670497, 33.221607514058235 ], [ -116.487602740045077, 33.221708321349752 ], [ -116.487811411919779, 33.221838267182875 ], [ -116.488055055669406, 33.221956620307708 ], [ -116.488333502543981, 33.222092718224133 ], [ -116.488464637960419, 33.222351427598767 ], [ -116.48854693796028, 33.222604071348371 ], [ -116.489299887959135, 33.223224619264045 ], [ -116.489076557751162, 33.22414086509599 ], [ -116.489062223376152, 33.224466474470489 ], [ -116.489189551500942, 33.224832728636557 ], [ -116.489528045250438, 33.225290102594158 ], [ -116.489790677541691, 33.225515663010526 ], [ -116.490506744207266, 33.225860800509963 ], [ -116.490942555664901, 33.226070852592954 ], [ -116.491282658789373, 33.226165986967828 ], [ -116.491423559830821, 33.226222104676083 ], [ -116.491480035872428, 33.226244598426035 ], [ -116.491474199414085, 33.226377252592499 ], [ -116.491450853580773, 33.226581817175486 ], [ -116.491456691080771, 33.226775217175202 ], [ -116.491494362955734, 33.2272232057162 ], [ -116.491531503580688, 33.227683255715476 ], [ -116.491539996288964, 33.227816355715277 ], [ -116.49139991920589, 33.228065586964874 ], [ -116.491220047331126, 33.228241121339579 ], [ -116.490734547331897, 33.228841865088668 ], [ -116.490295029624235, 33.229270772379664 ], [ -116.490194922332762, 33.229368460921194 ], [ -116.489896186916553, 33.229636894254099 ], [ -116.48989250879157, 33.229720445295641 ], [ -116.489887544208216, 33.229833245295481 ], [ -116.489886101499906, 33.229866025503725 ], [ -116.489985849416371, 33.230207264044907 ], [ -116.490216658791041, 33.230504285919437 ], [ -116.49065149733201, 33.230935668210407 ], [ -116.49072604941523, 33.231077988001857 ], [ -116.490738192123558, 33.231101976543471 ], [ -116.490762121290174, 33.231149246335065 ], [ -116.490807223373452, 33.231428399459674 ], [ -116.49075840566519, 33.23155971404276 ], [ -116.490561666082158, 33.231852761958976 ], [ -116.490528113998892, 33.231902739042255 ], [ -116.490421123374063, 33.232028860917069 ], [ -116.490059037957963, 33.23245568591642 ], [ -116.489615771291994, 33.232901961957396 ], [ -116.489593669208659, 33.232924212999023 ], [ -116.489393469209006, 33.233061779665434 ], [ -116.48922381712589, 33.233178349456921 ], [ -116.488970169209665, 33.233399884873279 ], [ -116.488808277543228, 33.233506266123072 ], [ -116.488689461918398, 33.233584344247959 ], [ -116.488555737960269, 33.233688855706134 ], [ -116.48854830254362, 33.233857686955901 ], [ -116.488670637960126, 33.234095426538829 ], [ -116.488789198376594, 33.234251631746929 ], [ -116.488828994209882, 33.234325330705133 ], [ -116.488834293168168, 33.234530787996505 ], [ -116.488836840043177, 33.234593326538061 ], [ -116.488841184834826, 33.234700065079551 ], [ -116.488905919209742, 33.234859071329311 ], [ -116.489004421292918, 33.235020910912397 ], [ -116.489093225459442, 33.235166811953832 ], [ -116.4893962087923, 33.235780059869569 ], [ -116.489424854625611, 33.236107002577398 ], [ -116.489482687958855, 33.236422780701901 ], [ -116.489386103584025, 33.236661289034885 ], [ -116.489336479625763, 33.236797448409675 ], [ -116.48932082962574, 33.236840391117937 ], [ -116.489288986917472, 33.236911853617812 ], [ -116.489405383792302, 33.236950777576055 ], [ -116.489538099417075, 33.236919262992785 ], [ -116.489704611916864, 33.236913690076165 ], [ -116.489986795249706, 33.237030221325938 ], [ -116.490024326499679, 33.237055033825925 ], [ -116.490140152541187, 33.237131609867447 ], [ -116.490355067124142, 33.237138309867476 ], [ -116.490479450457315, 33.237118712992469 ], [ -116.490802940040112, 33.237067740075929 ], [ -116.49108312649804, 33.236895337992848 ], [ -116.49124072858109, 33.236900249451139 ], [ -116.491522507747334, 33.237017715075979 ], [ -116.491721501497011, 33.237060144242605 ], [ -116.492069081704813, 33.237312495283845 ], [ -116.492308908787777, 33.237477877575259 ], [ -116.492440204620948, 33.237568421325136 ], [ -116.492821033786981, 33.237831035908073 ], [ -116.493405299411108, 33.238247743199054 ], [ -116.493541244202561, 33.238380873407209 ], [ -116.493749178577218, 33.238584501531875 ], [ -116.494307383784701, 33.238856859864768 ], [ -116.494605543159253, 33.238899866114707 ], [ -116.494933498367061, 33.238947106739658 ], [ -116.495499826491198, 33.238964737989647 ], [ -116.495794119199047, 33.238956234864645 ], [ -116.49658415253117, 33.238662611948428 ], [ -116.496848785864074, 33.23857231611521 ], [ -116.49709130253035, 33.23860401507352 ], [ -116.497287656696756, 33.238706729656712 ], [ -116.49733649315499, 33.238901464031414 ], [ -116.497300421280045, 33.239069405697819 ], [ -116.497376851488241, 33.239289147364104 ], [ -116.497443195238134, 33.239411970280571 ], [ -116.497586709821292, 33.239582643197025 ], [ -116.497620455654555, 33.239622775488613 ], [ -116.497632134821174, 33.23968351611353 ], [ -116.497487141071417, 33.239738998405073 ], [ -116.497320419196683, 33.239853591113217 ], [ -116.497234679613484, 33.239912668196496 ], [ -116.49701392857213, 33.240038632779601 ], [ -116.496693409822626, 33.24014941923781 ], [ -116.495935175448835, 33.240564105695455 ], [ -116.495899545240547, 33.240583595278792 ], [ -116.495612995241004, 33.240900721319974 ], [ -116.495525983782784, 33.241248212986079 ], [ -116.495519094199494, 33.241404981735855 ], [ -116.495640944199295, 33.241552807777282 ], [ -116.495706969199205, 33.241700652568738 ], [ -116.495720174407495, 33.241923805693375 ], [ -116.495723435865841, 33.241978907776627 ], [ -116.495823224407332, 33.242320136942737 ], [ -116.496023543157037, 33.242566812984023 ], [ -116.496054621281985, 33.24260508277564 ], [ -116.496208798365046, 33.242783870275389 ], [ -116.496450547323036, 33.243064209858233 ], [ -116.496772691072522, 33.243243297357992 ], [ -116.496803995239134, 33.243259670274597 ], [ -116.497067238988734, 33.243397370274408 ], [ -116.497221338988481, 33.243526881732521 ], [ -116.497284844196713, 33.243669807773983 ], [ -116.497286671280051, 33.243768302565513 ], [ -116.497289107738368, 33.243899380690323 ], [ -116.497229695238502, 33.244271881731379 ], [ -116.497239257738499, 33.244380860897877 ], [ -116.497371422321578, 33.244638561939155 ], [ -116.497535954612999, 33.244812743188902 ], [ -116.497531715029709, 33.24490921714704 ], [ -116.49749511294641, 33.245178297354983 ], [ -116.497352163988296, 33.245562731729365 ], [ -116.497150187946943, 33.245856984853901 ], [ -116.497112934821985, 33.246227034853348 ], [ -116.497102079613683, 33.2464741463113 ], [ -116.49727690773841, 33.246797791102438 ], [ -116.497413683779882, 33.247031826518764 ], [ -116.497631670237865, 33.247206719226824 ], [ -116.497742596279352, 33.247294699435031 ], [ -116.497763840029336, 33.247464420268102 ], [ -116.497738152529394, 33.24759206193454 ], [ -116.497672061904495, 33.247920442142401 ], [ -116.497550563988, 33.24839969318333 ], [ -116.497461959821464, 33.248783358807714 ], [ -116.497441271279854, 33.248927624432497 ], [ -116.497452448363163, 33.249326469223547 ], [ -116.497447253571465, 33.249444695265026 ], [ -116.497440262946498, 33.249603830681451 ], [ -116.497421411904838, 33.249714931722963 ], [ -116.497401534821563, 33.249832066097781 ], [ -116.497368497321588, 33.249847065056088 ], [ -116.497152628571939, 33.249945079639247 ], [ -116.49703639732212, 33.249977689014202 ], [ -116.49695944732224, 33.250096050472337 ], [ -116.496863931697362, 33.250310441096985 ], [ -116.496927631697304, 33.250493559846745 ], [ -116.49693166398896, 33.250539496305009 ], [ -116.496941532738958, 33.250651991096504 ], [ -116.496946755655586, 33.250711515054718 ], [ -116.497118211905331, 33.251054968179176 ], [ -116.497332127530001, 33.251411819220323 ], [ -116.497528540029691, 33.251840576511313 ], [ -116.497546830654642, 33.251877444219588 ], [ -116.497686730654436, 33.252159462969132 ], [ -116.497776448362629, 33.252403768177089 ], [ -116.497893237945789, 33.252685139009998 ], [ -116.498008970237265, 33.252990629634496 ], [ -116.498141681695415, 33.253236269217496 ], [ -116.498245730653593, 33.253481019217077 ], [ -116.49836305461173, 33.253750331716674 ], [ -116.498416669194967, 33.253836527549879 ], [ -116.498539820236431, 33.253973190049635 ], [ -116.498641194194647, 33.253952190049688 ], [ -116.498816262944331, 33.253903070258104 ], [ -116.498873666069244, 33.253886968174811 ], [ -116.499037758777376, 33.253786209841621 ], [ -116.499360345235175, 33.253588130675269 ], [ -116.499708281692961, 33.253473283800417 ], [ -116.500015815025847, 33.253366997342255 ], [ -116.50045367648346, 33.2531994733842 ], [ -116.500506929608378, 33.253163844217568 ], [ -116.500764146274662, 33.252991759842871 ], [ -116.501059753565869, 33.25279566296814 ], [ -116.501243359815589, 33.25253570463525 ], [ -116.50139301398201, 33.252395447343758 ], [ -116.501537207731815, 33.252320870260576 ], [ -116.501657308773304, 33.252258753593992 ], [ -116.501798702523047, 33.252097926510885 ], [ -116.501853655648006, 33.252035418177684 ], [ -116.501892899397944, 33.251795124428043 ], [ -116.501915415022893, 33.251749018178089 ], [ -116.502003262939411, 33.251569116095084 ], [ -116.502125312939199, 33.251403849428641 ], [ -116.502273376480673, 33.251299768178797 ], [ -116.502390130647143, 33.251255095262195 ], [ -116.502541412938569, 33.251404700470289 ], [ -116.502600779605132, 33.251493023386843 ], [ -116.502649178563388, 33.251565031720077 ], [ -116.502689213980034, 33.251592298386697 ], [ -116.502760645229898, 33.251640947344924 ], [ -116.503015944187837, 33.25170925776149 ], [ -116.503113781687716, 33.251722650469844 ], [ -116.503244169187496, 33.251740496303114 ], [ -116.503398626478941, 33.251817749428028 ], [ -116.503550442103688, 33.251955295261155 ], [ -116.503757991061661, 33.25213080046916 ], [ -116.50389706293646, 33.25223172234405 ], [ -116.504048326477914, 33.252337336927212 ], [ -116.504090336894478, 33.252360217135504 ], [ -116.504163520227735, 33.252372829635476 ], [ -116.504294080644172, 33.252340657760556 ], [ -116.504368696269069, 33.252358106718816 ], [ -116.504420408768965, 33.252404957760405 ], [ -116.504480577518905, 33.252455277552031 ], [ -116.504600358768698, 33.25255545255186 ], [ -116.504669366060284, 33.2526179733851 ], [ -116.504835457726699, 33.252429919218741 ], [ -116.505068676476299, 33.252293735885587 ], [ -116.505188902517773, 33.252223530677384 ], [ -116.505350235850869, 33.252144010885843 ], [ -116.505509284808966, 33.251968504636125 ], [ -116.505531183767289, 33.251944341094486 ], [ -116.505691503558694, 33.25175238380308 ], [ -116.505780946266896, 33.251716246303147 ], [ -116.505960501474931, 33.25164370046997 ], [ -116.506331672307681, 33.251611800470016 ], [ -116.506578331682306, 33.251590600470024 ], [ -116.506750406682045, 33.251627450469982 ], [ -116.507034736889921, 33.251689111928215 ], [ -116.507283046264547, 33.251739883803111 ], [ -116.507429916055969, 33.25174444005313 ], [ -116.507666070222285, 33.251628074428311 ], [ -116.508330270221279, 33.251330476512123 ], [ -116.508734255637307, 33.25121932130395 ], [ -116.509053591053487, 33.251123133804072 ], [ -116.509773056677375, 33.250951126512689 ], [ -116.509838878552273, 33.25093537026271 ], [ -116.51030997959316, 33.250851636929497 ], [ -116.510346928551485, 33.250845102554536 ], [ -116.510917201467237, 33.250774357762964 ], [ -116.511407843133156, 33.250786205679617 ], [ -116.511780952507593, 33.250785693179637 ], [ -116.511906757715678, 33.250862043179495 ], [ -116.512247341048521, 33.251098431720777 ], [ -116.51264283063125, 33.251181293179002 ], [ -116.51298150042237, 33.251121174429102 ], [ -116.51363094312967, 33.250681689013106 ], [ -116.514380560836855, 33.250351268180282 ], [ -116.514485258753382, 33.250381417138556 ], [ -116.514987784794243, 33.250561586929962 ], [ -116.515104680627417, 33.250603530679882 ], [ -116.515367330626987, 33.25084144422118 ], [ -116.515534241043383, 33.250970108804324 ], [ -116.5157737545847, 33.251154545262352 ], [ -116.516272546250605, 33.251275999428856 ], [ -116.516908032707931, 33.251154305679052 ], [ -116.517244391040776, 33.251146972345737 ], [ -116.517433279582121, 33.251152815054013 ], [ -116.517726837915006, 33.251161895262385 ], [ -116.518193650414275, 33.250575352554961 ], [ -116.518447795205532, 33.249929415055931 ], [ -116.518413595205629, 33.249785216097848 ], [ -116.518387205622332, 33.249673953598005 ], [ -116.518398266038957, 33.249420707765069 ], [ -116.518512793122113, 33.24909820984891 ], [ -116.518603224371986, 33.249012421307384 ], [ -116.518719110830148, 33.248902486932536 ], [ -116.519319358745861, 33.248700503599537 ], [ -116.519694328536957, 33.248774197349405 ], [ -116.519902664994959, 33.248815141099328 ], [ -116.520032664994744, 33.248793303599371 ], [ -116.520206220202851, 33.248764147349391 ], [ -116.520787305618569, 33.248600972349664 ], [ -116.521486708742486, 33.248356923391725 ], [ -116.521791839992034, 33.248269747350207 ], [ -116.522135225408135, 33.248292430683478 ], [ -116.522349644157828, 33.248311130683476 ], [ -116.522746667073875, 33.248420001516592 ], [ -116.523188784781553, 33.248481956724845 ], [ -116.523568849364267, 33.248650677557919 ], [ -116.523863463947123, 33.248804682766036 ], [ -116.523930685822052, 33.248830726515962 ], [ -116.524032792071864, 33.24887028901594 ], [ -116.524175036863312, 33.248898831724205 ], [ -116.524370266029678, 33.248699573391207 ], [ -116.524464100404543, 33.248633967141302 ], [ -116.524651466029241, 33.24850296922483 ], [ -116.52480548998733, 33.248501309849814 ], [ -116.524991173320416, 33.248610061932993 ], [ -116.525429613944709, 33.248756427557737 ], [ -116.525836767069109, 33.248962202557436 ], [ -116.526363819151584, 33.249050919223976 ], [ -116.526932507692379, 33.249152870265505 ], [ -116.527259769150191, 33.249235542140354 ], [ -116.527414245191608, 33.249312759848578 ], [ -116.527490252483176, 33.249373005681775 ], [ -116.527525208733152, 33.249400711931742 ], [ -116.527648398316273, 33.249537345264855 ], [ -116.527802875399345, 33.249614560889768 ], [ -116.52785518373264, 33.249636868181369 ], [ -116.527986016024101, 33.249692661931306 ], [ -116.528085274357238, 33.249719874431264 ], [ -116.528587987898163, 33.249603986931447 ], [ -116.528824502481086, 33.249549461931508 ], [ -116.52924689414715, 33.249405503598439 ], [ -116.52929271393873, 33.249384248390129 ], [ -116.529466569146791, 33.249303596306902 ], [ -116.529743560813017, 33.249203454640394 ], [ -116.529905456646077, 33.249174647348752 ], [ -116.530032783729212, 33.249151991098813 ], [ -116.53028373997887, 33.248990669224042 ], [ -116.530406249353632, 33.248813311932679 ], [ -116.530588177478364, 33.248589483808018 ], [ -116.530657479561626, 33.248476478599855 ], [ -116.530711736853164, 33.248388005683353 ], [ -116.530875136852956, 33.248260210891885 ], [ -116.53094682226947, 33.248228607766919 ], [ -116.53107995143597, 33.248169917141979 ], [ -116.531120785810856, 33.248051108808852 ], [ -116.531145663935831, 33.247978733808964 ], [ -116.531265022268997, 33.247873732767459 ], [ -116.5313756295605, 33.247854048392469 ], [ -116.531669925393373, 33.247801678600922 ], [ -116.531832797268123, 33.247685941101111 ], [ -116.531896410809679, 33.247542992142996 ], [ -116.531962436851245, 33.247470333809758 ], [ -116.532152602475946, 33.247261071310106 ], [ -116.532514511850366, 33.247187691101885 ], [ -116.532846189974862, 33.247149605685252 ], [ -116.533169741016025, 33.247201784851825 ], [ -116.5338898389316, 33.247595168184546 ], [ -116.534258225389351, 33.247818615059202 ], [ -116.534696414972018, 33.247885183809103 ], [ -116.535193684762874, 33.248041847350521 ], [ -116.535460217054151, 33.248191475475323 ], [ -116.535584697262266, 33.24833098068342 ], [ -116.535780535803667, 33.248554877558092 ], [ -116.536128809761465, 33.248599145266326 ], [ -116.536348381636117, 33.24853700984977 ], [ -116.536667584760607, 33.248440812974934 ], [ -116.536897556635267, 33.248465483808218 ], [ -116.537005323301742, 33.24878056922438 ], [ -116.53724380559305, 33.249200874432063 ], [ -116.537441216009427, 33.24948980463995 ], [ -116.537747483717283, 33.249693661931303 ], [ -116.53801632850849, 33.249790277556144 ], [ -116.538519739966091, 33.249805757764477 ], [ -116.538896579548805, 33.249835011931111 ], [ -116.539680612880943, 33.250159637972274 ], [ -116.540716445170972, 33.250491995263417 ], [ -116.541443242044863, 33.251168316095686 ], [ -116.542454134751608, 33.25256041401019 ], [ -116.542851488917677, 33.253085253592701 ], [ -116.542898526417616, 33.253220221300808 ], [ -116.542911156625905, 33.253256210884103 ], [ -116.542963616000861, 33.253406815050539 ], [ -116.5429461389175, 33.253494336925428 ], [ -116.542863352459335, 33.253909916091402 ], [ -116.542802494126079, 33.254215022340929 ], [ -116.542466800376587, 33.254880008798239 ], [ -116.542204967043688, 33.255398621297445 ], [ -116.541788192044351, 33.255740977546907 ], [ -116.5417560691277, 33.255759730671912 ], [ -116.541323492045024, 33.255866503588379 ], [ -116.541171256628616, 33.255985510879896 ], [ -116.541146693087001, 33.256261348379439 ], [ -116.541130373295346, 33.256443876504136 ], [ -116.541215392045217, 33.256906037961755 ], [ -116.541425392044914, 33.257389772336012 ], [ -116.541658058711221, 33.257838869210332 ], [ -116.541800847252659, 33.258903773375323 ], [ -116.541888182669197, 33.259312996291385 ], [ -116.541960105585702, 33.260075274415215 ], [ -116.541978016002361, 33.260242497331603 ], [ -116.541951049335751, 33.260284021289863 ], [ -116.541870368085881, 33.260408246289671 ], [ -116.541479744128139, 33.2604807764979 ], [ -116.541174064961922, 33.260580065039392 ], [ -116.540977805587261, 33.260803466080745 ], [ -116.540725264962646, 33.261000988997068 ], [ -116.540322074338292, 33.261362932746522 ], [ -116.540027580588742, 33.261535015037907 ], [ -116.539934781630507, 33.26168914107933 ], [ -116.539913646213904, 33.261845471287415 ], [ -116.539940821213861, 33.26207207857874 ], [ -116.53995579621386, 33.262196948370217 ], [ -116.539905993088894, 33.2623523973283 ], [ -116.539885094130625, 33.262375659828308 ], [ -116.539694871214238, 33.262587417119619 ], [ -116.539513459756165, 33.262799196285982 ], [ -116.539227008714988, 33.263116424410441 ], [ -116.539211593089988, 33.263141283785444 ], [ -116.539115389965161, 33.263296408785209 ], [ -116.539073972256858, 33.263370357743383 ], [ -116.539086954548509, 33.263422004618349 ], [ -116.539097166006854, 33.263462616076595 ], [ -116.539214348298344, 33.263556232743099 ], [ -116.539332964964785, 33.263650993159615 ], [ -116.539482245172906, 33.263848784825996 ], [ -116.53946005871461, 33.264029232742359 ], [ -116.539428854547964, 33.264186697325499 ], [ -116.539091186840153, 33.264706611908025 ], [ -116.538465378507794, 33.265571119198341 ], [ -116.537458886842728, 33.266494743155249 ], [ -116.537067313926627, 33.266800820238075 ], [ -116.536874724343591, 33.266883311904621 ], [ -116.536526688927495, 33.266962792112849 ], [ -116.536125075386451, 33.267213712945761 ], [ -116.536064896219898, 33.267417101487126 ], [ -116.536026518094957, 33.267546605653592 ], [ -116.53586845663682, 33.2682840660691 ], [ -116.535572698303952, 33.268805257734982 ], [ -116.535399464970908, 33.268985403568024 ], [ -116.535367287887652, 33.269018899401317 ], [ -116.535176504554613, 33.269217337942678 ], [ -116.535126134763004, 33.26926225044258 ], [ -116.534847378513405, 33.269511494192216 ], [ -116.534564604555555, 33.269764066066841 ], [ -116.534197893097769, 33.269982623358146 ], [ -116.533867769139931, 33.270325916065929 ], [ -116.53344338372392, 33.270581584815545 ], [ -116.533393120182382, 33.270611826482195 ], [ -116.533166421224394, 33.270977677523263 ], [ -116.533004995182978, 33.27132459314771 ], [ -116.532743231641689, 33.271546376480728 ], [ -116.532365296225635, 33.271699052522138 ], [ -116.532336875392332, 33.271710557730444 ], [ -116.531900323309685, 33.272085977521556 ], [ -116.531807120184794, 33.272295206687886 ], [ -116.531578862893525, 33.272980768145146 ], [ -116.531571108726837, 33.273375019186233 ], [ -116.531387013935444, 33.273740538977336 ], [ -116.531336927477241, 33.274410634809612 ], [ -116.531085524352591, 33.275357380641481 ], [ -116.530621136853313, 33.275891026473971 ], [ -116.530413828520295, 33.276308915014965 ], [ -116.530288119145496, 33.276782248347615 ], [ -116.529767846229674, 33.277632279596276 ], [ -116.529562920188312, 33.277997229595712 ], [ -116.529299596230373, 33.278254225428611 ], [ -116.528867600397689, 33.278523759803193 ], [ -116.528402799356741, 33.278580106678135 ], [ -116.52828239623193, 33.278542122303179 ], [ -116.527967605607444, 33.278442940011701 ], [ -116.52744064414992, 33.278479770219974 ], [ -116.527101009775436, 33.278557708761525 ], [ -116.526851286859198, 33.278726475427902 ], [ -116.526442119151454, 33.278731752511248 ], [ -116.526144342068619, 33.278649348344686 ], [ -116.525961810818899, 33.278663931678011 ], [ -116.526092485818708, 33.279039151469078 ], [ -116.526197654568534, 33.279519600426681 ], [ -116.526381337901569, 33.280126228550728 ], [ -116.526568308734625, 33.28113947959082 ], [ -116.526981208733957, 33.281788645214817 ], [ -116.527013225400594, 33.28291452646306 ], [ -116.527314077483481, 33.283796219170029 ], [ -116.527656936857909, 33.284124968127855 ], [ -116.527867782690919, 33.2845910004188 ], [ -116.527874137899232, 33.284927053543299 ], [ -116.527922667065866, 33.285083308751382 ], [ -116.528033656649029, 33.285265352501085 ], [ -116.52811024102391, 33.285390967084254 ], [ -116.528122244148847, 33.285453224375772 ], [ -116.528157077482149, 33.285633910833837 ], [ -116.528187382690419, 33.28589080458346 ], [ -116.528122119148861, 33.286002711874971 ], [ -116.527973107690741, 33.286231986874611 ], [ -116.527869087899262, 33.28649115770753 ], [ -116.527867646232608, 33.286675510832254 ], [ -116.527981964982416, 33.286795150415401 ], [ -116.528479461856648, 33.286951834790159 ], [ -116.529294791022039, 33.287047704581653 ], [ -116.530513038936817, 33.287544770205898 ], [ -116.531276428518993, 33.287868721247037 ], [ -116.531378356643813, 33.287917021246983 ], [ -116.531914727476305, 33.288171220204902 ], [ -116.532352369142302, 33.288255437913108 ], [ -116.532447361850473, 33.288488129579434 ], [ -116.532362835808954, 33.288980398328647 ], [ -116.532252674350786, 33.289165207703377 ], [ -116.531899662893011, 33.289359611869713 ], [ -116.531864067059701, 33.289378264994696 ], [ -116.531312005602274, 33.289667541035897 ], [ -116.531158133727502, 33.289904300410569 ], [ -116.531100066019235, 33.290024697285389 ], [ -116.530975588936087, 33.290140176451871 ], [ -116.530698980603177, 33.290228256660043 ], [ -116.530179850395655, 33.290610735826135 ], [ -116.529864061854482, 33.290939107700638 ], [ -116.529766387896302, 33.291089387908698 ], [ -116.52974095872969, 33.291128512908642 ], [ -116.529744891021323, 33.291303660825065 ], [ -116.529745841021338, 33.291346009783297 ], [ -116.529683399354781, 33.291790857699311 ], [ -116.529758920187987, 33.292034681657242 ], [ -116.529861018104498, 33.292327623323445 ], [ -116.530005600395953, 33.292633948322987 ], [ -116.530054984770857, 33.292701482697908 ], [ -116.530141100395724, 33.292819245197677 ], [ -116.530249114978915, 33.292900764989213 ], [ -116.530307903520452, 33.292945131655813 ], [ -116.53046089206191, 33.29305851811398 ], [ -116.53043872122862, 33.293239758738707 ], [ -116.530446713936954, 33.293384101446804 ], [ -116.530494270186864, 33.29346274623839 ], [ -116.530647603519924, 33.293716309779654 ], [ -116.530948334769505, 33.294063667070759 ], [ -116.530983392061103, 33.294095391029032 ], [ -116.531183156644147, 33.294276170195417 ], [ -116.531464142060372, 33.294364675403642 ], [ -116.531650535810058, 33.294423384778554 ], [ -116.531959149351223, 33.294589858736629 ], [ -116.532454744142171, 33.294993530611009 ], [ -116.532478685808769, 33.295011259777652 ], [ -116.532665271225142, 33.29509221915248 ], [ -116.533036533724555, 33.295253424360567 ], [ -116.533179981641013, 33.295315686860476 ], [ -116.533613062890367, 33.295505768110218 ], [ -116.534494582680622, 33.295700244151533 ], [ -116.534632451430411, 33.295730702484832 ], [ -116.535068275388085, 33.295826874359705 ], [ -116.53519512122125, 33.295854950401292 ], [ -116.535508470179082, 33.295899920192937 ], [ -116.536088422261514, 33.296094513942592 ], [ -116.536374564969378, 33.296279998317345 ], [ -116.536576019135737, 33.296480624358708 ], [ -116.536617679552364, 33.296634185816799 ], [ -116.536648513927275, 33.296748016024935 ], [ -116.536804849343753, 33.297017991024518 ], [ -116.536985406635097, 33.297217970190843 ], [ -116.537360474342847, 33.297363052482297 ], [ -116.537481453509315, 33.297409901440574 ], [ -116.537806496217172, 33.297667392065193 ], [ -116.538290483716423, 33.297959245189702 ], [ -116.538459742049497, 33.298111649356144 ], [ -116.538731131632403, 33.298155329564395 ], [ -116.538973754548692, 33.298132121231106 ], [ -116.539849614963998, 33.298048271231266 ], [ -116.540206471213423, 33.298059230606214 ], [ -116.540605959754487, 33.298053832689561 ], [ -116.541061384753789, 33.297731973315081 ], [ -116.541503992044738, 33.297298256649071 ], [ -116.541758737877728, 33.297052507691149 ], [ -116.542312289960194, 33.296538211858604 ], [ -116.542488880584926, 33.296439301442092 ], [ -116.542680168084587, 33.296332157692234 ], [ -116.542884048292649, 33.29626596706737 ], [ -116.543084261833997, 33.296284183733974 ], [ -116.543323829541919, 33.296388134775498 ], [ -116.54373971912463, 33.296676404566711 ], [ -116.543797734749546, 33.296716617066636 ], [ -116.543861858707771, 33.296769926441584 ], [ -116.544310474332065, 33.297142887899327 ], [ -116.54447469516515, 33.297329047274047 ], [ -116.544753098289732, 33.297530781648732 ], [ -116.545244492038933, 33.297787346231644 ], [ -116.54551378995518, 33.297868052481533 ], [ -116.545997647246111, 33.297967411856348 ], [ -116.546297713912338, 33.298000761856315 ], [ -116.54643953370379, 33.298041332689593 ], [ -116.546531098286948, 33.29809420768953 ], [ -116.5467070045367, 33.298400105605708 ], [ -116.547157188911001, 33.2995539441456 ], [ -116.547466210785501, 33.30018202226961 ], [ -116.547857783701545, 33.30076537851869 ], [ -116.547916803493138, 33.300922157685136 ], [ -116.547986546201344, 33.301107416018169 ], [ -116.548156761826078, 33.301486945184251 ], [ -116.548204190992692, 33.301717816017231 ], [ -116.548366860784085, 33.301940143100182 ], [ -116.548389323284084, 33.301959534766866 ], [ -116.548975858699862, 33.302465932682708 ], [ -116.54927879203268, 33.302765002473905 ], [ -116.549304913907633, 33.302972458723616 ], [ -116.549310842032639, 33.303019551431873 ], [ -116.549374183699229, 33.30321468372324 ], [ -116.549476204532368, 33.303387835806291 ], [ -116.549548062865597, 33.303509801431119 ], [ -116.54956577744889, 33.303763908722374 ], [ -116.549510497240647, 33.303937869138792 ], [ -116.549432778490768, 33.304182447263372 ], [ -116.549428077449136, 33.304290974346543 ], [ -116.549491697240683, 33.304371949346432 ], [ -116.549522467032318, 33.304411112888033 ], [ -116.549564165990603, 33.304464185804648 ], [ -116.550030069114882, 33.304647499346004 ], [ -116.550071168073146, 33.304648756637675 ], [ -116.550130449323035, 33.304650571220975 ], [ -116.55058177536398, 33.304507421221217 ], [ -116.550980962863377, 33.304241927471651 ], [ -116.551037418071644, 33.304221229555026 ], [ -116.551345722237841, 33.304108198305187 ], [ -116.551764709737199, 33.304048575388606 ], [ -116.552178475361529, 33.304109537888507 ], [ -116.552442585777783, 33.304310813929874 ], [ -116.552663674319092, 33.304510772262859 ], [ -116.553226313901575, 33.304781550387474 ], [ -116.553452102442861, 33.304872980595633 ], [ -116.554052818066964, 33.304927579553919 ], [ -116.554124788900197, 33.304938921220526 ], [ -116.554338052441494, 33.304972527470511 ], [ -116.554509611816229, 33.304989848303819 ], [ -116.55454950348286, 33.305063516012012 ], [ -116.554554406607849, 33.30527884517835 ], [ -116.554570827441125, 33.30531427121997 ], [ -116.554765645149189, 33.305710077469371 ], [ -116.554909045148975, 33.306378559759992 ], [ -116.554994417023806, 33.3068992253842 ], [ -116.555129853481958, 33.307168391008759 ], [ -116.555433247231463, 33.30744283059164 ], [ -116.555924903480729, 33.30774069413286 ], [ -116.556399307646643, 33.307949616007534 ], [ -116.556901012854212, 33.308283401423694 ], [ -116.557152226395488, 33.308882466006082 ], [ -116.557208684728721, 33.309017127464244 ], [ -116.557498188894954, 33.309318624338744 ], [ -116.557828859727749, 33.309743081629733 ], [ -116.558028954519102, 33.30997902329608 ], [ -116.558165772227255, 33.310294584753933 ], [ -116.558214146185492, 33.310406311837085 ], [ -116.558300044102054, 33.310647894128351 ], [ -116.558317492018659, 33.310688820169958 ], [ -116.558535307643353, 33.311199743085808 ], [ -116.55861297222657, 33.311381917043889 ], [ -116.558908683684422, 33.311849776418171 ], [ -116.55897835660096, 33.31191853995972 ], [ -116.559060187850832, 33.311999297251248 ], [ -116.559353540975394, 33.312189372250941 ], [ -116.559531126391789, 33.312400059750644 ], [ -116.559538280558456, 33.312437081625603 ], [ -116.559578075350032, 33.312642980583576 ], [ -116.559681348266565, 33.312911771208178 ], [ -116.559972103474422, 33.313162136832773 ], [ -116.560165573265806, 33.31336822120744 ], [ -116.560205496182391, 33.313410749332377 ], [ -116.560217689932358, 33.313485156623926 ], [ -116.560285057640613, 33.31389615349832 ], [ -116.560293953473945, 33.314355252455925 ], [ -116.560287503473944, 33.314504644122394 ], [ -116.56027885347396, 33.314704947247037 ], [ -116.560051748265948, 33.314975725371653 ], [ -116.559784218058041, 33.315184897246297 ], [ -116.559507557641837, 33.31527304412117 ], [ -116.559028545142553, 33.315391234746016 ], [ -116.558733893059696, 33.315563352454035 ], [ -116.558601790976581, 33.315631707662305 ], [ -116.558161010768913, 33.315859788911951 ], [ -116.557694248269627, 33.316026646203341 ], [ -116.557097290978902, 33.316320996202876 ], [ -116.557048605562329, 33.316345002452863 ], [ -116.556699451396184, 33.316781084743809 ], [ -116.556434314938258, 33.317204628493187 ], [ -116.556313786813462, 33.317397168076241 ], [ -116.555989394105609, 33.317592517034257 ], [ -116.555654827439469, 33.31769095870078 ], [ -116.555324954523314, 33.317680876409099 ], [ -116.554910593065642, 33.317631983700835 ], [ -116.554525958691215, 33.317559853492639 ], [ -116.554010679525334, 33.317519949326027 ], [ -116.553621873275972, 33.317544279534332 ], [ -116.553097724318434, 33.317709361825735 ], [ -116.552861595152137, 33.317796136825621 ], [ -116.552664113902438, 33.317709328492413 ], [ -116.552428245152782, 33.317621182659195 ], [ -116.552045773278394, 33.317432012867812 ], [ -116.551854470153671, 33.317350844117925 ], [ -116.551664303487314, 33.317283971201391 ], [ -116.551391983696078, 33.317188212868189 ], [ -116.551040160779962, 33.317254008701411 ], [ -116.550496624322477, 33.317319109742982 ], [ -116.549745326406992, 33.317396872242909 ], [ -116.54909843994966, 33.317758192033978 ], [ -116.548505012867224, 33.318071389950148 ], [ -116.547669488910174, 33.318364246199735 ], [ -116.547624954535252, 33.318370327449713 ], [ -116.546395047245483, 33.318829658698974 ], [ -116.54579229828812, 33.318710418074204 ], [ -116.545622408705015, 33.318650076407607 ], [ -116.545425746205353, 33.318534702449426 ], [ -116.545213314955674, 33.318533925366125 ], [ -116.544763121206358, 33.318681301407537 ], [ -116.54406236808245, 33.319562547239514 ], [ -116.543970136832627, 33.319804722239155 ], [ -116.5437024472497, 33.320149744113621 ], [ -116.543589423291508, 33.320274665988393 ], [ -116.543369322250214, 33.320233025363507 ], [ -116.543000506625788, 33.320078360780371 ], [ -116.542697125376264, 33.319947489947253 ], [ -116.542429435793338, 33.319947489947253 ], [ -116.542203386835354, 33.31998318161385 ], [ -116.542024927460602, 33.320036720155429 ], [ -116.541864313919234, 33.320048617030409 ], [ -116.541715597252789, 33.319995079530543 ], [ -116.541620419127923, 33.319769030572559 ], [ -116.541501446211441, 33.31940021390642 ], [ -116.541495497253095, 33.3190611409903 ], [ -116.541412216003266, 33.318745862865796 ], [ -116.541192116003572, 33.318561454532755 ], [ -116.540977963920568, 33.318353251408041 ], [ -116.540835197254125, 33.318127202450057 ], [ -116.540549661837929, 33.317466902451088 ], [ -116.540597250379506, 33.317365775367932 ], [ -116.540597250379506, 33.317223007659834 ], [ -116.540692429546027, 33.31673521807727 ], [ -116.54074596704595, 33.316306914952918 ], [ -116.540799504545873, 33.316033276411645 ], [ -116.540811402462509, 33.31579533057868 ], [ -116.540864939962432, 33.315164773288018 ], [ -116.540847094129106, 33.314659137872127 ], [ -116.540805453504163, 33.314308168081027 ], [ -116.540674582671045, 33.31407022120635 ], [ -116.540545178504601, 33.313902504539953 ], [ -116.540449605588094, 33.313848497248387 ], [ -116.540194070171822, 33.313834137873414 ], [ -116.539682214964273, 33.313952965998226 ], [ -116.538451597257847, 33.314042294123112 ], [ -116.538180222258234, 33.314001044123131 ], [ -116.537844592050419, 33.314026624331461 ], [ -116.537412969134436, 33.314078672248058 ], [ -116.537164878509827, 33.314147553497946 ], [ -116.536932880593554, 33.313986939956521 ], [ -116.536742523302166, 33.313891761831655 ], [ -116.536195248302988, 33.313772788915173 ], [ -116.535760996220347, 33.31379658370679 ], [ -116.535386230595918, 33.313748994123557 ], [ -116.535201823304533, 33.313653815998691 ], [ -116.534838954555084, 33.313415870165727 ], [ -116.534535573305561, 33.313249307666013 ], [ -116.534220295181058, 33.313273102457629 ], [ -116.533774146223436, 33.313284999332609 ], [ -116.533375586849047, 33.313415870165727 ], [ -116.533143588932717, 33.313421818082361 ], [ -116.532971078516368, 33.313487253498977 ], [ -116.532804516016597, 33.313445612874034 ], [ -116.532655799350152, 33.313326639957552 ], [ -116.53250708372542, 33.313338536832532 ], [ -116.532400007683918, 33.313463458707304 ], [ -116.532340521225649, 33.313534843082209 ], [ -116.532120421226011, 33.313630021207075 ], [ -116.531870577476411, 33.313582431623786 ], [ -116.531329839977218, 33.313385199332458 ], [ -116.531059045185998, 33.313236629540995 ], [ -116.530894998311226, 33.313064899332915 ], [ -116.530668949353242, 33.313029207666318 ], [ -116.530282286853833, 33.312993514958066 ], [ -116.529783170187955, 33.312829403499961 ], [ -116.529527923313367, 33.312761368083386 ], [ -116.529336451438667, 33.312594955583677 ], [ -116.529039019147433, 33.312553314958734 ], [ -116.528664253523004, 33.312523572250427 ], [ -116.528366821231828, 33.312481931625484 ], [ -116.52791472331586, 33.312309420167423 ], [ -116.527819545190994, 33.312119063917748 ], [ -116.527647033732933, 33.31206552537617 ], [ -116.527373396233372, 33.311887066001418 ], [ -116.526706948317724, 33.31151661496034 ], [ -116.52629333477671, 33.311193111835848 ], [ -116.525910878527327, 33.3110172805861 ], [ -116.525591522277807, 33.310989232669499 ], [ -116.525240433736656, 33.310920825377934 ], [ -116.524698520195841, 33.310690723294954 ], [ -116.524236481654896, 33.310460925378663 ], [ -116.523646503530813, 33.310257462878951 ], [ -116.522832367073761, 33.310147030587473 ], [ -116.522549038949194, 33.310156007670798 ], [ -116.522227811866344, 33.3102630837123 ], [ -116.521841149366935, 33.310376108712092 ], [ -116.521490178534179, 33.310423697253725 ], [ -116.521133259784733, 33.310393954545418 ], [ -116.520699007702035, 33.310393954545418 ], [ -116.520371831660896, 33.310370159753802 ], [ -116.520139834786278, 33.310286878503916 ], [ -116.519907836869947, 33.310102470170875 ], [ -116.519622301453751, 33.30992995975447 ], [ -116.519318920204228, 33.309912112879488 ], [ -116.519092872287899, 33.30992995975447 ], [ -116.518902514996512, 33.309846678504584 ], [ -116.518676466038528, 33.309816934754622 ], [ -116.518480160830507, 33.309846678504584 ], [ -116.518188676455964, 33.309816934754622 ], [ -116.517920986873037, 33.309733653504793 ], [ -116.517540273331974, 33.30969201287985 ], [ -116.517419543123822, 33.309643241004892 ], [ -116.517292409790684, 33.30952202538009 ], [ -116.516893114999618, 33.309507060796818 ], [ -116.516621987916722, 33.309425525380277 ], [ -116.516414537917058, 33.309384476421997 ], [ -116.516094751459207, 33.309412426421943 ], [ -116.515761626459721, 33.309454067046886 ], [ -116.515434450418581, 33.309584937880004 ], [ -116.515220299377233, 33.309799088921352 ], [ -116.514881225419401, 33.310007292046009 ], [ -116.514815791044498, 33.310245237878974 ], [ -116.514821738961189, 33.310631900378382 ], [ -116.51488869208606, 33.310867426419691 ], [ -116.514775307711261, 33.311148668085934 ], [ -116.514599285836539, 33.311201633710823 ], [ -116.514226874378778, 33.311280303502372 ], [ -116.51402462021241, 33.31142307121047 ], [ -116.513887800420946, 33.311601530585222 ], [ -116.513756930629484, 33.311916809751381 ], [ -116.513697444171271, 33.312041730584554 ], [ -116.513596317088059, 33.312130960792729 ], [ -116.513298883755226, 33.312172601417672 ], [ -116.513007400422339, 33.312220191000904 ], [ -116.512727813964432, 33.312226138917595 ], [ -116.512507713964794, 33.31232726600075 ], [ -116.512335202506733, 33.312410547250636 ], [ -116.512073461882096, 33.312434342042252 ], [ -116.511811721257516, 33.31232726600075 ], [ -116.511472648341396, 33.31231536912577 ], [ -116.511335828549932, 33.312285625375807 ], [ -116.511118453550239, 33.312214048292617 ], [ -116.510967330633832, 33.312193404542597 ], [ -116.510281071259897, 33.312069980584511 ], [ -116.509738140010711, 33.312027597251188 ], [ -116.509658412927536, 33.312000455584609 ], [ -116.509594961885966, 33.3119197243347 ], [ -116.509483811886128, 33.311798564959929 ], [ -116.509230005636539, 33.311607479543511 ], [ -116.509045597303498, 33.311530147251972 ], [ -116.50884334313713, 33.311446866002143 ], [ -116.508593500429185, 33.311345738918931 ], [ -116.508254426471353, 33.311363584752257 ], [ -116.508034326471716, 33.311369533710547 ], [ -116.507659561888943, 33.311321944127315 ], [ -116.507266950431244, 33.311286252460718 ], [ -116.506802955640296, 33.311238662877429 ], [ -116.506606650432275, 33.311197022252486 ], [ -116.506469831682466, 33.311036408711061 ], [ -116.506225936891212, 33.310976922252848 ], [ -116.50588686293338, 33.310965025377868 ], [ -116.505500200433971, 33.310923384752925 ], [ -116.505167076476141, 33.310893641002963 ], [ -116.504988617101446, 33.310828205586404 ], [ -116.504905083768222, 33.310693911836609 ], [ -116.504842327518361, 33.310587264961782 ], [ -116.504810145226713, 33.310532571211866 ], [ -116.504584108768768, 33.310441543086995 ], [ -116.504233137935955, 33.310334468087149 ], [ -116.503977346269664, 33.310358261837166 ], [ -116.503721553561718, 33.310399902462052 ], [ -116.50357283689533, 33.310328519128859 ], [ -116.503322994187386, 33.310310673295533 ], [ -116.502888742104687, 33.310346364962186 ], [ -116.5023474150222, 33.310441543086995 ], [ -116.501990496272754, 33.310518876420247 ], [ -116.501777648356438, 33.310620443086748 ], [ -116.501725535856508, 33.310775097253156 ], [ -116.501644745231658, 33.310935735794601 ], [ -116.501455117106957, 33.311292200377352 ], [ -116.501324246273782, 33.311643171210164 ], [ -116.501229068148973, 33.311827579543206 ], [ -116.501199325440666, 33.311970347251304 ], [ -116.501032762940895, 33.312107166001113 ], [ -116.500878097316161, 33.312208293084268 ], [ -116.500741507733039, 33.312447832667203 ], [ -116.500657997316523, 33.312618750375293 ], [ -116.500426000441848, 33.312957823291413 ], [ -116.500431948358539, 33.313136282666164 ], [ -116.500455743150155, 33.313249307666013 ], [ -116.500586613983273, 33.313392075374111 ], [ -116.500693690024775, 33.313493202457266 ], [ -116.500663946274813, 33.313558637873825 ], [ -116.500408154608579, 33.313606226415459 ], [ -116.500092875442363, 33.313772788915173 ], [ -116.499662201484739, 33.314012865998109 ], [ -116.499278020235295, 33.314145453497929 ], [ -116.498986426485772, 33.314207040997815 ], [ -116.498825812944347, 33.314254629539448 ], [ -116.498321995236779, 33.314009798289817 ], [ -116.49814475669541, 33.313966506623217 ], [ -116.497873402529137, 33.313925169123252 ], [ -116.497650360862849, 33.31381696079012 ], [ -116.497331773363328, 33.313654711832044 ], [ -116.497060421280423, 33.313613372248767 ], [ -116.49691618065566, 33.313693268081977 ], [ -116.496915256697321, 33.31385422641506 ], [ -116.496706187947609, 33.314094821206368 ], [ -116.496370546281469, 33.314120288914637 ], [ -116.495476686907864, 33.313982527456517 ], [ -116.495062252533501, 33.313819881623431 ], [ -116.495030515033591, 33.313772723290185 ], [ -116.494998892116939, 33.313725730581893 ], [ -116.494807418158928, 33.313684710790312 ], [ -116.494583837950927, 33.313670387873685 ], [ -116.494344206701328, 33.313669412873651 ], [ -116.494008643160157, 33.31368146287366 ], [ -116.493561485869179, 33.313652813915382 ], [ -116.493193818161444, 33.313691554540299 ], [ -116.4929378994118, 33.313744162873547 ], [ -116.492489732745867, 33.313889881623311 ], [ -116.492217915037941, 33.313929013914958 ], [ -116.491849543163482, 33.31408846703971 ], [ -116.491464965039086, 33.314288096206042 ], [ -116.491160180664565, 33.314501463914041 ], [ -116.490823991081754, 33.314620807663857 ], [ -116.490487800457288, 33.314740151413673 ], [ -116.49012012545785, 33.314778881621919 ], [ -116.489625036916948, 33.314750023288639 ], [ -116.489401377542322, 33.314749104538635 ], [ -116.488953200459662, 33.314894808705105 ], [ -116.488537832752002, 33.314893100371762 ], [ -116.488041646294391, 33.31505201703817 ], [ -116.487672321295008, 33.315372418079335 ], [ -116.487447326503684, 33.315599520162323 ], [ -116.487317869212234, 33.315880669120247 ], [ -116.48721989421233, 33.31624242641135 ], [ -116.487185060879085, 33.316317364952909 ], [ -116.487058093170958, 33.316590508702461 ], [ -116.486817510879632, 33.316750476410562 ], [ -116.486385215046994, 33.316909652451955 ], [ -116.486223406713918, 33.317257731618099 ], [ -116.486280600463829, 33.317767804533958 ], [ -116.486209216088923, 33.318089031616807 ], [ -116.486114037964057, 33.318386464949697 ], [ -116.485784098381259, 33.318610673282649 ], [ -116.485271751507071, 33.318796339949017 ], [ -116.48491908796592, 33.318996079532042 ], [ -116.484678729632947, 33.319115804531862 ], [ -116.484629776508029, 33.319289976406594 ], [ -116.484579241091467, 33.319732410780944 ], [ -116.484545552549832, 33.320027365988778 ], [ -116.48428763380025, 33.320415286821515 ], [ -116.484031219217286, 33.320548355571304 ], [ -116.483758979634388, 33.320654531612831 ], [ -116.483438180676558, 33.320867813904158 ], [ -116.48324535151022, 33.321054799320564 ], [ -116.482908571302403, 33.32126801494519 ], [ -116.48261908796951, 33.321588730569715 ], [ -116.482361871303226, 33.321855928485945 ], [ -116.481961496303882, 33.322015220152366 ], [ -116.481449596304628, 33.322120393068872 ], [ -116.481098024430196, 33.322132339943892 ], [ -116.480794222347356, 33.322171309735495 ], [ -116.480498509847791, 33.322276883693632 ], [ -116.480320050473097, 33.322383958693479 ], [ -116.480141591098345, 33.322395856610115 ], [ -116.479832260890475, 33.3222292941104 ], [ -116.479422116099443, 33.32184364411097 ], [ -116.479055445266681, 33.321707973277853 ], [ -116.478752362975513, 33.321626222236318 ], [ -116.478545304642466, 33.321518045153141 ], [ -116.478449282767656, 33.32154446806976 ], [ -116.478320829642826, 33.321651236819605 ], [ -116.478127505684824, 33.321918694110877 ], [ -116.477967256726743, 33.321998501402391 ], [ -116.477710985893793, 33.32210473161058 ], [ -116.477581091102309, 33.322452934735054 ], [ -116.477518852560763, 33.322575798276489 ], [ -116.477370906727629, 33.322867868067704 ], [ -116.477262443186135, 33.323097797234027 ], [ -116.477217625477863, 33.323439029525161 ], [ -116.477047197353158, 33.323564002441628 ], [ -116.476981926519898, 33.323791757649644 ], [ -116.476883739020082, 33.324180332649007 ], [ -116.476786432770211, 33.324421364940292 ], [ -116.47664223589544, 33.324487825356869 ], [ -116.476482542145675, 33.324473738898575 ], [ -116.476275156729344, 33.324419209731957 ], [ -116.476051794229704, 33.324364615982063 ], [ -116.475812937980038, 33.324229473273931 ], [ -116.475515104647172, 33.324175520149026 ], [ -116.475029645272969, 33.324293233690526 ], [ -116.474534023398689, 33.324344790982082 ], [ -116.474198339024213, 33.324370198273698 ], [ -116.473973527566272, 33.324557032648443 ], [ -116.473828764024802, 33.324717380564834 ], [ -116.473683112983394, 33.325025273272729 ], [ -116.473600842150177, 33.325195443064104 ], [ -116.473521320275267, 33.325359923272174 ], [ -116.473343550483889, 33.32569450556332 ], [ -116.473005759859404, 33.326068649312731 ], [ -116.472876000484632, 33.326390020145595 ], [ -116.472732121318188, 33.326402824312254 ], [ -116.472221561943968, 33.326279934729087 ], [ -116.471551385903354, 33.326129538895998 ], [ -116.470978054654211, 33.325818588896482 ], [ -116.470532871321609, 33.325454529522062 ], [ -116.470349693196852, 33.325207104522406 ], [ -116.470184206738793, 33.324983574314444 ], [ -116.469946331739152, 33.324687461814904 ], [ -116.469596128614739, 33.324471354523553 ], [ -116.469342683823413, 33.32410810869078 ], [ -116.469167990073686, 33.323932986816089 ], [ -116.468785191115956, 33.32382404410788 ], [ -116.468322010908366, 33.323795236816295 ], [ -116.467923397367315, 33.323659396191488 ], [ -116.467780109867533, 33.323626823274878 ], [ -116.467482858826315, 33.323656971191497 ], [ -116.467316296326601, 33.323728354524746 ], [ -116.467006966118731, 33.323656971191497 ], [ -116.466400203619685, 33.323645073274861 ], [ -116.466053817161878, 33.323691611816457 ], [ -116.465828742162216, 33.323918674316076 ], [ -116.465303272371386, 33.323959161816049 ], [ -116.465029633830113, 33.324125724315763 ], [ -116.464506152580952, 33.324411259732017 ], [ -116.464184925498103, 33.324649205564981 ], [ -116.463946979665138, 33.324661103481617 ], [ -116.463340217166092, 33.324661103481617 ], [ -116.462900016125104, 33.324649205564981 ], [ -116.462554994250638, 33.324673000356597 ], [ -116.462055307793094, 33.324684898273233 ], [ -116.461817361960129, 33.324946638897814 ], [ -116.461686491127011, 33.325172687855797 ], [ -116.461353367169181, 33.325351147230549 ], [ -116.460993619253088, 33.32552081181359 ], [ -116.460625308836995, 33.325653348271715 ], [ -116.460190691129299, 33.326174583687589 ], [ -116.46012529112943, 33.326415739937204 ], [ -116.460058815087848, 33.326831265978228 ], [ -116.460023716129569, 33.327340824310795 ], [ -116.459941427588035, 33.327729454518533 ], [ -116.459779826546594, 33.328023847226405 ], [ -116.459811121338248, 33.328131292017872 ], [ -116.459953350504691, 33.32838676493418 ], [ -116.46003150362958, 33.328668785767036 ], [ -116.460109491129458, 33.328977633683223 ], [ -116.460091610921154, 33.329286062849405 ], [ -116.4602167900876, 33.329715836807111 ], [ -116.460436559878929, 33.330568045139103 ], [ -116.460512855712125, 33.330937743055188 ], [ -116.460303231754153, 33.331245339929694 ], [ -116.459854505713167, 33.33145800451274 ], [ -116.459133149464265, 33.331830439928808 ], [ -116.458908367172967, 33.332003835761896 ], [ -116.458715047381588, 33.332257848261463 ], [ -116.458522224465241, 33.332431381594517 ], [ -116.458234690090705, 33.332416714927888 ], [ -116.4578016234247, 33.332437075344558 ], [ -116.457451477591917, 33.332453535761204 ], [ -116.457004155717584, 33.332438167011219 ], [ -116.456684163009754, 33.332503836802744 ], [ -116.45620329842717, 33.332743173260724 ], [ -116.455626807803071, 33.332941849302074 ], [ -116.45549897863657, 33.332941287843767 ], [ -116.455083609887254, 33.332926053468782 ], [ -116.454826276554286, 33.333193189926703 ], [ -116.454586593221336, 33.333192139926723 ], [ -116.454106139055398, 33.333364402426412 ], [ -116.453786140097577, 33.333430062842979 ], [ -116.453593639056237, 33.333549935759493 ], [ -116.453177431765198, 33.333668826384269 ], [ -116.452936822390598, 33.333815313884088 ], [ -116.452600341141078, 33.333961378467166 ], [ -116.452177860933432, 33.334157812841852 ], [ -116.45088813801874, 33.334112525341936 ], [ -116.45027459635304, 33.33409566596697 ], [ -116.449889123436947, 33.33409566596697 ], [ -116.449318052604497, 33.334152773258552 ], [ -116.448431700522576, 33.334101642008591 ], [ -116.448160342189681, 33.334178840966842 ], [ -116.447906853648362, 33.334252050341718 ], [ -116.447786047398552, 33.334286940966649 ], [ -116.447449309899071, 33.334363848258192 ], [ -116.447062324482999, 33.334681013882744 ], [ -116.446848172399996, 33.334695289924355 ], [ -116.445749413026704, 33.334356274299864 ], [ -116.445384602610602, 33.334440890966448 ], [ -116.445019891152867, 33.334509823257974 ], [ -116.444758217194931, 33.33453217534128 ], [ -116.444514926570321, 33.334601651382854 ], [ -116.444206604695808, 33.33461595138283 ], [ -116.443505745321886, 33.334667696174392 ], [ -116.443103622405829, 33.334744299299302 ], [ -116.442645105739871, 33.33487552742406 ], [ -116.442130647407339, 33.334990825340583 ], [ -116.441485028658349, 33.335168251381958 ], [ -116.440951786992514, 33.33529913992345 ], [ -116.440717931784548, 33.335352968048369 ], [ -116.440475034909923, 33.335359714923356 ], [ -116.440420673451683, 33.335361294089978 ], [ -116.440241481785279, 33.335366502423312 ], [ -116.440026755743929, 33.33534985450666 ], [ -116.43965324949454, 33.335332488881704 ], [ -116.439298523453431, 33.335299525340076 ], [ -116.438989808870531, 33.335321659715078 ], [ -116.43852308699627, 33.335327384715072 ], [ -116.438028711997049, 33.335223224298545 ], [ -116.437916536997193, 33.335183277423596 ], [ -116.437404330747995, 33.335000867007238 ], [ -116.436947723457081, 33.334834151382495 ], [ -116.436341171374693, 33.334745155549285 ], [ -116.435901578667028, 33.334837245132462 ], [ -116.435350513042863, 33.334834740965789 ], [ -116.43495852866846, 33.334785915965881 ], [ -116.43465964637727, 33.334784556590876 ], [ -116.434220609919635, 33.334790397215897 ], [ -116.434023958878242, 33.334867905549117 ], [ -116.433704975545425, 33.33508598054874 ], [ -116.43273831513028, 33.335795040964342 ], [ -116.432690748463642, 33.335928110755788 ], [ -116.432687388046986, 33.335968032630717 ], [ -116.43266038908871, 33.336288629505248 ], [ -116.432676934922029, 33.336618000338035 ], [ -116.432581093255521, 33.336993901379117 ], [ -116.432259043256011, 33.337682381586376 ], [ -116.432207509922762, 33.338426979501889 ], [ -116.431942260964831, 33.338998112834361 ], [ -116.431733712006803, 33.339467579500308 ], [ -116.431590750548708, 33.33990598679128 ], [ -116.431717548465201, 33.340518114915312 ], [ -116.431818156798329, 33.340847870123127 ], [ -116.431889796381597, 33.341156672206012 ], [ -116.431668459923571, 33.341113757622736 ], [ -116.431633917215322, 33.34113547220602 ], [ -116.431430780757296, 33.341114471164417 ], [ -116.431383697424053, 33.341109603456061 ], [ -116.431085720341173, 33.341125480539404 ], [ -116.431046970341242, 33.341127546164387 ], [ -116.430956415133039, 33.341132371164349 ], [ -116.430322052633983, 33.341290174289099 ], [ -116.430225330759185, 33.341353247205689 ], [ -116.43012523284267, 33.341418520122261 ], [ -116.430052887009424, 33.341603889913642 ], [ -116.429994888051169, 33.341770807621742 ], [ -116.429961765134578, 33.341815749288287 ], [ -116.42989676409303, 33.341903937829841 ], [ -116.429831427634781, 33.341992581579689 ], [ -116.42950579117695, 33.342238334704348 ], [ -116.428945222427785, 33.342371745120772 ], [ -116.428694756803225, 33.342382956579115 ], [ -116.428592901595039, 33.342361941995819 ], [ -116.428327029720435, 33.342307090954193 ], [ -116.427930087012726, 33.342194000329414 ], [ -116.427753507846319, 33.342168461787764 ], [ -116.427620628679847, 33.342217298245998 ], [ -116.427560824513307, 33.342353010745796 ], [ -116.427427621388517, 33.342451295120668 ], [ -116.427150689097289, 33.342481690953946 ], [ -116.427103351597339, 33.342486886787242 ], [ -116.427045814097426, 33.342486622203921 ], [ -116.426970794305873, 33.342486275328952 ], [ -116.426876719306051, 33.342554176370527 ], [ -116.426718629722927, 33.342668283661965 ], [ -116.426630418264722, 33.342731952411896 ], [ -116.426607347431457, 33.342793160745146 ], [ -116.426495513056636, 33.343089840952985 ], [ -116.426422074515074, 33.343113159702966 ], [ -116.426303633890257, 33.343150766994597 ], [ -116.426038926599006, 33.343087730536354 ], [ -116.425863239099272, 33.342926207619939 ], [ -116.425682808891224, 33.342852066995022 ], [ -116.42543724534994, 33.342751163870219 ], [ -116.424981066183989, 33.342687239911982 ], [ -116.424303067226674, 33.342758273245181 ], [ -116.424146903685255, 33.342733379495201 ], [ -116.423743953685914, 33.342669144078627 ], [ -116.423537834936212, 33.342655824287021 ], [ -116.423509030769594, 33.342703515953588 ], [ -116.423448485977985, 33.342803759703429 ], [ -116.423210873478354, 33.343099353452999 ], [ -116.422884398478914, 33.343468710744105 ], [ -116.422558083896035, 33.343813340951897 ], [ -116.422483787021179, 33.343911895118367 ], [ -116.422394517229634, 33.344047465951519 ], [ -116.422510306812796, 33.344357065951044 ], [ -116.422582905771037, 33.344561325325742 ], [ -116.422611532854319, 33.344641873242267 ], [ -116.42253537035441, 33.344819839908666 ], [ -116.422521771396134, 33.344851616991946 ], [ -116.422388642229635, 33.344937533658481 ], [ -116.422239798479893, 33.345171727408115 ], [ -116.422150201605007, 33.345356747199503 ], [ -116.421722899522365, 33.345379482616124 ], [ -116.421427746397796, 33.345464645115953 ], [ -116.421088816190036, 33.345487789907622 ], [ -116.420778443273832, 33.345647053449056 ], [ -116.420586394315762, 33.345732694073888 ], [ -116.420408418274405, 33.34591729928195 ], [ -116.420201718274711, 33.345990510740137 ], [ -116.42002349535835, 33.346212202406491 ], [ -116.419831031816955, 33.346359653447905 ], [ -116.41956459535902, 33.346556205530931 ], [ -116.419387271400979, 33.346641912822463 ], [ -116.419180244317943, 33.346764570113976 ], [ -116.418973376609983, 33.346862500322118 ], [ -116.418604241193862, 33.346996761780247 ], [ -116.41802901306977, 33.347367109696336 ], [ -116.41744604536234, 33.34759315865432 ], [ -116.416934460988102, 33.347533672196107 ], [ -116.416458569322174, 33.347569363862704 ], [ -116.41587363911475, 33.347836952403952 ], [ -116.415444999532099, 33.348057458653614 ], [ -116.415164645365849, 33.348130313861816 ], [ -116.414634221408335, 33.348152540945136 ], [ -116.414177774534096, 33.348125662820166 ], [ -116.413693028701459, 33.347925575320517 ], [ -116.413377928701948, 33.347767291987395 ], [ -116.41292909536935, 33.347625269070988 ], [ -116.412498179745, 33.347613455529313 ], [ -116.4123841912035, 33.347610330529335 ], [ -116.412045668287362, 33.347571638862689 ] ] ] } }
]
}
