{
  "type": "FeatureCollection",
  "name": "borrego_valley_context_8km_aoi",
  "features": [
    {
      "type": "Feature",
      "properties": {
        "name": "Borrego Valley context area",
        "status": "approximate",
        "source": "User-provided approximate center point buffered 8000 m in EPSG:2230",
        "center_lat": 33.28594444444444,
        "center_lon": -116.40080555555556,
        "radius_m": 8000,
        "radius_ft": 26246.72
      },
      "geometry": {
        "type": "Polygon",
        "coordinates": [
          [
            [
              -116.37462736515751,
              33.28597348475787
            ],
            [
              -116.37462895234043,
              33.2857036744704
            ],
            [
              -116.3746344815907,
              33.28543390084685
            ],
            [
              -116.37464395203922,
              33.285164204513585
            ],
            [
              -116.3746573622234,
              33.28489462608498
            ],
            [
              -116.37467471008743,
              33.28462520615731
            ],
            [
              -116.37469599298254,
              33.28435598530264
            ],
            [
              -116.3747212076675,
              33.284087004062606
            ],
            [
              -116.37475035030906,
              33.283818302942436
            ],
            [
              -116.37478341648264,
              33.283549922404866
            ],
            [
              -116.37482040117294,
              33.28328190286385
            ],
            [
              -116.37486129877469,
              33.28301428467874
            ],
            [
              -116.37490610309365,
              33.28274710814804
            ],
            [
              -116.37495480734744,
              33.28248041350335
            ],
            [
              -116.37500740416661,
              33.28221424090346
            ],
            [
              -116.37506388559576,
              33.28194863042802
            ],
            [
              -116.37512424309487,
              33.2816836220718
            ],
            [
              -116.37518846754044,
              33.281419255738555
            ],
            [
              -116.37525654922699,
              33.28115557123493
            ],
            [
              -116.3753284778685,
              33.28089260826458
            ],
            [
              -116.37540424260003,
              33.28063040642219
            ],
            [
              -116.37548383197931,
              33.28036900518748
            ],
            [
              -116.37556723398846,
              33.28010844391927
            ],
            [
              -116.37565443603602,
              33.279848761849564
            ],
            [
              -116.37574542495855,
              33.27958999807758
            ],
            [
              -116.3758401870229,
              33.27933219156409
            ],
            [
              -116.37593870792814,
              33.27907538112521
            ],
            [
              -116.37604097280787,
              33.27881960542686
            ],
            [
              -116.37614696623227,
              33.278564902978836
            ],
            [
              -116.37625667221069,
              33.27831131212892
            ],
            [
              -116.3763700741938,
              33.27805887105734
            ],
            [
              -116.3764871550764,
              33.27780761777078
            ],
            [
              -116.3766078971998,
              33.27755759009684
            ],
            [
              -116.3767322823545,
              33.27730882567818
            ],
            [
              -116.37686029178309,
              33.277061361967085
            ],
            [
              -116.37699190618292,
              33.27681523621966
            ],
            [
              -116.37712710570922,
              33.2765704854902
            ],
            [
              -116.3772658699779,
              33.276327146625775
            ],
            [
              -116.37740817806872,
              33.27608525626053
            ],
            [
              -116.3775540085285,
              33.275844850810245
            ],
            [
              -116.3777033393743,
              33.275605966466934
            ],
            [
              -116.37785614809677,
              33.27536863919325
            ],
            [
              -116.37801241166353,
              33.27513290471716
            ],
            [
              -116.37817210652268,
              33.27489879852656
            ],
            [
              -116.37833520860639,
              33.274666355864
            ],
            [
              -116.3785016933344,
              33.27443561172124
            ],
            [
              -116.3786715356179,
              33.274206600834106
            ],
            [
              -116.37884470986319,
              33.27397935767726
            ],
            [
              -116.37902118997566,
              33.27375391645895
            ],
            [
              -116.37920094936356,
              33.27353031111598
            ],
            [
              -116.37938396094225,
              33.27330857530841
            ],
            [
              -116.37957019713808,
              33.27308874241476
            ],
            [
              -116.3797596298926,
              33.27287084552673
            ],
            [
              -116.37995223066686,
              33.27265491744443
            ],
            [
              -116.38014797044566,
              33.272440990671356
            ],
            [
              -116.38034681974197,
              33.27222909740947
            ],
            [
              -116.38054874860131,
              33.27201926955447
            ],
            [
              -116.3807537266063,
              33.27181153869084
            ],
            [
              -116.38096172288127,
              33.27160593608727
            ],
            [
              -116.38117270609685,
              33.271402492691855
            ],
            [
              -116.38138664447474,
              33.271201239127485
            ],
            [
              -116.38160350579258,
              33.27100220568712
            ],
            [
              -116.38182325738858,
              33.27080542232949
            ],
            [
              -116.38204586616665,
              33.270610918674365
            ],
            [
              -116.3822712986013,
              33.27041872399816
            ],
            [
              -116.3824995207427,
              33.270228867229584
            ],
            [
              -116.3827304982218,
              33.27004137694529
            ],
            [
              -116.38296419625547,
              33.26985628136551
            ],
            [
              -116.38320057965181,
              33.2696736083499
            ],
            [
              -116.38343961281541,
              33.269493385393275
            ],
            [
              -116.38368125975263,
              33.26931563962153
            ],
            [
              -116.38392548407718,
              33.26914039778756
            ],
            [
              -116.38417224901546,
              33.26896768626721
            ],
            [
              -116.38442151741214,
              33.268797531055384
            ],
            [
              -116.3846732517358,
              33.268629957762
            ],
            [
              -116.38492741408452,
              33.2684649916083
            ],
            [
              -116.38518396619152,
              33.26830265742292
            ],
            [
              -116.38544286943106,
              33.26814297963835
            ],
            [
              -116.38570408482424,
              33.26798598228698
            ],
            [
              -116.38596757304468,
              33.267831688997816
            ],
            [
              -116.38623329442466,
              33.26768012299264
            ],
            [
              -116.38650120896094,
              33.26753130708269
            ],
            [
              -116.38677127632083,
              33.26738526366523
            ],
            [
              -116.38704345584829,
              33.2672420147201
            ],
            [
              -116.38731770656996,
              33.267101581806465
            ],
            [
              -116.38759398720138,
              33.266963986059544
            ],
            [
              -116.38787225615317,
              33.26682924818756
            ],
            [
              -116.38815247153731,
              33.26669738846845
            ],
            [
              -116.38843459117344,
              33.2665684267469
            ],
            [
              -116.38871857259511,
              33.2664423824314
            ],
            [
              -116.38900437305637,
              33.266319274491316
            ],
            [
              -116.38929194953789,
              33.26619912145392
            ],
            [
              -116.38958125875374,
              33.26608194140181
            ],
            [
              -116.38987225715766,
              33.265967751970045
            ],
            [
              -116.39016490094977,
              33.26585657034356
            ],
            [
              -116.39045914608302,
              33.26574841325452
            ],
            [
              -116.3907549482699,
              33.26564329697994
            ],
            [
              -116.39105226298905,
              33.26554123733905
            ],
            [
              -116.39135104549194,
              33.26544224969114
            ],
            [
              -116.39165125080966,
              33.26534634893302
            ],
            [
              -116.3919528337596,
              33.26525354949697
            ],
            [
              -116.39225574895234,
              33.26516386534852
            ],
            [
              -116.39255995079823,
              33.26507730998424
            ],
            [
              -116.39286539351455,
              33.26499389642993
            ],
            [
              -116.39317203113225,
              33.26491363723844
            ],
            [
              -116.39347981750275,
              33.26483654448795
            ],
            [
              -116.39378870630507,
              33.264762629780066
            ],
            [
              -116.3940986510526,
              33.2646919042381
            ],
            [
              -116.39440960510024,
              33.26462437850543
            ],
            [
              -116.3947215216513,
              33.264560062743875
            ],
            [
              -116.39503435376454,
              33.26449896663212
            ],
            [
              -116.39534805436134,
              33.26444109936438
            ],
            [
              -116.39566257623255,
              33.26438646964892
            ],
            [
              -116.39597787204582,
              33.26433508570678
            ],
            [
              -116.39629389435244,
              33.26428695527053
            ],
            [
              -116.39661059559481,
              33.26424208558316
            ],
            [
              -116.39692792811323,
              33.26420048339691
            ],
            [
              -116.39724584415332,
              33.26416215497232
            ],
            [
              -116.39756429587295,
              33.26412710607724
            ],
            [
              -116.39788323534974,
              33.26409534198604
            ],
            [
              -116.39820261458794,
              33.264066867478746
            ],
            [
              -116.39852238552581,
              33.264041686840336
            ],
            [
              -116.39884250004282,
              33.2640198038601
            ],
            [
              -116.39916290996683,
              33.264001221831094
            ],
            [
              -116.39948356708135,
              33.263985943549635
            ],
            [
              -116.39980442313278,
              33.26397397131489
            ],
            [
              -116.40012542983764,
              33.26396530692846
            ],
            [
              -116.40044653888985,
              33.263959951694204
            ],
            [
              -116.40076770196792,
              33.263957906418014
            ],
            [
              -116.40108887074236,
              33.26395917140766
            ],
            [
              -116.40140999688266,
              33.263963746472804
            ],
            [
              -116.40173103206483,
              33.263971630924935
            ],
            [
              -116.4020519279785,
              33.263982823577585
            ],
            [
              -116.40237263633426,
              33.263997322746455
            ],
            [
              -116.40269310887074,
              33.26401512624962
            ],
            [
              -116.40301329736211,
              33.2640362314079
            ],
            [
              -116.40333315362507,
              33.26406063504536
            ],
            [
              -116.40365262952632,
              33.264088333489575
            ],
            [
              -116.40397167698957,
              33.26411932257239
            ],
            [
              -116.40429024800294,
              33.26415359763032
            ],
            [
              -116.40460829462599,
              33.26419115350558
            ],
            [
              -116.40492576899713,
              33.26423198454649
            ],
            [
              -116.40524262334058,
              33.26427608460859
            ],
            [
              -116.40555880997375,
              33.26432344705542
            ],
            [
              -116.40587428131424,
              33.26437406475962
            ],
            [
              -116.40618898988708,
              33.26442793010393
            ],
            [
              -116.40650288833184,
              33.264485034982286
            ],
            [
              -116.40681592940975,
              33.264545370801194
            ],
            [
              -116.40712806601069,
              33.26460892848088
            ],
            [
              -116.40743925116043,
              33.26467569845669
            ],
            [
              -116.40774943802758,
              33.2647456706806
            ],
            [
              -116.40805857993071,
              33.26481883462255
            ],
            [
              -116.40836663034516,
              33.26489517927226
            ],
            [
              -116.40867354291034,
              33.26497469314069
            ],
            [
              -116.40897927143634,
              33.26505736426183
            ],
            [
              -116.40928376991126,
              33.26514318019457
            ],
            [
              -116.40958699250771,
              33.2652321280244
            ],
            [
              -116.40988889359002,
              33.26532419436556
            ],
            [
              -116.41018942772091,
              33.26541936536286
            ],
            [
              -116.41048854966846,
              33.265517626693885
            ],
            [
              -116.41078621441268,
              33.26561896357107
            ],
            [
              -116.41108237715255,
              33.26572336074396
            ],
            [
              -116.41137699331257,
              33.26583080250155
            ],
            [
              -116.41167001854947,
              33.26594127267452
            ],
            [
              -116.41196140875894,
              33.266054754637715
            ],
            [
              -116.41225112008223,
              33.26617123131276
            ],
            [
              -116.41253910891272,
              33.266290685170404
            ],
            [
              -116.41282533190252,
              33.26641309823337
            ],
            [
              -116.41310974596888,
              33.26653845207891
            ],
            [
              -116.41339230830083,
              33.2666667278416
            ],
            [
              -116.41367297636543,
              33.26679790621624
            ],
            [
              -116.41395170791436,
              33.26693196746069
            ],
            [
              -116.41422846099006,
              33.267068891398814
            ],
            [
              -116.41450319393223,
              33.26720865742363
            ],
            [
              -116.41477586538397,
              33.267351244500226
            ],
            [
              -116.41504643429806,
              33.26749663116911
            ],
            [
              -116.41531485994307,
              33.26764479554925
            ],
            [
              -116.41558110190952,
              33.26779571534153
            ],
            [
              -116.415845120116,
              33.267949367832
            ],
            [
              -116.41610687481516,
              33.2681057298953
            ],
            [
              -116.41636632659966,
              33.268264777998084
            ],
            [
              -116.41662343640807,
              33.268426488202785
            ],
            [
              -116.41687816553096,
              33.26859083617085
            ],
            [
              -116.41713047561636,
              33.26875779716672
            ],
            [
              -116.4173803286759,
              33.26892734606135
            ],
            [
              -116.41762768709026,
              33.26909945733606
            ],
            [
              -116.41787251361494,
              33.26927410508639
            ],
            [
              -116.41811477138592,
              33.269451263025886
            ],
            [
              -116.41835442392505,
              33.26963090449023
            ],
            [
              -116.41859143514569,
              33.26981300244108
            ],
            [
              -116.41882576935808,
              33.26999752947017
            ],
            [
              -116.41905739127468,
              33.270184457803474
            ],
            [
              -116.41928626601555,
              33.27037375930542
            ],
            [
              -116.41951235911357,
              33.27056540548293
            ],
            [
              -116.41973563651963,
              33.27075936748995
            ],
            [
              -116.41995606460776,
              33.2709556161316
            ],
            [
              -116.42017361018019,
              33.27115412186863
            ],
            [
              -116.42038824047232,
              33.27135485482184
            ],
            [
              -116.42059992315777,
              33.27155778477664
            ],
            [
              -116.42080862635312,
              33.27176288118746
            ],
            [
              -116.42101431862275,
              33.27197011318248
            ],
            [
              -116.42121696898366,
              33.27217944956817
            ],
            [
              -116.42141654690995,
              33.27239085883402
            ],
            [
              -116.42161302233772,
              33.27260430915731
            ],
            [
              -116.42180636566927,
              33.27281976840779
            ],
            [
              -116.42199654777778,
              33.27303720415261
            ],
            [
              -116.42218354001166,
              33.27325658366117
            ],
            [
              -116.42236731419887,
              33.27347787391003
            ],
            [
              -116.42254784265104,
              33.27370104158785
            ],
            [
              -116.42272509816792,
              33.27392605310045
            ],
            [
              -116.42289905404118,
              33.27415287457581
            ],
            [
              -116.42306968405872,
              33.27438147186919
            ],
            [
              -116.42323696250837,
              33.27461181056832
            ],
            [
              -116.42340086418197,
              33.27484385599845
            ],
            [
              -116.42356136437907,
              33.2750775732276
            ],
            [
              -116.4237184389107,
              33.27531292707194
            ],
            [
              -116.42387206410301,
              33.275549882100904
            ],
            [
              -116.42402221680086,
              33.275788402642625
            ],
            [
              -116.4241688743713,
              33.2760284527893
            ],
            [
              -116.42431201470703,
              33.27626999640248
            ],
            [
              -116.42445161622965,
              33.27651299711864
            ],
            [
              -116.42458765789301,
              33.276757418354606
            ],
            [
              -116.42472011918642,
              33.277003223313024
            ],
            [
              -116.42484898013764,
              33.27725037498792
            ],
            [
              -116.424974221316,
              33.27749883617024
            ],
            [
              -116.42509582383529,
              33.27774856945349
            ],
            [
              -116.4252137693566,
              33.27799953723935
            ],
            [
              -116.4253280400912,
              33.278251701743294
            ],
            [
              -116.42543861880313,
              33.278505025000335
            ],
            [
              -116.42554548881186,
              33.27875946887065
            ],
            [
              -116.42564863399477,
              33.279014995045436
            ],
            [
              -116.42574803878968,
              33.27927156505256
            ],
            [
              -116.4258436881971,
              33.27952914026239
            ],
            [
              -116.42593556778269,
              33.27978768189365
            ],
            [
              -116.42602366367923,
              33.280047151019176
            ],
            [
              -116.4261079625888,
              33.280307508571866
            ],
            [
              -116.42618845178494,
              33.28056871535044
            ],
            [
              -116.42626511911442,
              33.28083073202548
            ],
            [
              -116.42633795299912,
              33.28109351914519
            ],
            [
              -116.42640694243784,
              33.2813570371415
            ],
            [
              -116.42647207700797,
              33.28162124633588
            ],
            [
              -116.42653334686703,
              33.28188610694539
            ],
            [
              -116.42659074275426,
              33.282151579088655
            ],
            [
              -116.4266442559919,
              33.28241762279187
            ],
            [
              -116.42669387848667,
              33.28268419799473
            ],
            [
              -116.4267396027309,
              33.28295126455667
            ],
            [
              -116.42678142180377,
              33.28321878226264
            ],
            [
              -116.42681932937221,
              33.28348671082938
            ],
            [
              -116.42685331969211,
              33.28375500991135
            ],
            [
              -116.42688338760904,
              33.28402363910688
            ],
            [
              -116.42690952855908,
              33.284292557964214
            ],
            [
              -116.42693173856951,
              33.284561725987615
            ],
            [
              -116.42695001425956,
              33.28483110264342
            ],
            [
              -116.42696435284073,
              33.2851006473662
            ],
            [
              -116.4269747521174,
              33.285370319564876
            ],
            [
              -116.42698121048713,
              33.28564007862879
            ],
            [
              -116.4269837269409,
              33.28590988393378
            ],
            [
              -116.4269823010633,
              33.286179694848414
            ],
            [
              -116.42697693303262,
              33.28644947074003
            ],
            [
              -116.4269676236209,
              33.28671917098085
            ],
            [
              -116.42695437419366,
              33.2869887549541
            ],
            [
              -116.42693718670992,
              33.28725818206023
            ],
            [
              -116.42691606372183,
              33.287527411722856
            ],
            [
              -116.42689100837433,
              33.287796403394985
            ],
            [
              -116.42686202440461,
              33.288065116565136
            ],
            [
              -116.42682911614176,
              33.288333510763344
            ],
            [
              -116.42679228850592,
              33.28860154556737
            ],
            [
              -116.42675154700774,
              33.288869180608685
            ],
            [
              -116.42670689774745,
              33.28913637557867
            ],
            [
              -116.42665834741408,
              33.289403090234536
            ],
            [
              -116.42660590328427,
              33.28966928440555
            ],
            [
              -116.42654957322148,
              33.28993491799895
            ],
            [
              -116.42648936567456,
              33.290199951006095
            ],
            [
              -116.4264252896767,
              33.29046434350843
            ],
            [
              -116.42635735484393,
              33.29072805568349
            ],
            [
              -116.42628557137382,
              33.29099104781093
            ],
            [
              -116.4262099500439,
              33.29125328027856
            ],
            [
              -116.42613050221004,
              33.29151471358817
            ],
            [
              -116.42604723980479,
              33.29177530836168
            ],
            [
              -116.42596017533562,
              33.29203502534682
            ],
            [
              -116.42586932188306,
              33.292293825423386
            ],
            [
              -116.42577469309863,
              33.292551669608756
            ],
            [
              -116.42567630320298,
              33.292808519064074
            ],
            [
              -116.42557416698364,
              33.293064335099935
            ],
            [
              -116.42546829979291,
              33.293319079182275
            ],
            [
              -116.42535871754541,
              33.29357271293817
            ],
            [
              -116.42524543671587,
              33.293825198161635
            ],
            [
              -116.4251284743366,
              33.29407649681933
            ],
            [
              -116.42500784799489,
              33.29432657105634
            ],
            [
              -116.42488357583048,
              33.29457538320192
            ],
            [
              -116.42475567653268,
              33.29482289577508
            ],
            [
              -116.42462416933787,
              33.29506907149031
            ],
            [
              -116.42448907402621,
              33.29531387326314
            ],
            [
              -116.42435041091905,
              33.295557264215816
            ],
            [
              -116.42420820087563,
              33.29579920768282
            ],
            [
              -116.4240624652901,
              33.296039667216306
            ],
            [
              -116.42391322608826,
              33.29627860659174
            ],
            [
              -116.42376050572429,
              33.29651598981335
            ],
            [
              -116.42360432717729,
              33.296751781119426
            ],
            [
              -116.42344471394793,
              33.29698594498782
            ],
            [
              -116.42328169005494,
              33.2972184461413
            ],
            [
              -116.42311528003144,
              33.29744924955281
            ],
            [
              -116.42294550892125,
              33.29767832045085
            ],
            [
              -116.42277240227519,
              33.29790562432461
            ],
            [
              -116.42259598614717,
              33.298131126929285
            ],
            [
              -116.42241628709034,
              33.29835479429111
            ],
            [
              -116.4222333321531,
              33.29857659271259
            ],
            [
              -116.42204714887491,
              33.29879648877758
            ],
            [
              -116.42185776528234,
              33.29901444935624
            ],
            [
              -116.42166520988475,
              33.29923044161014
            ],
            [
              -116.42146951167,
              33.299444432997134
            ],
            [
              -116.42127070010008,
              33.29965639127635
            ],
            [
              -116.42106880510677,
              33.299866284512916
            ],
            [
              -116.42086385708701,
              33.30007408108293
            ],
            [
              -116.42065588689847,
              33.300279749678154
            ],
            [
              -116.42044492585472,
              33.30048325931074
            ],
            [
              -116.42023100572075,
              33.30068457931791
            ],
            [
              -116.42001415870796,
              33.30088367936666
            ],
            [
              -116.41979441746949,
              33.30108052945813
            ],
            [
              -116.41957181509517,
              33.30127509993241
            ],
            [
              -116.41934638510666,
              33.30146736147277
            ],
            [
              -116.41911816145235,
              33.30165728511024
            ],
            [
              -116.41888717850213,
              33.301844842227894
            ],
            [
              -116.41865347104246,
              33.30203000456525
            ],
            [
              -116.41841707427092,
              33.302212744222444
            ],
            [
              -116.41817802379099,
              33.30239303366451
            ],
            [
              -116.41793635560671,
              33.30257084572549
            ],
            [
              -116.41769210611719,
              33.302746153612574
            ],
            [
              -116.4174453121112,
              33.30291893091012
            ],
            [
              -116.41719601076151,
              33.303089151583634
            ],
            [
              -116.4169442396195,
              33.30325678998373
            ],
            [
              -116.4166900366092,
              33.30342182084996
            ],
            [
              -116.41643344002188,
              33.303584219314715
            ],
            [
              -116.41617448851004,
              33.303743960906765
            ],
            [
              -116.41591322108177,
              33.30390102155529
            ],
            [
              -116.41564967709468,
              33.30405537759319
            ],
            [
              -116.41538389625016,
              33.304207005760844
            ],
            [
              -116.41511591858725,
              33.30435588320957
            ],
            [
              -116.41484578447663,
              33.30450198750507
            ],
            [
              -116.41457353461455,
              33.30464529663083
            ],
            [
              -116.4142992100168,
              33.30478578899141
            ],
            [
              -116.4140228520123,
              33.30492344341575
            ],
            [
              -116.413744502237,
              33.30505823916035
            ],
            [
              -116.41346420262764,
              33.3051901559124
            ],
            [
              -116.41318199541534,
              33.305319173792846
            ],
            [
              -116.41289792311925,
              33.30544527335934
            ],
            [
              -116.41261202854012,
              33.3055684356093
            ],
            [
              -116.41232435475392,
              33.3056886419827
            ],
            [
              -116.41203494510522,
              33.3058058743648
            ],
            [
              -116.41174384320075,
              33.30592011508904
            ],
            [
              -116.41145109290275,
              33.306031346939584
            ],
            [
              -116.41115673832246,
              33.30613955315398
            ],
            [
              -116.41086082381328,
              33.30624471742572
            ],
            [
              -116.41056339396421,
              33.306346823906566
            ],
            [
              -116.41026449359316,
              33.30644585720905
            ],
            [
              -116.40996416774003,
              33.30654180240886
            ],
            [
              -116.40966246166005,
              33.30663464504694
            ],
            [
              -116.40935942081684,
              33.306724371131764
            ],
            [
              -116.40905509087564,
              33.306810967141445
            ],
            [
              -116.40874951769639,
              33.30689442002576
            ],
            [
              -116.40844274732675,
              33.30697471720812
            ],
            [
              -116.4081348259952,
              33.307051846587505
            ],
            [
              -116.40782580010409,
              33.307125796540205
            ],
            [
              -116.40751571622255,
              33.307196555921685
            ],
            [
              -116.4072046210795,
              33.3072641140682
            ],
            [
              -116.40689256155663,
              33.30732846079842
            ],
            [
              -116.40657958468131,
              33.307389586414956
            ],
            [
              -116.40626573761936,
              33.30744748170588
            ],
            [
              -116.40595106766811,
              33.30750213794599
            ],
            [
              -116.40563562224919,
              33.307553546898305
            ],
            [
              -116.40531944890132,
              33.30760170081517
            ],
            [
              -116.40500259527317,
              33.307646592439475
            ],
            [
              -116.40468510911622,
              33.30768821500575
            ],
            [
              -116.40436703827737,
              33.307726562241164
            ],
            [
              -116.40404843069197,
              33.30776162836658
            ],
            [
              -116.40372933437637,
              33.307793408097176
            ],
            [
              -116.40340979742071,
              33.30782189664358
            ],
            [
              -116.40308986798178,
              33.307847089712354
            ],
            [
              -116.40276959427557,
              33.30786898350665
            ],
            [
              -116.40244902457012,
              33.307887574726955
            ],
            [
              -116.40212820717815,
              33.30790286057141
            ],
            [
              -116.40180719044982,
              33.307914838736295
            ],
            [
              -116.4014860227654,
              33.30792350741641
            ],
            [
              -116.40116475252792,
              33.30792886530532
            ],
            [
              -116.40084342815592,
              33.30793091159556
            ],
            [
              -116.40052209807618,
              33.307929645978724
            ],
            [
              -116.40020081071626,
              33.30792506864553
            ],
            [
              -116.39987961449728,
              33.307917180285855
            ],
            [
              -116.39955855782661,
              33.30790598208854
            ],
            [
              -116.39923768909055,
              33.3078914757412
            ],
            [
              -116.39891705664704,
              33.30787366343011
            ],
            [
              -116.39859670881822,
              33.307852547839694
            ],
            [
              -116.39827669388336,
              33.30782813215227
            ],
            [
              -116.39795706007136,
              33.30780042004742
            ],
            [
              -116.39763785555364,
              33.307769415701635
            ],
            [
              -116.39731912843669,
              33.307735123787445
            ],
            [
              -116.39700092675491,
              33.30769754947294
            ],
            [
              -116.3966832984634,
              33.30765669842083
            ],
            [
              -116.39636629143058,
              33.30761257678765
            ],
            [
              -116.39604995343102,
              33.30756519122283
            ],
            [
              -116.39573433213832,
              33.30751454886768
            ],
            [
              -116.39541947511773,
              33.30746065735431
            ],
            [
              -116.39510542981917,
              33.30740352480452
            ],
            [
              -116.39479224356985,
              33.3073431598285
            ],
            [
              -116.39447996356732,
              33.307279571523566
            ],
            [
              -116.39416863687217,
              33.30721276947285
            ],
            [
              -116.39385831040104,
              33.30714276374368
            ],
            [
              -116.39354903091954,
              33.30706956488629
            ],
            [
              -116.39324084503514,
              33.30699318393201
            ],
            [
              -116.39293379919005,
              33.3069136323917
            ],
            [
              -116.39262793965439,
              33.3068309222541
            ],
            [
              -116.3923233125191,
              33.306745065983854
            ],
            [
              -116.39201996368897,
              33.3066560765197
            ],
            [
              -116.39171793887576,
              33.30656396727253
            ],
            [
              -116.39141728359125,
              33.306468752123386
            ],
            [
              -116.39111804314038,
              33.30637044542123
            ],
            [
              -116.39082026261448,
              33.306269061981
            ],
            [
              -116.39052398688433,
              33.30616461708115
            ],
            [
              -116.39022926059351,
              33.30605712646146
            ],
            [
              -116.38993612815159,
              33.30594660632073
            ],
            [
              -116.38964463372746,
              33.305833073314155
            ],
            [
              -116.38935482124268,
              33.30571654455087
            ],
            [
              -116.38906673436479,
              33.30559703759148
            ],
            [
              -116.38878041650075,
              33.3054745704453
            ],
            [
              -116.38849591079043,
              33.30534916156761
            ],
            [
              -116.38821326010003,
              33.30522082985703
            ],
            [
              -116.38793250701566,
              33.3050895946524
            ],
            [
              -116.38765369383692,
              33.30495547573014
            ],
            [
              -116.38737686257052,
              33.30481849330112
            ],
            [
              -116.38710205492386,
              33.30467866800756
            ],
            [
              -116.38682931229881,
              33.304536020920025
            ],
            [
              -116.38655867578552,
              33.30439057353422
            ],
            [
              -116.38629018615609,
              33.30424234776772
            ],
            [
              -116.38602388385856,
              33.3040913659566
            ],
            [
              -116.38575980901066,
              33.30393765085223
            ],
            [
              -116.38549800139387,
              33.30378122561761
            ],
            [
              -116.38523850044747,
              33.30362211382417
            ],
            [
              -116.38498134526235,
              33.30346033944787
            ],
            [
              -116.38472657457544,
              33.30329592686586
            ],
            [
              -116.38447422676364,
              33.30312890085268
            ],
            [
              -116.38422433983811,
              33.30295928657652
            ],
            [
              -116.38397695143854,
              33.3027871095954
            ],
            [
              -116.38373209882745,
              33.30261239585343
            ],
            [
              -116.38348981888468,
              33.302435171676734
            ],
            [
              -116.38325014810162,
              33.3022554637696
            ],
            [
              -116.38301312257597,
              33.302073299210385
            ],
            [
              -116.3827787780061,
              33.30188870544744
            ],
            [
              -116.38254714968576,
              33.30170171029499
            ],
            [
              -116.38231827249875,
              33.30151234192892
            ],
            [
              -116.38209218091367,
              33.301320628882486
            ],
            [
              -116.38186890897876,
              33.301126600042096
            ],
            [
              -116.38164849031664,
              33.30093028464287
            ],
            [
              -116.38143095811944,
              33.30073171226426
            ],
            [
              -116.38121634514366,
              33.30053091282561
            ],
            [
              -116.38100468370529,
              33.30032791658158
            ],
            [
              -116.38079600567491,
              33.300122754117645
            ],
            [
              -116.38059034247303,
              33.29991545634541
            ],
            [
              -116.38038772506513,
              33.29970605449805
            ],
            [
              -116.38018818395719,
              33.29949458012547
            ],
            [
              -116.37999174919106,
              33.29928106508966
            ],
            [
              -116.37979845033985,
              33.299065541559806
            ],
            [
              -116.3796083165036,
              33.2988480420075
            ],
            [
              -116.37942137630485,
              33.29862859920178
            ],
            [
              -116.3792376578843,
              33.2984072462042
            ],
            [
              -116.37905718889668,
              33.2981840163639
            ],
            [
              -116.37887999650648,
              33.297958943312516
            ],
            [
              -116.37870610738393,
              33.29773206095911
            ],
            [
              -116.37853554770103,
              33.2975034034851
            ],
            [
              -116.37836834312749,
              33.29727300533905
            ],
            [
              -116.378204518827,
              33.29704090123148
            ],
            [
              -116.37804409945342,
              33.296807126129686
            ],
            [
              -116.377887109147,
              33.29657171525243
            ],
            [
              -116.37773357153085,
              33.29633470406456
            ],
            [
              -116.37758350970742,
              33.29609612827184
            ],
            [
              -116.37743694625486,
              33.29585602381532
            ],
            [
              -116.37729390322384,
              33.29561442686615
            ],
            [
              -116.3771544021341,
              33.29537137381999
            ],
            [
              -116.37701846397125,
              33.29512690129156
            ],
            [
              -116.37688610918373,
              33.29488104610907
            ],
            [
              -116.37675735767955,
              33.29463384530879
            ],
            [
              -116.37663222882351,
              33.29438533612934
            ],
            [
              -116.37651074143415,
              33.29413555600611
            ],
            [
              -116.37639291378096,
              33.29388454256568
            ],
            [
              -116.37627876358174,
              33.29363233362003
            ],
            [
              -116.37616830799985,
              33.29337896716097
            ],
            [
              -116.37606156364166,
              33.29312448135429
            ],
            [
              -116.37595854655403,
              33.2928689145341
            ],
            [
              -116.37585927222204,
              33.29261230519698
            ],
            [
              -116.37576375556654,
              33.29235469199627
            ],
            [
              -116.375672010942,
              33.29209611373611
            ],
            [
              -116.37558405213426,
              33.29183660936578
            ],
            [
              -116.37549989235869,
              33.29157621797357
            ],
            [
              -116.37541954425791,
              33.29131497878114
            ],
            [
              -116.37534301990024,
              33.29105293113745
            ],
            [
              -116.37527033077762,
              33.29079011451294
            ],
            [
              -116.37520148780403,
              33.29052656849347
            ],
            [
              -116.37513650131393,
              33.29026233277443
            ],
            [
              -116.37507538106051,
              33.28999744715473
            ],
            [
              -116.3750181362145,
              33.28973195153083
            ],
            [
              -116.37496477536261,
              33.28946588589072
            ],
            [
              -116.37491530650637,
              33.28919929030783
            ],
            [
              -116.37486973706088,
              33.28893220493507
            ],
            [
              -116.37482807385378,
              33.28866466999877
            ],
            [
              -116.37479032312413,
              33.28839672579261
            ],
            [
              -116.37475649052165,
              33.288128412671526
            ],
            [
              -116.37472658110576,
              33.28785977104564
            ],
            [
              -116.37470059934492,
              33.287590841374254
            ],
            [
              -116.37467854911591,
              33.287321664159556
            ],
            [
              -116.3746604337033,
              33.28705227994075
            ],
            [
              -116.37464625579902,
              33.28678272928783
            ],
            [
              -116.37463601750189,
              33.286513052795485
            ],
            [
              -116.37462972031742,
              33.28624329107691
            ],
            [
              -116.37462736515751,
              33.28597348475787
            ]
          ]
        ]
      }
    }
  ]
}