{
  "type": "FeatureCollection",
  "name": "deanza_villas_500ft_aoi",
  "features": [
    {
      "type": "Feature",
      "properties": {
        "name": "DeAnza Villas 500 ft context area",
        "status": "approximate",
        "source": "User-provided approximate center point buffered 500 ft in EPSG:2230",
        "center_lat": 33.28594444444444,
        "center_lon": -116.40080555555556,
        "radius_ft": 500,
        "radius_m": 152.4
      },
      "geometry": {
        "type": "Polygon",
        "coordinates": [
          [
            [
              -116.39916941917846,
              33.28594642118861
            ],
            [
              -116.39916985450664,
              33.28591269710831
            ],
            [
              -116.39917127511892,
              33.28587899215774
            ],
            [
              -116.39917368015838,
              33.28584532663944
            ],
            [
              -116.39917706817523,
              33.28581172083224
            ],
            [
              -116.39918143712755,
              33.285778194978924
            ],
            [
              -116.3991867843825,
              33.28574476927411
            ],
            [
              -116.39919310671799,
              33.28571146385208
            ],
            [
              -116.39920040032464,
              33.2856782987746
            ],
            [
              -116.39920866080796,
              33.28564529401895
            ],
            [
              -116.3992178831911,
              33.28561246946575
            ],
            [
              -116.39922806191782,
              33.28557984488702
            ],
            [
              -116.39923919085588,
              33.28554743993447
            ],
            [
              -116.39925126330061,
              33.28551527412726
            ],
            [
              -116.39926427197913,
              33.28548336684069
            ],
            [
              -116.39927820905459,
              33.28545173729416
            ],
            [
              -116.39929306613092,
              33.28542040453985
            ],
            [
              -116.399308834258,
              33.28538938745111
            ],
            [
              -116.39932550393684,
              33.28535870471114
            ],
            [
              -116.39934306512558,
              33.285328374801736
            ],
            [
              -116.39936150724527,
              33.28529841599208
            ],
            [
              -116.39938081918643,
              33.2852688463279
            ],
            [
              -116.39940098931564,
              33.28523968362044
            ],
            [
              -116.3994220054826,
              33.2852109454358
            ],
            [
              -116.39944385502747,
              33.28518264908441
            ],
            [
              -116.39946652478841,
              33.28515481161045
            ],
            [
              -116.39949000110958,
              33.28512744978177
            ],
            [
              -116.39951426984943,
              33.285100580079664
            ],
            [
              -116.39953931638898,
              33.285074218688955
            ],
            [
              -116.39956512564093,
              33.28504838148834
            ],
            [
              -116.39959168205856,
              33.28502308404067
            ],
            [
              -116.39961896964512,
              33.284998341583716
            ],
            [
              -116.39964697196348,
              33.28497416902099
            ],
            [
              -116.39967567214612,
              33.28495058091263
            ],
            [
              -116.39970505290506,
              33.28492759146676
            ],
            [
              -116.39973509654259,
              33.28490521453091
            ],
            [
              -116.39976578496163,
              33.284883463583625
            ],
            [
              -116.39979709967685,
              33.2848623517264
            ],
            [
              -116.39982902182568,
              33.28484189167578
            ],
            [
              -116.3998615321797,
              33.28482209575564
            ],
            [
              -116.39989461115623,
              33.284802975889896
            ],
            [
              -116.39992823883014,
              33.28478454359518
            ],
            [
              -116.39996239494587,
              33.284766809973995
            ],
            [
              -116.39999705892951,
              33.28474978570797
            ],
            [
              -116.4000322099014,
              33.28473348105151
            ],
            [
              -116.40006782668844,
              33.284717905825495
            ],
            [
              -116.40010388783712,
              33.28470306941149
            ],
            [
              -116.4001403716262,
              33.28468898074604
            ],
            [
              -116.40017725608,
              33.28467564831522
            ],
            [
              -116.40021451898146,
              33.28466308014969
            ],
            [
              -116.40025213788562,
              33.284651283819706
            ],
            [
              -116.40029009013311,
              33.28464026643063
            ],
            [
              -116.40032835286385,
              33.28463003461861
            ],
            [
              -116.4003669030307,
              33.28462059454666
            ],
            [
              -116.40040571741343,
              33.28461195190087
            ],
            [
              -116.40044477263275,
              33.28460411188703
            ],
            [
              -116.4004840451642,
              33.284597079227396
            ],
            [
              -116.40052351135257,
              33.28459085815802
            ],
            [
              -116.40056314742596,
              33.28458545242613
            ],
            [
              -116.40060292951011,
              33.28458086528769
            ],
            [
              -116.40064283364293,
              33.284577099505746
            ],
            [
              -116.40068283578877,
              33.28457415734856
            ],
            [
              -116.40072291185294,
              33.28457204058828
            ],
            [
              -116.40076303769621,
              33.284570750499924
            ],
            [
              -116.40080318914947,
              33.28457028786052
            ],
            [
              -116.40084334202811,
              33.28457065294877
            ],
            [
              -116.40088347214665,
              33.284571845544754
            ],
            [
              -116.40092355533335,
              33.284573864930145
            ],
            [
              -116.40096356744472,
              33.28457670988855
            ],
            [
              -116.40100348438011,
              33.2845803787064
            ],
            [
              -116.40104328209615,
              33.28458486917385
            ],
            [
              -116.40108293662128,
              33.28459017858607
            ],
            [
              -116.40112242407017,
              33.28459630374507
            ],
            [
              -116.40116172065814,
              33.28460324096144
            ],
            [
              -116.40120080271541,
              33.284610986056634
            ],
            [
              -116.40123964670147,
              33.28461953436551
            ],
            [
              -116.40127822921909,
              33.28462888073914
            ],
            [
              -116.40131652702863,
              33.284639019547846
            ],
            [
              -116.40135451706178,
              33.28464994468467
            ],
            [
              -116.40139217643575,
              33.284661649569024
            ],
            [
              -116.40142948246672,
              33.28467412715059
            ],
            [
              -116.40146641268385,
              33.284687369913684
            ],
            [
              -116.40150294484246,
              33.284701369881724
            ],
            [
              -116.40153905693775,
              33.284716118621986
            ],
            [
              -116.4015747272178,
              33.28473160725076
            ],
            [
              -116.40160993419686,
              33.284747826438625
            ],
            [
              -116.40164465666815,
              33.2847647664162
            ],
            [
              -116.40167887371675,
              33.28478241697985
            ],
            [
              -116.40171256473208,
              33.284800767497984
            ],
            [
              -116.40174570942037,
              33.28481980691735
            ],
            [
              -116.40177828781697,
              33.28483952376975
            ],
            [
              -116.40181028029818,
              33.28485990617893
            ],
            [
              -116.40184166759327,
              33.28488094186776
            ],
            [
              -116.40187243079596,
              33.2849026181656
            ],
            [
              -116.4019025513758,
              33.284924922015904
            ],
            [
              -116.40193201118946,
              33.28494783998412
            ],
            [
              -116.40196079249154,
              33.284971358265814
            ],
            [
              -116.40198887794526,
              33.284995462694916
            ],
            [
              -116.40201625063303,
              33.2850201387523
            ],
            [
              -116.40204289406641,
              33.285045371574526
            ],
            [
              -116.4020687921963,
              33.28507114596269
            ],
            [
              -116.40209392942242,
              33.285097446391774
            ],
            [
              -116.40211829060281,
              33.28512425701983
            ],
            [
              -116.40214186106292,
              33.2851515616976
            ],
            [
              -116.4021646266044,
              33.28517934397821
            ],
            [
              -116.40218657351379,
              33.2852075871271
            ],
            [
              -116.40220768857058,
              33.285236274132075
            ],
            [
              -116.40222795905534,
              33.285265387713594
            ],
            [
              -116.40224737275736,
              33.28529491033512
            ],
            [
              -116.40226591798194,
              33.285324824213745
            ],
            [
              -116.40228358355746,
              33.28535511133084
            ],
            [
              -116.40230035884215,
              33.285385753442945
            ],
            [
              -116.40231623373047,
              33.28541673209278
            ],
            [
              -116.4023311986592,
              33.28544802862029
            ],
            [
              -116.40234524461317,
              33.28547962417395
            ],
            [
              -116.40235836313082,
              33.285511499722055
            ],
            [
              -116.40237054630909,
              33.28554363606432
            ],
            [
              -116.4023817868084,
              33.285576013843254
            ],
            [
              -116.40239207785696,
              33.28560861355594
            ],
            [
              -116.40240141325475,
              33.28564141556578
            ],
            [
              -116.40240978737755,
              33.285674400114274
            ],
            [
              -116.40241719518,
              33.28570754733297
            ],
            [
              -116.4024236321989,
              33.285740837255354
            ],
            [
              -116.40242909455573,
              33.285774249829025
            ],
            [
              -116.40243357895905,
              33.28580776492758
            ],
            [
              -116.40243708270657,
              33.285841362362916
            ],
            [
              -116.40243960368659,
              33.28587502189726
            ],
            [
              -116.40244114037948,
              33.28590872325542
            ],
            [
              -116.4024416918584,
              33.28594244613699
            ],
            [
              -116.40244125779009,
              33.285976170228594
            ],
            [
              -116.40243983843483,
              33.28600987521612
            ],
            [
              -116.40243743464646,
              33.28604354079684
            ],
            [
              -116.40243404787185,
              33.28607714669186
            ],
            [
              -116.40242968014987,
              33.28611067265816
            ],
            [
              -116.4024243341104,
              33.28614409850085
            ],
            [
              -116.4024180129726,
              33.28617740408531
            ],
            [
              -116.40241072054299,
              33.28621056934938
            ],
            [
              -116.4024024612132,
              33.28624357431535
            ],
            [
              -116.40239323995729,
              33.286276399102086
            ],
            [
              -116.4023830623288,
              33.28630902393695
            ],
            [
              -116.40237193445735,
              33.28634142916775
            ],
            [
              -116.40235986304496,
              33.28637359527452
            ],
            [
              -116.40234685536214,
              33.28640550288129
            ],
            [
              -116.40233291924328,
              33.28643713276789
            ],
            [
              -116.40231806308209,
              33.2864684658813
            ],
            [
              -116.4023022958266,
              33.286499483347356
            ],
            [
              -116.4022856269736,
              33.286530166481896
            ],
            [
              -116.40226806656302,
              33.28656049680222
            ],
            [
              -116.40224962517192,
              33.2865904560381
            ],
            [
              -116.40223031390802,
              33.286620026142806
            ],
            [
              -116.40221014440311,
              33.28664918930407
            ],
            [
              -116.40218912880599,
              33.28667792795462
            ],
            [
              -116.4021672797751,
              33.28670622478299
            ],
            [
              -116.4021446104711,
              33.286734062743776
            ],
            [
              -116.40212113454866,
              33.28676142506803
            ],
            [
              -116.40209686614845,
              33.286788295273205
            ],
            [
              -116.40207181988856,
              33.286814657173274
            ],
            [
              -116.40204601085563,
              33.28684049488836
            ],
            [
              -116.40201945459587,
              33.28686579285429
            ],
            [
              -116.40199216710566,
              33.286890535832114
            ],
            [
              -116.40196416482186,
              33.28691470891704
            ],
            [
              -116.40193546461195,
              33.28693829754766
            ],
            [
              -116.40190608376392,
              33.28696128751461
            ],
            [
              -116.40187603997576,
              33.28698366496914
            ],
            [
              -116.40184535134486,
              33.28700541643138
            ],
            [
              -116.40181403635711,
              33.28702652879863
            ],
            [
              -116.4017821138757,
              33.28704698935315
            ],
            [
              -116.40174960312986,
              33.28706678576977
            ],
            [
              -116.40171652370319,
              33.28708590612346
            ],
            [
              -116.40168289552196,
              33.28710433889636
            ],
            [
              -116.4016487388429,
              33.28712207298485
            ],
            [
              -116.40161407424128,
              33.28713909770614
            ],
            [
              -116.40157892259832,
              33.28715540280476
            ],
            [
              -116.40154330508865,
              33.28717097845871
            ],
            [
              -116.40150724316757,
              33.287185815285504
            ],
            [
              -116.40147075855815,
              33.28719990434751
            ],
            [
              -116.40143387323806,
              33.28721323715772
            ],
            [
              -116.40139660942647,
              33.28722580568454
            ],
            [
              -116.4013589895705,
              33.28723760235688
            ],
            [
              -116.40132103633178,
              33.28724862006855
            ],
            [
              -116.40128277257286,
              33.2872588521826
            ],
            [
              -116.40124422134332,
              33.287268292535316
            ],
            [
              -116.40120540586592,
              33.2872769354399
            ],
            [
              -116.40116634952267,
              33.28728477568998
            ],
            [
              -116.40112707584062,
              33.28729180856269
            ],
            [
              -116.40108760847785,
              33.28729802982145
            ],
            [
              -116.4010479712091,
              33.28730343571867
            ],
            [
              -116.40100818791137,
              33.28730802299789
            ],
            [
              -116.40096828254981,
              33.28731178889577
            ],
            [
              -116.40092827916303,
              33.287314731143745
            ],
            [
              -116.40088820184862,
              33.287316847969464
            ],
            [
              -116.40084807474886,
              33.287318138097774
            ],
            [
              -116.40080792203592,
              33.28731860075149
            ],
            [
              -116.40076776789743,
              33.28731823565194
            ],
            [
              -116.4007276365219,
              33.28731704301903
            ],
            [
              -116.40068755208407,
              33.287315023571196
            ],
            [
              -116.40064753873047,
              33.28731217852496
            ],
            [
              -116.40060762056474,
              33.287308509594126
            ],
            [
              -116.40056782163322,
              33.28730401898882
            ],
            [
              -116.40052816591039,
              33.287298709414166
            ],
            [
              -116.40048867728447,
              33.287292584068574
            ],
            [
              -116.400449379543,
              33.287285646641884
            ],
            [
              -116.40041029635849,
              33.287277901313175
            ],
            [
              -116.4003714512742,
              33.28726935274811
            ],
            [
              -116.40033286768997,
              33.28726000609628
            ],
            [
              -116.40029456884805,
              33.287249866988006
            ],
            [
              -116.4002565778192,
              33.28723894153099
            ],
            [
              -116.40021891748869,
              33.28722723630657
            ],
            [
              -116.4001816105425,
              33.287214758365884
            ],
            [
              -116.40014467945383,
              33.28720151522546
            ],
            [
              -116.40010814646936,
              33.28718751486287
            ],
            [
              -116.4000720335959,
              33.287172765711716
            ],
            [
              -116.40003636258729,
              33.28715727665672
            ],
            [
              -116.40000115493096,
              33.28714105702829
            ],
            [
              -116.39996643183537,
              33.28712411659695
            ],
            [
              -116.39993221421692,
              33.28710646556735
            ],
            [
              -116.39989852268761,
              33.28708811457225
            ],
            [
              -116.39986537754238,
              33.28706907466606
            ],
            [
              -116.39983279874703,
              33.2870493573181
            ],
            [
              -116.3998008059262,
              33.28702897440584
            ],
            [
              -116.39976941835145,
              33.287007938207644
            ],
            [
              -116.39973865492976,
              33.28698626139537
            ],
            [
              -116.39970853419202,
              33.286963957026785
            ],
            [
              -116.39967907428202,
              33.286941038537684
            ],
            [
              -116.39965029294537,
              33.286917519733784
            ],
            [
              -116.39962220751892,
              33.2868934147824
            ],
            [
              -116.39959483492026,
              33.286868738203914
            ],
            [
              -116.39956819163751,
              33.286843504863064
            ],
            [
              -116.39954229371948,
              33.28681772995993
            ],
            [
              -116.39951715676588,
              33.28679142902082
            ],
            [
              -116.39949279591808,
              33.28676461788889
            ],
            [
              -116.39946922584978,
              33.28673731271461
            ],
            [
              -116.39944646075841,
              33.28670952994606
            ],
            [
              -116.39942451435637,
              33.286681286319
            ],
            [
              -116.39940339986292,
              33.28665259884672
            ],
            [
              -116.39938312999611,
              33.286623484809915
            ],
            [
              -116.39936371696518,
              33.28659396174625
            ],
            [
              -116.39934517246326,
              33.286564047439654
            ],
            [
              -116.39932750766013,
              33.2865337599098
            ],
            [
              -116.39931073319578,
              33.28650311740113
            ],
            [
              -116.39929485917374,
              33.28647213837193
            ],
            [
              -116.39927989515516,
              33.28644084148311
            ],
            [
              -116.39926585015301,
              33.286409245587095
            ],
            [
              -116.39925273262658,
              33.28637736971639
            ],
            [
              -116.39924055047646,
              33.2863452330721
            ],
            [
              -116.39922931103985,
              33.28631285501241
            ],
            [
              -116.39921902108595,
              33.28628025504091
            ],
            [
              -116.3992096868121,
              33.28624745279486
            ],
            [
              -116.3992013138399,
              33.28621446803328
            ],
            [
              -116.39919390721182,
              33.286181320625175
            ],
            [
              -116.39918747138833,
              33.2861480305375
            ],
            [
              -116.39918201024506,
              33.286114617823046
            ],
            [
              -116.39917752707044,
              33.286081102608534
            ],
            [
              -116.3991740245639,
              33.2860475050824
            ],
            [
              -116.39917150483411,
              33.28601384548263
            ],
            [
              -116.3991699693977,
              33.28598014408454
            ],
            [
              -116.39916941917846,
              33.28594642118861
            ]
          ]
        ]
      }
    }
  ]
}