{
  "type": "FeatureCollection",
  "name": "deanza_villas_1000ft_aoi",
  "features": [
    {
      "type": "Feature",
      "properties": {
        "name": "DeAnza Villas 1000 ft context area",
        "status": "approximate",
        "source": "User-provided approximate center point buffered 1000 ft in EPSG:2230",
        "center_lat": 33.28594444444444,
        "center_lon": -116.40080555555556,
        "radius_ft": 1000
      },
      "geometry": {
        "type": "Polygon",
        "coordinates": [
          [
            [
              -116.39753328272788,
              33.28594837636953
            ],
            [
              -116.39753415464412,
              33.28588092822025
            ],
            [
              -116.39753699712564,
              33.28581351835604
            ],
            [
              -116.39754180845571,
              33.28574618738193
            ],
            [
              -116.39754858573163,
              33.28567897585536
            ],
            [
              -116.39755732486655,
              33.285611924261744
            ],
            [
              -116.39756802059192,
              33.28554507299002
            ],
            [
              -116.39758066646058,
              33.285478462308404
            ],
            [
              -116.39759525485084,
              33.28541213234011
            ],
            [
              -116.39761177697096,
              33.285346123039126
            ],
            [
              -116.39763022286445,
              33.285280474166235
            ],
            [
              -116.39765058141612,
              33.28521522526504
            ],
            [
              -116.39767284035877,
              33.285150415638086
            ],
            [
              -116.39769698628058,
              33.28508608432329
            ],
            [
              -116.39772300463325,
              33.28502227007033
            ],
            [
              -116.39775087974068,
              33.28495901131739
            ],
            [
              -116.39778059480847,
              33.2848963461679
            ],
            [
              -116.39781213193413,
              33.28483431236778
            ],
            [
              -116.39784547211765,
              33.28477294728242
            ],
            [
              -116.39788059527322,
              33.2847122878745
            ],
            [
              -116.39791748024113,
              33.284652370681464
            ],
            [
              -116.39795610480064,
              33.28459323179366
            ],
            [
              -116.39799644568329,
              33.28453490683253
            ],
            [
              -116.39803847858701,
              33.284477430929236
            ],
            [
              -116.39808217819066,
              33.2844208387034
            ],
            [
              -116.39812751816942,
              33.284365164242374
            ],
            [
              -116.3981744712105,
              33.28431044108058
            ],
            [
              -116.39822300902968,
              33.284256702179434
            ],
            [
              -116.39827310238842,
              33.2842039799074
            ],
            [
              -116.39832472111131,
              33.28415230602059
            ],
            [
              -116.39837783410437,
              33.284101711643565
            ],
            [
              -116.39843240937377,
              33.2840522272506
            ],
            [
              -116.39848841404505,
              33.28400388264733
            ],
            [
              -116.39854581438294,
              33.28395670695291
            ],
            [
              -116.39860457581177,
              33.28391072858228
            ],
            [
              -116.39866466293616,
              33.28386597522921
            ],
            [
              -116.39872603956238,
              33.283822473849625
            ],
            [
              -116.39878866872024,
              33.28378025064521
            ],
            [
              -116.3988525126853,
              33.28373933104782
            ],
            [
              -116.39891753300145,
              33.28369973970409
            ],
            [
              -116.39898369050438,
              33.28366150046053
            ],
            [
              -116.3990509453449,
              33.28362463634932
            ],
            [
              -116.399119257013,
              33.28358916957425
            ],
            [
              -116.39918858436238,
              33.28355512149748
            ],
            [
              -116.39925888563499,
              33.28352251262671
            ],
            [
              -116.39933011848649,
              33.28349136260265
            ],
            [
              -116.39940224001141,
              33.28346169018742
            ],
            [
              -116.39947520676928,
              33.28343351325303
            ],
            [
              -116.3995489748106,
              33.28340684877082
            ],
            [
              -116.39962349970338,
              33.28338171280106
            ],
            [
              -116.39969873655991,
              33.28335812048345
            ],
            [
              -116.39977464006377,
              33.283336086027866
            ],
            [
              -116.39985116449708,
              33.2833156227059
            ],
            [
              -116.39992826376812,
              33.283296742842765
            ],
            [
              -116.40000589143901,
              33.283279457809975
            ],
            [
              -116.40008400075371,
              33.283263778018465
            ],
            [
              -116.40016254466612,
              33.28324971291232
            ],
            [
              -116.40024147586848,
              33.28323727096304
            ],
            [
              -116.40032074681989,
              33.28322645966448
            ],
            [
              -116.40040030977474,
              33.283217285528444
            ],
            [
              -116.40048011681169,
              33.28320975408048
            ],
            [
              -116.40056011986245,
              33.283203869856905
            ],
            [
              -116.4006402707406,
              33.2831996364018
            ],
            [
              -116.40072052117077,
              33.283197056265
            ],
            [
              -116.40080082281766,
              33.283196131000544
            ],
            [
              -116.40088112731509,
              33.28319686116575
            ],
            [
              -116.40096138629521,
              33.28319924632078
            ],
            [
              -116.40104155141755,
              33.283203285029096
            ],
            [
              -116.40112157439816,
              33.28320897485813
            ],
            [
              -116.40120140703867,
              33.28321631238085
            ],
            [
              -116.40128100125531,
              33.28322529317783
            ],
            [
              -116.40136030910793,
              33.28323591183985
            ],
            [
              -116.40143928282875,
              33.28324816197125
            ],
            [
              -116.40151787485121,
              33.28326203619365
            ],
            [
              -116.40159603783856,
              33.28327752615052
            ],
            [
              -116.40167372471245,
              33.283294622512116
            ],
            [
              -116.40175088868116,
              33.28331331498116
            ],
            [
              -116.40182748326787,
              33.283333592299016
            ],
            [
              -116.40190346233857,
              33.28335544225246
            ],
            [
              -116.40197878012991,
              33.283378851681064
            ],
            [
              -116.40205339127677,
              33.28340380648509
            ],
            [
              -116.40212725083943,
              33.28343029163399
            ],
            [
              -116.40220031433081,
              33.28345829117548
            ],
            [
              -116.40227253774324,
              33.28348778824508
            ],
            [
              -116.40234387757476,
              33.28351876507637
            ],
            [
              -116.40241429085563,
              33.28355120301161
            ],
            [
              -116.40248373517393,
              33.28358508251294
            ],
            [
              -116.40255216870128,
              33.28362038317433
            ],
            [
              -116.4026195502179,
              33.28365708373359
            ],
            [
              -116.40268583913759,
              33.28369516208544
            ],
            [
              -116.402750995532,
              33.28373459529469
            ],
            [
              -116.40281498015482,
              33.28377535961
            ],
            [
              -116.40287775446532,
              33.28381743047828
            ],
            [
              -116.4029392806516,
              33.28386078255951
            ],
            [
              -116.4029995216534,
              33.2839053897418
            ],
            [
              -116.40305844118434,
              33.28395122515738
            ],
            [
              -116.40311600375388,
              33.28399826119857
            ],
            [
              -116.40317217468859,
              33.28404646953451
            ],
            [
              -116.40322692015309,
              33.28409582112817
            ],
            [
              -116.40328020717044,
              33.2841462862539
            ],
            [
              -116.40333200364202,
              33.28419783451526
            ],
            [
              -116.40338227836675,
              33.284250434863395
            ],
            [
              -116.40343100106008,
              33.284304055615614
            ],
            [
              -116.40347814237208,
              33.28435866447465
            ],
            [
              -116.40352367390514,
              33.28441422854791
            ],
            [
              -116.40356756823115,
              33.284470714367465
            ],
            [
              -116.403609798908,
              33.284528087910125
            ],
            [
              -116.40365034049542,
              33.28458631461786
            ],
            [
              -116.40368916857051,
              33.284645359418754
            ],
            [
              -116.40372625974223,
              33.284705186748006
            ],
            [
              -116.40376159166561,
              33.28476576056941
            ],
            [
              -116.40379514305528,
              33.284827044397055
            ],
            [
              -116.40382689369814,
              33.284889001317296
            ],
            [
              -116.40385682446566,
              33.284951594011
            ],
            [
              -116.4038849173254,
              33.285014784775925
            ],
            [
              -116.40391115535184,
              33.28507853554958
            ],
            [
              -116.40393552273653,
              33.28514280793204
            ],
            [
              -116.40395800479781,
              33.285207563209106
            ],
            [
              -116.40397858798949,
              33.285272762375655
            ],
            [
              -116.40399725990903,
              33.28533836615909
            ],
            [
              -116.40401400930514,
              33.28540433504298
            ],
            [
              -116.40402882608443,
              33.2854706292909
            ],
            [
              -116.40404170131761,
              33.28553720897037
            ],
            [
              -116.40405262724475,
              33.28560403397688
            ],
            [
              -116.40406159728015,
              33.28567106405806
            ],
            [
              -116.40406860601611,
              33.285738258837895
            ],
            [
              -116.40407364922638,
              33.28580557784108
            ],
            [
              -116.40407672386861,
              33.28587298051745
            ],
            [
              -116.40407782808616,
              33.28594042626627
            ],
            [
              -116.4040769612094,
              33.28600787446079
            ],
            [
              -116.4040741237559,
              33.286075284472695
            ],
            [
              -116.40406931743031,
              33.28614261569659
            ],
            [
              -116.4040625451233,
              33.28620982757443
            ],
            [
              -116.4040538109097,
              33.28627687961998
            ],
            [
              -116.40404312004627,
              33.28634373144321
            ],
            [
              -116.40403047896837,
              33.28641034277453
            ],
            [
              -116.40401589528621,
              33.28647667348922
            ],
            [
              -116.40399937778015,
              33.28654268363147
            ],
            [
              -116.40398093639563,
              33.28660833343846
            ],
            [
              -116.40396058223692,
              33.286673583364326
            ],
            [
              -116.40393832756065,
              33.28673839410411
            ],
            [
              -116.40391418576836,
              33.28680272661716
            ],
            [
              -116.40388817139844,
              33.28686654215094
            ],
            [
              -116.40386030011733,
              33.28692980226417
            ],
            [
              -116.4038305887102,
              33.28699246885011
            ],
            [
              -116.40379905507083,
              33.28705450415945
            ],
            [
              -116.40376571819074,
              33.28711587082309
            ],
            [
              -116.40373059814782,
              33.28717653187459
            ],
            [
              -116.40369371609424,
              33.28723645077257
            ],
            [
              -116.40365509424376,
              33.28729559142252
            ],
            [
              -116.40361475585831,
              33.28735391819879
            ],
            [
              -116.40357272523393,
              33.28741139596584
            ],
            [
              -116.40352902768626,
              33.28746799009952
            ],
            [
              -116.40348368953522,
              33.28752366650794
            ],
            [
              -116.40343673808914,
              33.28757839165195
            ],
            [
              -116.40338820162842,
              33.28763213256538
            ],
            [
              -116.40333810938832,
              33.28768485687489
            ],
            [
              -116.40328649154152,
              33.287736532819494
            ],
            [
              -116.40323337917995,
              33.28778712926964
            ],
            [
              -116.4031788042959,
              33.28783661574607
            ],
            [
              -116.40312279976291,
              33.287884962438135
            ],
            [
              -116.40306539931589,
              33.28793214022166
            ],
            [
              -116.40300663753078,
              33.28797812067666
            ],
            [
              -116.40294654980387,
              33.288022876104314
            ],
            [
              -116.40288517233023,
              33.28806637954377
            ],
            [
              -116.40282254208219,
              33.288108604788306
            ],
            [
              -116.4027586967868,
              33.288149526401185
            ],
            [
              -116.40269367490335,
              33.28818911973094
            ],
            [
              -116.40262751559992,
              33.28822736092622
            ],
            [
              -116.40256025873009,
              33.28826422695022
            ],
            [
              -116.40249194480869,
              33.28829969559447
            ],
            [
              -116.4024226149875,
              33.2883337454923
            ],
            [
              -116.40235231103046,
              33.288366356131725
            ],
            [
              -116.40228107528849,
              33.28839750786766
            ],
            [
              -116.4022089506739,
              33.288427181933926
            ],
            [
              -116.40213598063468,
              33.288455360454506
            ],
            [
              -116.40206220912823,
              33.28848202645426
            ],
            [
              -116.40198768059484,
              33.288507163869255
            ],
            [
              -116.40191243993105,
              33.288530757556295
            ],
            [
              -116.40183653246243,
              33.288552793302216
            ],
            [
              -116.40176000391635,
              33.28857325783233
            ],
            [
              -116.40168290039455,
              33.28859213881848
            ],
            [
              -116.40160526834508,
              33.28860942488647
            ],
            [
              -116.40152715453455,
              33.28862510562287
            ],
            [
              -116.40144860601984,
              33.28863917158132
            ],
            [
              -116.40136967011988,
              33.288651614288305
            ],
            [
              -116.40129039438685,
              33.28866242624803
            ],
            [
              -116.40121082657785,
              33.28867160094723
            ],
            [
              -116.40113101462595,
              33.28867913285893
            ],
            [
              -116.4010510066113,
              33.288685017445694
            ],
            [
              -116.40097085073225,
              33.28868925116259
            ],
            [
              -116.40089059527617,
              33.28869183145912
            ],
            [
              -116.40081028859056,
              33.288692756780904
            ],
            [
              -116.40072997905365,
              33.28869202657047
            ],
            [
              -116.40064971504552,
              33.28868964126773
            ],
            [
              -116.40056954491868,
              33.28868560230964
            ],
            [
              -116.40048951696917,
              33.288679912129325
            ],
            [
              -116.40040967940735,
              33.28867257415466
            ],
            [
              -116.40033008032877,
              33.28866359280621
            ],
            [
              -116.4002507676854,
              33.28865297349446
            ],
            [
              -116.40017178925648,
              33.28864072261668
            ],
            [
              -116.40009319261993,
              33.288626847553004
            ],
            [
              -116.40001502512362,
              33.28861135666205
            ],
            [
              -116.39993733385676,
              33.28859425927575
            ],
            [
              -116.39986016562167,
              33.28857556569391
            ],
            [
              -116.39978356690544,
              33.28855528717779
            ],
            [
              -116.39970758385203,
              33.28853343594355
            ],
            [
              -116.39963226223435,
              33.28851002515464
            ],
            [
              -116.39955764742683,
              33.28848506891415
            ],
            [
              -116.39948378437789,
              33.28845858225605
            ],
            [
              -116.39941071758305,
              33.28843058113626
            ],
            [
              -116.39933849105802,
              33.288401082423064
            ],
            [
              -116.39926714831213,
              33.28837010388683
            ],
            [
              -116.39919673232222,
              33.28833766418947
            ],
            [
              -116.39912728550674,
              33.28830378287298
            ],
            [
              -116.39905884970004,
              33.28826848034786
            ],
            [
              -116.39899146612743,
              33.28823177788072
            ],
            [
              -116.39892517538004,
              33.28819369758149
            ],
            [
              -116.39886001739062,
              33.288154262390016
            ],
            [
              -116.39879603140936,
              33.28811349606244
            ],
            [
              -116.39873325598025,
              33.28807142315666
            ],
            [
              -116.39867172891785,
              33.288028069017656
            ],
            [
              -116.39861148728455,
              33.28798345976226
            ],
            [
              -116.39855256736824,
              33.2879376222632
            ],
            [
              -116.39849500466042,
              33.28789058413321
            ],
            [
              -116.39843883383485,
              33.28784237370817
            ],
            [
              -116.39838408872662,
              33.28779302003014
            ],
            [
              -116.39833080231182,
              33.28774255282982
            ],
            [
              -116.39827900668764,
              33.2876910025086
            ],
            [
              -116.39822873305305,
              33.287638400120336
            ],
            [
              -116.39818001169009,
              33.28758477735263
            ],
            [
              -116.39813287194538,
              33.28753016650758
            ],
            [
              -116.39808734221283,
              33.28747460048256
            ],
            [
              -116.39804344991613,
              33.287418112750245
            ],
            [
              -116.3980012214926,
              33.287360737338425
            ],
            [
              -116.39796068237698,
              33.28730250880959
            ],
            [
              -116.3979218569863,
              33.28724346224007
            ],
            [
              -116.3978847687051,
              33.28718363319895
            ],
            [
              -116.39784943987135,
              33.287123057726504
            ],
            [
              -116.39781589176303,
              33.287061772312654
            ],
            [
              -116.39778414458532,
              33.28699981387486
            ],
            [
              -116.39775421745837,
              33.28693721973594
            ],
            [
              -116.39772612840592,
              33.286874027601584
            ],
            [
              -116.39769989434427,
              33.2868102755376
            ],
            [
              -116.39767553107228,
              33.28674600194699
            ],
            [
              -116.39765305326179,
              33.28668124554688
            ],
            [
              -116.3976324744487,
              33.28661604534513
            ],
            [
              -116.397613807025,
              33.28655044061681
            ],
            [
              -116.39759706223117,
              33.28648447088061
            ],
            [
              -116.39758225014947,
              33.28641817587501
            ],
            [
              -116.39756937969794,
              33.286351595534335
            ],
            [
              -116.39755845862491,
              33.28628476996468
            ],
            [
              -116.39754949350447,
              33.28621773941979
            ],
            [
              -116.3975424897324,
              33.28615054427675
            ],
            [
              -116.39753745152304,
              33.28608322501176
            ],
            [
              -116.39753438190671,
              33.28601582217565
            ],
            [
              -116.39753328272788,
              33.28594837636953
            ]
          ]
        ]
      }
    }
  ]
}