{
"type": "FeatureCollection",
"name": "henderson_watershed_boundary_5070",
"crs": { "type": "name", "properties": { "name": "urn:ogc:def:crs:EPSG::5070" } },
"features": [
{ "type": "Feature", "properties": { "name": "Henderson Canyon D8 watershed (wide DEM)", "area_km2": 107.05, "cells": 1238439, "note": "WBT watershed() with D8 pointer on 10m wide breached-filled DEM. 107 km2. Verified 2026-05-06: 1000/1000 traces reach community bbox, 93.5% within BPC HUC12." }, "geometry": { "type": "Polygon", "coordinates": [ [ [ -1871855.831624672748148, 1345151.069612420862541 ], [ -1871967.400431661400944, 1345141.772211838513613 ], [ -1871995.292633408680558, 1345104.582609508885071 ], [ -1872162.645843891659752, 1345076.690407761838287 ], [ -1872237.025048550916836, 1345002.311203102581203 ], [ -1872413.675659616244957, 1344983.716401937883347 ], [ -1872432.270460781175643, 1344955.824200190603733 ], [ -1872543.839267769828439, 1344955.824200190603733 ], [ -1872543.839267769828439, 1344937.229399025905877 ], [ -1872590.326270681805909, 1344900.039796696277335 ], [ -1872608.921071846503764, 1344862.850194366648793 ], [ -1872711.192478252807632, 1344844.255393201950938 ], [ -1872739.08468, 1344807.065790872322395 ], [ -1872794.869083494413644, 1344788.47098970762454 ], [ -1872934.330092230346054, 1344797.768390289973468 ], [ -1872943.627492812694982, 1344769.876188542693853 ], [ -1872980.817095142323524, 1344760.578787960344926 ], [ -1872980.817095142323524, 1344741.98398679564707 ], [ -1873008.709296889603138, 1344723.389185630716383 ], [ -1872990.114495724672452, 1344574.630776312435046 ], [ -1873064.493700383929536, 1344472.359369906131178 ], [ -1873064.493700383929536, 1344416.57496641180478 ], [ -1873101.683302713558078, 1344388.682764664525166 ], [ -1873092.385902130976319, 1344314.303560005500913 ], [ -1873148.170305625302717, 1344221.329554181545973 ], [ -1873185.359907954931259, 1344193.437352434266359 ], [ -1873269.036513196537271, 1344174.842551269568503 ], [ -1873296.928714943816885, 1344137.652948939939961 ], [ -1873315.523516108514741, 1344137.652948939939961 ], [ -1873315.523516108514741, 1344119.058147775242105 ], [ -1873371.307919602841139, 1344109.760747192893177 ], [ -1873436.389723679516464, 1344072.571144863264635 ], [ -1873473.579326009145007, 1344081.868545445613563 ], [ -1873510.768928338773549, 1344053.976343698566779 ], [ -1873659.527337657054886, 1344035.381542533636093 ], [ -1873687.4195394043345, 1344007.48934078658931 ], [ -1873761.798744063358754, 1344007.48934078658931 ], [ -1873817.583147557685152, 1343988.894539621658623 ], [ -1873854.772749887313694, 1343933.110136127332225 ], [ -1873854.772749887313694, 1343812.243928556330502 ], [ -1873873.367551052011549, 1343812.243928556330502 ], [ -1873882.664951634593308, 1343784.351726809050888 ], [ -1873929.151954546570778, 1343775.05432622670196 ], [ -1873975.638957458548248, 1343700.675121567444876 ], [ -1874040.720761535223573, 1343709.972522149793804 ], [ -1874087.207764447201043, 1343756.459525061771274 ], [ -1874180.181770271155983, 1343756.459525061771274 ], [ -1874208.073972018202767, 1343775.05432622670196 ], [ -1874208.073972018202767, 1343821.54132913867943 ], [ -1874226.668773183133453, 1343821.54132913867943 ], [ -1874245.263574347831309, 1343793.649127391399816 ], [ -1874263.858375512761995, 1343793.649127391399816 ], [ -1874282.453176677459851, 1343756.459525061771274 ], [ -1874366.129781919065863, 1343719.269922732375562 ], [ -1874440.508986578090116, 1343775.05432622670196 ], [ -1874514.888191237347201, 1343775.05432622670196 ], [ -1874514.888191237347201, 1343756.459525061771274 ], [ -1874533.482992402045056, 1343747.162124479422346 ], [ -1874598.564796478720382, 1343747.162124479422346 ], [ -1874626.456998226, 1343719.269922732375562 ], [ -1874635.754398808348924, 1343672.782919820398092 ], [ -1874663.646600555628538, 1343672.782919820398092 ], [ -1874682.241401720326394, 1343654.188118655467406 ], [ -1874784.512808126630262, 1343672.782919820398092 ], [ -1874803.107609291560948, 1343626.295916908420622 ], [ -1874793.81020870921202, 1343524.024510502116755 ], [ -1874858.892012785887346, 1343449.645305842859671 ], [ -1874905.379015697864816, 1343310.184297106927261 ], [ -1874942.568618027493358, 1343282.292095359880477 ], [ -1874979.758220356889069, 1343198.615490118274465 ], [ -1874998.353021521819755, 1343189.318089535925537 ], [ -1874979.758220356889069, 1343170.723288370994851 ], [ -1874979.758220356889069, 1343142.831086623948067 ], [ -1875026.245223268866539, 1343105.641484294319525 ], [ -1875072.732226180844009, 1343096.344083711970598 ], [ -1875109.921828510472551, 1343059.154481382342055 ], [ -1875165.706232004798949, 1343049.857080799993128 ], [ -1875175.003632587147877, 1343068.451881964690983 ], [ -1875230.788036081707105, 1343077.749282547039911 ], [ -1875240.085436664056033, 1343096.344083711970598 ], [ -1875379.546445399988443, 1343105.641484294319525 ], [ -1875388.843845982337371, 1343124.236285459017381 ], [ -1875444.628249476663768, 1343142.831086623948067 ], [ -1875463.223050641361624, 1343170.723288370994851 ], [ -1875500.412652970990166, 1343170.723288370994851 ], [ -1875537.602255300618708, 1343217.210291282972321 ], [ -1875621.27886054222472, 1343217.210291282972321 ], [ -1875704.955465783597901, 1343245.102493030251935 ], [ -1875900.200878013856709, 1343245.102493030251935 ], [ -1875993.174883837811649, 1343226.507691865321249 ], [ -1876030.364486167440191, 1343226.507691865321249 ], [ -1876039.661886749789119, 1343245.102493030251935 ], [ -1876216.312497815350071, 1343235.805092447903007 ], [ -1876216.312497815350071, 1343254.399893612600863 ], [ -1876244.204699562396854, 1343254.399893612600863 ], [ -1876262.799500727327541, 1343282.292095359880477 ], [ -1876290.691702474374324, 1343291.589495942229405 ], [ -1876365.070907133631408, 1343263.697294194949791 ], [ -1876485.937114704865962, 1343254.399893612600863 ], [ -1876495.23451528721489, 1343272.994694777298719 ], [ -1876625.398123440565541, 1343291.589495942229405 ], [ -1876662.587725770194083, 1343319.481697689276189 ], [ -1876746.264331011800095, 1343328.779098271857947 ], [ -1876774.156532758846879, 1343347.373899436555803 ], [ -1876792.751333923777565, 1343347.373899436555803 ], [ -1876802.048734506126493, 1343319.481697689276189 ], [ -1876829.940936253406107, 1343300.886896524578333 ], [ -1876997.294146736385301, 1343282.292095359880477 ], [ -1877043.781149648362771, 1343254.399893612600863 ], [ -1877080.970751977991313, 1343254.399893612600863 ], [ -1877108.862953725038096, 1343272.994694777298719 ], [ -1877136.755155472317711, 1343272.994694777298719 ], [ -1877164.647357219597325, 1343245.102493030251935 ], [ -1877322.70316712022759, 1343245.102493030251935 ], [ -1877406.379772361833602, 1343263.697294194949791 ], [ -1877434.271974108880386, 1343226.507691865321249 ], [ -1877527.245979932835326, 1343189.318089535925537 ], [ -1877564.435582262463868, 1343189.318089535925537 ], [ -1877610.922585174441338, 1343152.128487206296995 ], [ -1877601.62518459209241, 1342966.180475558387116 ], [ -1877620.219985756790265, 1342928.990873228758574 ], [ -1877620.219985756790265, 1342854.61166856973432 ], [ -1877601.62518459209241, 1342808.12466565775685 ], [ -1877620.219985756790265, 1342808.12466565775685 ], [ -1877638.814786921488121, 1342761.63766274577938 ], [ -1877657.409588086418808, 1342752.340262163430452 ], [ -1877685.301789833465591, 1342622.17665400984697 ], [ -1877750.383593910373747, 1342566.392250515520573 ], [ -1877824.762798569398001, 1342566.392250515520573 ], [ -1877880.547202063724399, 1342510.607847021194175 ], [ -1877899.142003228655085, 1342510.607847021194175 ], [ -1877908.439403811004013, 1342482.715645273914561 ], [ -1877945.629006140632555, 1342501.310446438612416 ], [ -1878057.19781312928535, 1342482.715645273914561 ], [ -1878150.17181895324029, 1342501.310446438612416 ], [ -1878233.848424194846302, 1342473.418244691565633 ], [ -1878271.038026524242014, 1342482.715645273914561 ], [ -1878280.335427106823772, 1342464.120844109216705 ], [ -1878438.391237007454038, 1342482.715645273914561 ], [ -1878447.688637589802966, 1342501.310446438612416 ], [ -1878475.58083933708258, 1342501.310446438612416 ], [ -1878484.878239919431508, 1342529.202648185892031 ], [ -1878512.770441666478291, 1342529.202648185892031 ], [ -1878531.365242831408978, 1342557.094849933171645 ], [ -1878568.55484516103752, 1342566.392250515520573 ], [ -1878568.55484516103752, 1342612.879253427498043 ], [ -1878596.447046908084303, 1342650.068855756893754 ], [ -1878615.041848073014989, 1342650.068855756893754 ], [ -1878624.339248655363917, 1342715.15065983380191 ], [ -1878633.636649237712845, 1342733.745460998499766 ], [ -1878652.231450402410701, 1342733.745460998499766 ], [ -1878680.123652149690315, 1342808.12466565775685 ], [ -1878717.313254479318857, 1342826.719466822454706 ], [ -1878735.908055644016713, 1342863.909069152083248 ], [ -1878773.097657973645255, 1342873.206469734432176 ], [ -1878800.989859720692039, 1342919.693472646409646 ], [ -1878819.584660885622725, 1342919.693472646409646 ], [ -1878828.882061467971653, 1342891.801270899130031 ], [ -1878856.774263215251267, 1342882.503870316781104 ], [ -1878875.369064379949123, 1342836.016867404803634 ], [ -1878912.558666709577665, 1342826.719466822454706 ], [ -1878940.450868456624448, 1342752.340262163430452 ], [ -1878959.045669621555135, 1342752.340262163430452 ], [ -1878996.235271950950846, 1342705.853259251452982 ], [ -1879042.722274862928316, 1342715.15065983380191 ], [ -1879126.398880104534328, 1342696.555858668871224 ], [ -1879191.480684181209654, 1342743.042861580848694 ], [ -1879191.480684181209654, 1342761.63766274577938 ], [ -1879247.265087675768882, 1342743.042861580848694 ], [ -1879265.859888840466738, 1342677.961057504173368 ], [ -1879303.04949117009528, 1342650.068855756893754 ], [ -1879312.346891752444208, 1342603.581852845149115 ], [ -1879330.941692917142063, 1342603.581852845149115 ], [ -1879330.941692917142063, 1342584.987051680218428 ], [ -1879358.833894664421678, 1342566.392250515520573 ], [ -1879368.131295246770605, 1342529.202648185892031 ], [ -1879414.618298158748075, 1342529.202648185892031 ], [ -1879433.213099323445931, 1342492.013045856263489 ], [ -1879451.807900488376617, 1342492.013045856263489 ], [ -1879451.807900488376617, 1342473.418244691565633 ], [ -1879526.187105147400871, 1342510.607847021194175 ], [ -1879572.674108059378341, 1342594.284452262567356 ], [ -1879684.242915048263967, 1342584.987051680218428 ], [ -1879721.432517377659678, 1342603.581852845149115 ], [ -1879795.811722036916763, 1342594.284452262567356 ], [ -1879833.001324366545305, 1342566.392250515520573 ], [ -1879833.001324366545305, 1342547.797449350589886 ], [ -1879898.08312844322063, 1342529.202648185892031 ], [ -1879898.08312844322063, 1342510.607847021194175 ], [ -1879916.677929607918486, 1342510.607847021194175 ], [ -1879935.272730772849172, 1342482.715645273914561 ], [ -1880009.651935431873426, 1342482.715645273914561 ], [ -1880018.949336014455184, 1342445.526042944286019 ], [ -1880046.841537761501968, 1342436.228642361937091 ], [ -1880065.436338926432654, 1342408.336440614657477 ], [ -1880074.733739508781582, 1342324.659835373284295 ], [ -1880130.51814300310798, 1342324.659835373284295 ], [ -1880139.815543585456908, 1342306.065034208353609 ], [ -1880223.49214882706292, 1342278.172832461306825 ], [ -1880242.086949991760775, 1342240.983230131678283 ], [ -1880251.384350574109703, 1342148.009224307723343 ], [ -1880279.276552321389318, 1342120.11702256067656 ], [ -1880335.060955815715715, 1342120.11702256067656 ], [ -1880381.547958727693185, 1342064.332619066117331 ], [ -1880400.142759892391041, 1341999.250814989442006 ], [ -1880446.629762804368511, 1341989.953414407093078 ], [ -1880465.224563969299197, 1341962.061212659813464 ], [ -1880679.06477736425586, 1341952.763812077464536 ], [ -1880725.55178027623333, 1341980.65601382474415 ], [ -1880976.581596000818536, 1341999.250814989442006 ], [ -1881013.771198330447078, 1341971.358613242162392 ], [ -1881041.663400077726692, 1341980.65601382474415 ], [ -1881134.637405901681632, 1341952.763812077464536 ], [ -1881134.637405901681632, 1341971.358613242162392 ], [ -1881209.016610560705885, 1341989.953414407093078 ], [ -1881227.611411725636572, 1342017.845616154139861 ], [ -1881301.990616384660825, 1342017.845616154139861 ], [ -1881311.288016967009753, 1341989.953414407093078 ], [ -1881348.477619296638295, 1341989.953414407093078 ], [ -1881348.477619296638295, 1342017.845616154139861 ], [ -1881376.369821043917909, 1342017.845616154139861 ], [ -1881450.749025702942163, 1342082.927420231048018 ], [ -1881506.533429197268561, 1342082.927420231048018 ], [ -1881543.723031526897103, 1342055.035218483768404 ], [ -1881655.291838515549898, 1342055.035218483768404 ], [ -1881636.697037350852042, 1341989.953414407093078 ], [ -1881645.99443793320097, 1341962.061212659813464 ], [ -1881673.886639680480585, 1341952.763812077464536 ], [ -1881711.076242010109127, 1341887.68200800078921 ], [ -1881748.265844339504838, 1341878.384607418440282 ], [ -1881804.050247833831236, 1341766.815800429554656 ], [ -1881831.94244958111085, 1341738.923598682507873 ], [ -1881869.132051910739392, 1341729.626198099926114 ], [ -1881999.295660064090043, 1341738.923598682507873 ], [ -1881999.295660064090043, 1341757.518399847205728 ], [ -1882073.674864723347127, 1341766.815800429554656 ], [ -1882073.674864723347127, 1341785.410601594485343 ], [ -1882110.86446705297567, 1341804.005402759183198 ], [ -1882110.86446705297567, 1341831.897604506462812 ], [ -1882241.028075206326321, 1341878.384607418440282 ], [ -1882241.028075206326321, 1341906.276809165487066 ], [ -1882343.299481612863019, 1341934.16901091276668 ], [ -1882343.299481612863019, 1341952.763812077464536 ], [ -1882426.9760868542362, 1341952.763812077464536 ], [ -1882445.570888019166887, 1341989.953414407093078 ], [ -1882473.46308976621367, 1341989.953414407093078 ], [ -1882473.46308976621367, 1342008.548215571790934 ], [ -1882492.057890931144357, 1342008.548215571790934 ], [ -1882501.355291513493285, 1342055.035218483768404 ], [ -1882538.544893843121827, 1342055.035218483768404 ], [ -1882566.43709559016861, 1342092.224820813396946 ], [ -1882640.816300249425694, 1342101.522221395745873 ], [ -1882640.816300249425694, 1342120.11702256067656 ], [ -1882696.600703743752092, 1342138.711823725374416 ], [ -1882863.953914226731285, 1342148.009224307723343 ], [ -1882863.953914226731285, 1342129.414423143025488 ], [ -1882919.738317721290514, 1342064.332619066117331 ], [ -1882966.225320633035153, 1342073.63001964869909 ], [ -1882994.117522380314767, 1342055.035218483768404 ], [ -1882994.117522380314767, 1341989.953414407093078 ], [ -1883022.009724127594382, 1341934.16901091276668 ], [ -1883059.199326456990093, 1341934.16901091276668 ], [ -1883105.686329368967563, 1341887.68200800078921 ], [ -1883161.470732863526791, 1341887.68200800078921 ], [ -1883161.470732863526791, 1341906.276809165487066 ], [ -1883217.255136357853189, 1341915.574209747835994 ], [ -1883282.336940434528515, 1341971.358613242162392 ], [ -1883449.690150917507708, 1342017.845616154139861 ], [ -1883477.582352664787322, 1342055.035218483768404 ], [ -1883477.582352664787322, 1342082.927420231048018 ], [ -1883514.771954994415864, 1342082.927420231048018 ], [ -1883514.771954994415864, 1342101.522221395745873 ], [ -1883691.422566059743986, 1342110.819621978094801 ], [ -1883700.719966642325744, 1342092.224820813396946 ], [ -1883747.206969554303214, 1342092.224820813396946 ], [ -1883747.206969554303214, 1342120.11702256067656 ], [ -1883765.80177071900107, 1342120.11702256067656 ], [ -1883775.099171301349998, 1342138.711823725374416 ], [ -1883849.478375960607082, 1342157.306624890072271 ], [ -1883868.073177125304937, 1342175.901426055002958 ], [ -1883914.560180037282407, 1342175.901426055002958 ], [ -1883933.154981201980263, 1342203.793627802049741 ], [ -1883961.047182949259877, 1342203.793627802049741 ], [ -1883998.236785278888419, 1342231.685829549329355 ], [ -1883988.939384696539491, 1342259.578031296376139 ], [ -1884016.831586443586275, 1342268.875431878957897 ], [ -1884044.723788190865889, 1342333.957235955633223 ], [ -1884072.615989937912673, 1342352.552037120331079 ], [ -1884109.805592267541215, 1342417.633841197239235 ], [ -1884128.400393432471901, 1342417.633841197239235 ], [ -1884128.400393432471901, 1342445.526042944286019 ], [ -1884146.995194597169757, 1342464.120844109216705 ], [ -1884184.184796926798299, 1342492.013045856263489 ], [ -1884249.266601003473625, 1342482.715645273914561 ], [ -1884277.158802750753239, 1342519.905247603543103 ], [ -1884323.645805662730709, 1342538.500048768240958 ], [ -1884332.943206245079637, 1342566.392250515520573 ], [ -1884407.32241090410389, 1342584.987051680218428 ], [ -1884425.917212069034576, 1342668.66365692182444 ], [ -1884528.188618475338444, 1342668.66365692182444 ], [ -1884546.7834196400363, 1342650.068855756893754 ], [ -1884556.080820222385228, 1342668.66365692182444 ], [ -1884611.865223716944456, 1342677.961057504173368 ], [ -1884676.947027793619782, 1342659.366256339475513 ], [ -1884732.73143128794618, 1342677.961057504173368 ], [ -1884779.218434199923649, 1342752.340262163430452 ], [ -1884844.300238276598975, 1342808.12466565775685 ], [ -1884872.192440023878589, 1342808.12466565775685 ], [ -1884900.084641770925373, 1342845.314267987385392 ], [ -1885030.248249924508855, 1342826.719466822454706 ], [ -1885058.140451671788469, 1342854.61166856973432 ], [ -1885104.627454583765939, 1342845.314267987385392 ], [ -1885160.411858078092337, 1342863.909069152083248 ], [ -1885253.385863902047276, 1342863.909069152083248 ], [ -1885253.385863902047276, 1342891.801270899130031 ], [ -1885290.575466231675819, 1342928.990873228758574 ], [ -1885290.575466231675819, 1342956.883074976038188 ], [ -1885253.385863902047276, 1343003.370077888015658 ], [ -1885197.601460407720879, 1343170.723288370994851 ], [ -1885169.709258660441265, 1343198.615490118274465 ], [ -1885179.006659242790192, 1343245.102493030251935 ], [ -1885160.411858078092337, 1343263.697294194949791 ], [ -1885179.006659242790192, 1343375.266101183602586 ], [ -1885216.196261572418734, 1343412.455703513231128 ], [ -1885206.898860990069807, 1343551.916712249163538 ], [ -1885318.467667978722602, 1343579.808913996443152 ], [ -1885327.76506856107153, 1343598.403715161141008 ], [ -1885346.359869726002216, 1343598.403715161141008 ], [ -1885355.657270308351144, 1343626.295916908420622 ], [ -1885374.252071473049, 1343626.295916908420622 ], [ -1885383.549472055397928, 1343598.403715161141008 ], [ -1885420.73907438502647, 1343579.808913996443152 ], [ -1885420.73907438502647, 1343561.214112831512466 ], [ -1885476.523477879352868, 1343542.61931166681461 ], [ -1885476.523477879352868, 1343505.429709337186068 ], [ -1885504.415679626632482, 1343496.13230875483714 ], [ -1885513.71308020898141, 1343468.240107007557526 ], [ -1885560.20008312095888, 1343458.942706425208598 ], [ -1885569.497483703307807, 1343477.537507590139285 ], [ -1885606.68708603293635, 1343486.834908172488213 ], [ -1885606.68708603293635, 1343505.429709337186068 ], [ -1885681.066290692193434, 1343524.024510502116755 ], [ -1885736.850694186519831, 1343514.727109919534996 ], [ -1885755.445495351217687, 1343486.834908172488213 ], [ -1885801.932498263195157, 1343496.13230875483714 ], [ -1885820.527299428125843, 1343468.240107007557526 ], [ -1885885.609103504801169, 1343486.834908172488213 ], [ -1885904.203904669499025, 1343468.240107007557526 ], [ -1885941.393506999127567, 1343468.240107007557526 ], [ -1885950.690907581476495, 1343449.645305842859671 ], [ -1885978.583109328756109, 1343458.942706425208598 ], [ -1885987.880509911105037, 1343440.347905260510743 ], [ -1886099.449316899757832, 1343458.942706425208598 ], [ -1886155.23372039408423, 1343449.645305842859671 ], [ -1886257.505126800620928, 1343551.916712249163538 ], [ -1886331.884331459645182, 1343542.61931166681461 ], [ -1886359.776533206924796, 1343524.024510502116755 ], [ -1886387.66873495397158, 1343551.916712249163538 ], [ -1886434.15573786594905, 1343551.916712249163538 ], [ -1886443.453138448297977, 1343579.808913996443152 ], [ -1886480.64274077792652, 1343579.808913996443152 ], [ -1886480.64274077792652, 1343607.701115743489936 ], [ -1886527.129743689903989, 1343607.701115743489936 ], [ -1886620.103749513858929, 1343570.511513414094225 ], [ -1886629.401150096207857, 1343514.727109919534996 ], [ -1886657.293351843487471, 1343505.429709337186068 ], [ -1886694.482954173116013, 1343458.942706425208598 ], [ -1886833.943962908815593, 1343440.347905260510743 ], [ -1886852.538764073746279, 1343412.455703513231128 ], [ -1887001.297173392027617, 1343393.860902348533273 ], [ -1887038.486775721656159, 1343319.481697689276189 ], [ -1887038.486775721656159, 1343217.210291282972321 ], [ -1887001.297173392027617, 1343161.425887788645923 ], [ -1887019.891974556725472, 1343087.04668312962167 ], [ -1886973.404971644748002, 1343059.154481382342055 ], [ -1886973.404971644748002, 1343031.262279635062441 ], [ -1886945.512769897701219, 1343003.370077888015658 ], [ -1886926.917968732770532, 1342928.990873228758574 ], [ -1886945.512769897701219, 1342845.314267987385392 ], [ -1886908.323167568072677, 1342798.827265075407922 ], [ -1886917.620568150421605, 1342743.042861580848694 ], [ -1886889.728366403374821, 1342724.448060416150838 ], [ -1886880.430965820793062, 1342696.555858668871224 ], [ -1886861.836164656095207, 1342575.689651097869501 ], [ -1886796.754360579419881, 1342519.905247603543103 ], [ -1886796.754360579419881, 1342501.310446438612416 ], [ -1886750.267357667442411, 1342464.120844109216705 ], [ -1886731.672556502511725, 1342426.931241779588163 ], [ -1886731.672556502511725, 1342315.362434790935367 ], [ -1886713.077755337813869, 1342306.065034208353609 ], [ -1886713.077755337813869, 1342287.470233043655753 ], [ -1886731.672556502511725, 1342278.172832461306825 ], [ -1886722.375155920162797, 1342203.793627802049741 ], [ -1886740.969957085093483, 1342185.198826637351885 ], [ -1886666.590752425836399, 1342166.604025472421199 ], [ -1886657.293351843487471, 1342138.711823725374416 ], [ -1886620.103749513858929, 1342148.009224307723343 ], [ -1886592.211547766579315, 1342110.819621978094801 ], [ -1886592.211547766579315, 1342082.927420231048018 ], [ -1886564.319346019532531, 1342082.927420231048018 ], [ -1886555.021945437183604, 1342064.332619066117331 ], [ -1886536.427144272252917, 1342064.332619066117331 ], [ -1886536.427144272252917, 1342045.737817901419476 ], [ -1886499.237541942857206, 1342045.737817901419476 ], [ -1886489.940141360275447, 1342027.14301673672162 ], [ -1886434.15573786594905, 1342027.14301673672162 ], [ -1886369.073933789273724, 1342082.927420231048018 ], [ -1886369.073933789273724, 1342064.332619066117331 ], [ -1886313.289530294947326, 1342045.737817901419476 ], [ -1886285.397328547667712, 1342017.845616154139861 ], [ -1886303.992129712598398, 1341999.250814989442006 ], [ -1886322.586930877296254, 1341831.897604506462812 ], [ -1886276.099927965318784, 1341794.70800217683427 ], [ -1886257.505126800620928, 1341729.626198099926114 ], [ -1886266.802527382969856, 1341711.031396935228258 ], [ -1886248.20772621803917, 1341711.031396935228258 ], [ -1886238.910325635690242, 1341590.165189364226535 ], [ -1886201.7207233060617, 1341562.272987616946921 ], [ -1886183.125922141363844, 1341525.083385287318379 ], [ -1886183.125922141363844, 1341450.704180628294125 ], [ -1886201.7207233060617, 1341441.406780045712367 ], [ -1886173.828521559014916, 1341367.027575386688113 ], [ -1886183.125922141363844, 1341255.458768398035318 ], [ -1886127.341518647037446, 1341255.458768398035318 ], [ -1886118.044118064688519, 1341236.863967233104631 ], [ -1886090.151916317408904, 1341246.161367815453559 ], [ -1886090.151916317408904, 1341227.566566650755703 ], [ -1886071.557115152711049, 1341227.566566650755703 ], [ -1885997.177910493453965, 1341097.402958497172222 ], [ -1885997.177910493453965, 1341069.510756750125438 ], [ -1885950.690907581476495, 1341023.023753838147968 ], [ -1885932.096106416778639, 1341023.023753838147968 ], [ -1885932.096106416778639, 1340995.131552090868354 ], [ -1885913.501305251847953, 1340985.834151508519426 ], [ -1885876.311702922452241, 1340985.834151508519426 ], [ -1885848.419501175172627, 1341013.72635325579904 ], [ -1885811.229898845544085, 1341023.023753838147968 ], [ -1885764.742895933566615, 1341069.510756750125438 ], [ -1885690.363691274542361, 1341106.70035907975398 ], [ -1885681.066290692193434, 1341134.592560826800764 ], [ -1885643.876688362564892, 1341115.997759662102908 ], [ -1885485.820878461934626, 1341115.997759662102908 ], [ -1885439.333875549957156, 1341097.402958497172222 ], [ -1885374.252071473049, 1340976.536750926170498 ], [ -1885327.76506856107153, 1340939.347148596541956 ], [ -1885327.76506856107153, 1340846.373142772587016 ], [ -1885290.575466231675819, 1340846.373142772587016 ], [ -1885281.27806564909406, 1340818.480941025540233 ], [ -1885244.088463319698349, 1340790.588739278260618 ], [ -1885206.898860990069807, 1340790.588739278260618 ], [ -1885188.30405982513912, 1340753.399136948632076 ], [ -1885095.330054001417011, 1340744.101736366283149 ], [ -1885058.140451671788469, 1340688.317332871956751 ], [ -1885002.356048177462071, 1340669.722531707026064 ], [ -1884974.463846430182457, 1340613.938128212699667 ], [ -1884937.274244100553915, 1340595.343327048001811 ], [ -1884918.679442935856059, 1340548.856324136024341 ], [ -1884862.895039441529661, 1340502.369321224046871 ], [ -1884862.895039441529661, 1340483.774520059349015 ], [ -1884825.705437111901119, 1340446.584917729720473 ], [ -1884844.300238276598975, 1340400.097914817743003 ], [ -1884797.813235364621505, 1340316.421309576136991 ], [ -1884797.813235364621505, 1340186.257701422553509 ], [ -1884825.705437111901119, 1340186.257701422553509 ], [ -1884872.192440023878589, 1340121.175897345878184 ], [ -1884946.571644682902843, 1340102.581096181180328 ], [ -1884983.761247012531385, 1340056.094093269202858 ], [ -1885002.356048177462071, 1340056.094093269202858 ], [ -1885002.356048177462071, 1340037.499292104272172 ], [ -1885058.140451671788469, 1340037.499292104272172 ], [ -1885113.924855166114867, 1340009.607090357225388 ], [ -1885132.519656330812722, 1339916.633084533270448 ], [ -1885086.032653418835253, 1339898.038283368572593 ], [ -1885048.843051089439541, 1339842.253879874013364 ], [ -1885011.653448759810999, 1339823.659078709315509 ], [ -1885011.653448759810999, 1339786.469476379686967 ], [ -1885030.248249924508855, 1339758.577274632640183 ], [ -1884955.869045265484601, 1339739.982473467709497 ], [ -1884927.976843518204987, 1339702.792871138080955 ], [ -1884844.300238276598975, 1339702.792871138080955 ], [ -1884797.813235364621505, 1339656.305868226336315 ], [ -1884760.623633035225794, 1339656.305868226336315 ], [ -1884769.921033617574722, 1339619.116265896707773 ], [ -1884816.408036529552191, 1339572.629262984730303 ], [ -1884816.408036529552191, 1339479.655257160775363 ], [ -1884797.813235364621505, 1339470.357856578426436 ], [ -1884816.408036529552191, 1339423.870853666448966 ], [ -1884788.515834782272577, 1339405.276052501518279 ], [ -1884788.515834782272577, 1339377.383850754471496 ], [ -1884742.028831870295107, 1339340.194248424842954 ], [ -1884742.028831870295107, 1339275.112444348167628 ], [ -1884769.921033617574722, 1339237.922842018539086 ], [ -1884760.623633035225794, 1339210.030640271259472 ], [ -1884807.110635947203264, 1339126.35403502988629 ], [ -1884797.813235364621505, 1339051.974830370629206 ], [ -1884779.218434199923649, 1339024.082628623349592 ], [ -1884779.218434199923649, 1338866.026818722719327 ], [ -1884797.813235364621505, 1338754.458011734066531 ], [ -1884825.705437111901119, 1338754.458011734066531 ], [ -1884844.300238276598975, 1338773.052812898764387 ], [ -1884872.192440023878589, 1338754.458011734066531 ], [ -1884955.869045265484601, 1338745.160611151717603 ], [ -1884955.869045265484601, 1338763.755412316415459 ], [ -1885002.356048177462071, 1338782.350213481113315 ], [ -1885039.545650506857783, 1338763.755412316415459 ], [ -1885086.032653418835253, 1338763.755412316415459 ], [ -1885141.81705691316165, 1338707.971008822089061 ], [ -1885160.411858078092337, 1338707.971008822089061 ], [ -1885169.709258660441265, 1338661.484005910111591 ], [ -1885216.196261572418734, 1338633.591804162831977 ], [ -1885271.980665066745132, 1338522.022997174179181 ], [ -1885327.76506856107153, 1338484.833394844550639 ], [ -1885327.76506856107153, 1338456.941193097503856 ], [ -1885383.549472055397928, 1338363.967187273548916 ], [ -1885392.846872637979686, 1338280.290582031942904 ], [ -1885411.441673802677542, 1338280.290582031942904 ], [ -1885420.73907438502647, 1338224.506178537616506 ], [ -1885439.333875549957156, 1338215.208777955267578 ], [ -1885439.333875549957156, 1338178.019175625639036 ], [ -1885467.22607729700394, 1338159.424374460941181 ], [ -1885467.22607729700394, 1338140.829573296010494 ], [ -1885485.820878461934626, 1338122.234772131312639 ], [ -1885569.497483703307807, 1338103.639970966381952 ], [ -1885615.984486615285277, 1338057.152968054404482 ], [ -1885643.876688362564892, 1338001.368564560078084 ], [ -1885699.661091856891289, 1338001.368564560078084 ], [ -1885736.850694186519831, 1337936.286760483402759 ], [ -1885811.229898845544085, 1337936.286760483402759 ], [ -1885839.122100592823699, 1337908.394558736123145 ], [ -1885857.716901757521555, 1337852.610155241796747 ], [ -1885913.501305251847953, 1337852.610155241796747 ], [ -1885969.285708746407181, 1337759.636149417841807 ], [ -1885959.988308163825423, 1337713.149146505864337 ], [ -1885997.177910493453965, 1337675.959544176468626 ], [ -1886090.151916317408904, 1337675.959544176468626 ], [ -1886127.341518647037446, 1337620.175140681909397 ], [ -1886155.23372039408423, 1337620.175140681909397 ], [ -1886155.23372039408423, 1337592.282938934862614 ], [ -1886201.7207233060617, 1337592.282938934862614 ], [ -1886322.586930877296254, 1337471.41673136362806 ], [ -1886341.18173204199411, 1337471.41673136362806 ], [ -1886341.18173204199411, 1337443.524529616581276 ], [ -1886378.371334371622652, 1337424.92972845165059 ], [ -1886378.371334371622652, 1337397.037526704603806 ], [ -1886331.884331459645182, 1337331.95572262769565 ], [ -1886350.479132624343038, 1337331.95572262769565 ], [ -1886369.073933789273724, 1337294.766120298299938 ], [ -1886434.15573786594905, 1337238.98171680374071 ], [ -1886499.237541942857206, 1337220.386915639042854 ], [ -1886527.129743689903989, 1337220.386915639042854 ], [ -1886545.724544854834676, 1337238.98171680374071 ], [ -1886573.616746601881459, 1337211.089515056693926 ], [ -1886573.616746601881459, 1337183.197313309414312 ], [ -1886592.211547766579315, 1337173.899912727065384 ], [ -1886592.211547766579315, 1337146.007710980018601 ], [ -1886620.103749513858929, 1337108.818108650390059 ], [ -1886620.103749513858929, 1337053.033705156063661 ], [ -1886666.590752425836399, 1337080.925906903110445 ], [ -1886685.185553590534255, 1337071.628506320761517 ], [ -1886694.482954173116013, 1337043.736304573481902 ], [ -1886675.888153008185327, 1336987.951901079155505 ], [ -1886685.185553590534255, 1336950.762298749759793 ], [ -1886713.077755337813869, 1336932.167497584829107 ], [ -1886713.077755337813869, 1336876.383094090502709 ], [ -1886722.375155920162797, 1336857.788292925804853 ], [ -1886750.267357667442411, 1336857.788292925804853 ], [ -1886787.456959997070953, 1336820.598690596176311 ], [ -1886787.456959997070953, 1336802.003889431245625 ], [ -1886815.349161744117737, 1336802.003889431245625 ], [ -1886806.051761161768809, 1336690.435082442592829 ], [ -1886768.862158832140267, 1336634.650678948266432 ], [ -1886768.862158832140267, 1336597.46107661863789 ], [ -1886731.672556502511725, 1336550.97407370666042 ], [ -1886824.646562326466665, 1336532.379272541962564 ], [ -1886908.323167568072677, 1336485.892269629985094 ], [ -1886889.728366403374821, 1336467.297468465287238 ], [ -1886871.133565238444135, 1336383.620863223681226 ], [ -1886880.430965820793062, 1336365.02606205875054 ], [ -1886908.323167568072677, 1336365.02606205875054 ], [ -1886926.917968732770532, 1336309.241658564424142 ], [ -1886899.025766985723749, 1336281.349456817377359 ], [ -1886908.323167568072677, 1336206.970252158120275 ], [ -1886843.241363491397351, 1336141.888448081444949 ], [ -1886843.241363491397351, 1336011.724839927861467 ], [ -1886824.646562326466665, 1336002.427439345512539 ], [ -1886824.646562326466665, 1335974.535237598232925 ], [ -1886796.754360579419881, 1335965.237837015883997 ], [ -1886778.159559414489195, 1335918.750834103906527 ], [ -1886740.969957085093483, 1335918.750834103906527 ], [ -1886694.482954173116013, 1335890.858632356859744 ], [ -1886629.401150096207857, 1335816.479427697602659 ], [ -1886555.021945437183604, 1335797.884626532904804 ], [ -1886508.534942525206134, 1335742.100223038578406 ], [ -1886508.534942525206134, 1335704.910620708949864 ], [ -1886489.940141360275447, 1335695.613220126600936 ], [ -1886499.237541942857206, 1335667.721018379321322 ], [ -1886471.345340195577592, 1335677.01841896167025 ], [ -1886387.66873495397158, 1335658.423617796972394 ], [ -1886350.479132624343038, 1335584.04441313771531 ], [ -1886285.397328547667712, 1335546.854810808086768 ], [ -1886257.505126800620928, 1335546.854810808086768 ], [ -1886229.612925053341314, 1335518.962609061039984 ], [ -1886220.315524470992386, 1335481.773006731411442 ], [ -1886201.7207233060617, 1335481.773006731411442 ], [ -1886201.7207233060617, 1335463.178205566713586 ], [ -1886164.531120976665989, 1335444.5834044017829 ], [ -1886099.449316899757832, 1335444.5834044017829 ], [ -1886034.367512823082507, 1335491.07040731376037 ], [ -1885969.285708746407181, 1335500.367807896342129 ], [ -1885932.096106416778639, 1335537.55741022573784 ], [ -1885894.906504087150097, 1335546.854810808086768 ], [ -1885839.122100592823699, 1335611.936614884994924 ], [ -1885699.661091856891289, 1335621.234015467343852 ], [ -1885653.174088944913819, 1335639.828816632041708 ], [ -1885653.174088944913819, 1335621.234015467343852 ], [ -1885597.389685450587422, 1335574.747012555366382 ], [ -1885597.389685450587422, 1335556.152211390668526 ], [ -1885532.307881373912096, 1335518.962609061039984 ], [ -1885476.523477879352868, 1335509.665208478691056 ], [ -1885392.846872637979686, 1335425.988603237085044 ], [ -1885309.170267396373674, 1335463.178205566713586 ], [ -1885299.872866814024746, 1335444.5834044017829 ], [ -1885271.980665066745132, 1335444.5834044017829 ], [ -1885262.683264484396204, 1335407.393802072387189 ], [ -1885132.519656330812722, 1335342.311997995479032 ], [ -1885030.248249924508855, 1335370.204199742758647 ], [ -1884937.274244100553915, 1335370.204199742758647 ], [ -1884918.679442935856059, 1335342.311997995479032 ], [ -1884825.705437111901119, 1335342.311997995479032 ], [ -1884825.705437111901119, 1335360.906799160409719 ], [ -1884807.110635947203264, 1335360.906799160409719 ], [ -1884807.110635947203264, 1335379.501600325107574 ], [ -1884779.218434199923649, 1335398.09640148980543 ], [ -1884779.218434199923649, 1335463.178205566713586 ], [ -1884760.623633035225794, 1335472.475606149062514 ], [ -1884751.326232452644035, 1335537.55741022573784 ], [ -1884704.839229540666565, 1335565.449611973017454 ], [ -1884611.865223716944456, 1335565.449611973017454 ], [ -1884583.973021969664842, 1335584.04441313771531 ], [ -1884556.080820222385228, 1335556.152211390668526 ], [ -1884509.593817310407758, 1335556.152211390668526 ], [ -1884481.701615563360974, 1335491.07040731376037 ], [ -1884425.917212069034576, 1335453.880804984364659 ], [ -1884398.025010321754962, 1335472.475606149062514 ], [ -1884295.753603915451095, 1335453.880804984364659 ], [ -1884267.86140216817148, 1335481.773006731411442 ], [ -1884212.076998673845083, 1335491.07040731376037 ], [ -1884146.995194597169757, 1335425.988603237085044 ], [ -1883961.047182949259877, 1335425.988603237085044 ], [ -1883942.452381784562021, 1335398.09640148980543 ], [ -1883895.965378872584552, 1335388.799000907456502 ], [ -1883793.693972466280684, 1335416.691202654736117 ], [ -1883775.099171301349998, 1335435.286003819433972 ], [ -1883728.612168389372528, 1335435.286003819433972 ], [ -1883663.530364312697202, 1335388.799000907456502 ], [ -1883458.987551500089467, 1335453.880804984364659 ], [ -1883449.690150917507708, 1335435.286003819433972 ], [ -1883431.095349752809852, 1335435.286003819433972 ], [ -1883431.095349752809852, 1335407.393802072387189 ], [ -1883366.013545676134527, 1335370.204199742758647 ], [ -1883328.823943346505985, 1335305.12239566585049 ], [ -1883291.634341016877443, 1335305.12239566585049 ], [ -1883245.147338104899973, 1335323.717196830781177 ], [ -1883217.255136357853189, 1335370.204199742758647 ], [ -1883170.768133445875719, 1335379.501600325107574 ], [ -1883124.281130533898249, 1335425.988603237085044 ], [ -1883077.794127621920779, 1335425.988603237085044 ], [ -1883012.712323545012623, 1335481.773006731411442 ], [ -1882891.8461159740109, 1335491.07040731376037 ], [ -1882854.656513644382358, 1335537.55741022573784 ], [ -1882826.764311897335574, 1335546.854810808086768 ], [ -1882817.466911314753816, 1335574.747012555366382 ], [ -1882798.87211015005596, 1335574.747012555366382 ], [ -1882798.87211015005596, 1335602.639214302645996 ], [ -1882752.38510723807849, 1335630.53141604969278 ], [ -1882743.087706655729562, 1335695.613220126600936 ], [ -1882696.600703743752092, 1335751.397623620927334 ], [ -1882640.816300249425694, 1335742.100223038578406 ], [ -1882603.626697919797152, 1335769.99242478562519 ], [ -1882566.43709559016861, 1335760.695024203276262 ], [ -1882501.355291513493285, 1335788.587225950323045 ], [ -1882445.570888019166887, 1335769.99242478562519 ], [ -1882436.273487436817959, 1335751.397623620927334 ], [ -1882334.002081030281261, 1335751.397623620927334 ], [ -1882222.433274041628465, 1335853.669030027231202 ], [ -1882185.243671711999923, 1335862.966430609580129 ], [ -1882175.946271129650995, 1335881.561231774277985 ], [ -1882138.756668800022453, 1335881.561231774277985 ], [ -1882120.161867635324597, 1335937.345635268837214 ], [ -1882073.674864723347127, 1335983.832638180814683 ], [ -1882073.674864723347127, 1336021.022240510210395 ], [ -1882017.89046122902073, 1336039.617041675141081 ], [ -1882008.593060646671802, 1336058.211842839838937 ], [ -1881952.808657152345404, 1336076.806644004536793 ], [ -1881943.511256569763646, 1336104.698845751816407 ], [ -1881906.321654240367934, 1336113.996246334165335 ], [ -1881869.132051910739392, 1336151.185848663793877 ], [ -1881869.132051910739392, 1336179.078050411073491 ], [ -1881850.537250745808706, 1336179.078050411073491 ], [ -1881794.752847251482308, 1336234.862453905399889 ], [ -1881776.158046086784452, 1336299.944257982075214 ], [ -1881729.671043174806982, 1336309.241658564424142 ], [ -1881720.373642592458054, 1336327.836459729354829 ], [ -1881683.184040262829512, 1336327.836459729354829 ], [ -1881673.886639680480585, 1336309.241658564424142 ], [ -1881618.102236186154187, 1336327.836459729354829 ], [ -1881562.317832691594958, 1336299.944257982075214 ], [ -1881487.938628032570705, 1336299.944257982075214 ], [ -1881450.749025702942163, 1336262.754655652446672 ], [ -1881404.262022790964693, 1336272.0520562347956 ], [ -1881404.262022790964693, 1336253.457255070097744 ], [ -1881367.072420461336151, 1336244.159854487748817 ], [ -1881367.072420461336151, 1336225.565053323050961 ], [ -1881348.477619296638295, 1336216.267652740469202 ], [ -1881329.882818131940439, 1336216.267652740469202 ], [ -1881329.882818131940439, 1336234.862453905399889 ], [ -1881236.9088123079855, 1336234.862453905399889 ], [ -1881227.611411725636572, 1336216.267652740469202 ], [ -1881134.637405901681632, 1336225.565053323050961 ], [ -1881125.340005319099873, 1336206.970252158120275 ], [ -1881106.745204154402018, 1336216.267652740469202 ], [ -1881069.555601824773476, 1336197.672851575771347 ], [ -1880995.176397165749222, 1336225.565053323050961 ], [ -1880985.878996583400294, 1336253.457255070097744 ], [ -1880948.689394253771752, 1336262.754655652446672 ], [ -1880939.391993671422824, 1336290.646857399726287 ], [ -1880865.01278901216574, 1336365.02606205875054 ], [ -1880865.01278901216574, 1336411.51306497072801 ], [ -1880809.228385517839342, 1336448.702667300356552 ], [ -1880790.633584353141487, 1336504.48707079468295 ], [ -1880772.0387831882108, 1336504.48707079468295 ], [ -1880762.741382605861872, 1336523.081871959613636 ], [ -1880725.55178027623333, 1336523.081871959613636 ], [ -1880706.956979111535475, 1336550.97407370666042 ], [ -1880632.577774452278391, 1336550.97407370666042 ], [ -1880604.685572705231607, 1336569.568874871591106 ], [ -1880455.927163386950269, 1336560.271474289009348 ], [ -1880381.547958727693185, 1336597.46107661863789 ], [ -1880251.384350574109703, 1336597.46107661863789 ], [ -1880158.410344750154763, 1336634.650678948266432 ], [ -1880056.138938343850896, 1336634.650678948266432 ], [ -1880018.949336014455184, 1336653.245480112964287 ], [ -1879991.05713426717557, 1336643.94807953061536 ], [ -1879898.08312844322063, 1336671.840281277894974 ], [ -1879823.703923784196377, 1336662.542880695546046 ], [ -1879721.432517377659678, 1336699.732483024941757 ], [ -1879600.566309806657955, 1336690.435082442592829 ], [ -1879461.105301070725545, 1336736.922085354570299 ], [ -1879330.941692917142063, 1336681.137681860243902 ], [ -1879293.752090587746352, 1336690.435082442592829 ], [ -1879256.56248825811781, 1336662.542880695546046 ], [ -1879172.885883016511798, 1336662.542880695546046 ], [ -1879117.1014795221854, 1336681.137681860243902 ], [ -1879107.804078939836472, 1336662.542880695546046 ], [ -1879052.019675445510074, 1336643.94807953061536 ], [ -1879042.722274862928316, 1336616.055877783568576 ], [ -1879005.532672533532605, 1336616.055877783568576 ], [ -1879005.532672533532605, 1336597.46107661863789 ], [ -1878875.369064379949123, 1336597.46107661863789 ], [ -1878875.369064379949123, 1336578.866275453940034 ], [ -1878810.287260303273797, 1336578.866275453940034 ], [ -1878791.692459138343111, 1336560.271474289009348 ], [ -1878763.800257391296327, 1336560.271474289009348 ], [ -1878754.502856808714569, 1336541.676673124311492 ], [ -1878642.934049820061773, 1336541.676673124311492 ], [ -1878559.257444578455761, 1336569.568874871591106 ], [ -1878512.770441666478291, 1336550.97407370666042 ], [ -1878503.473041084129363, 1336523.081871959613636 ], [ -1878456.986038172151893, 1336523.081871959613636 ], [ -1878419.796435842523351, 1336560.271474289009348 ], [ -1878354.714631765848026, 1336560.271474289009348 ], [ -1878354.714631765848026, 1336541.676673124311492 ], [ -1878289.6328276891727, 1336476.594869047636166 ], [ -1878280.335427106823772, 1336346.431260894052684 ], [ -1878252.443225359544158, 1336309.241658564424142 ], [ -1878196.65882186521776, 1336299.944257982075214 ], [ -1878178.064020700287074, 1336253.457255070097744 ], [ -1878131.577017788542435, 1336216.267652740469202 ], [ -1878020.008210799656808, 1336179.078050411073491 ], [ -1877964.223807305330411, 1336132.591047499096021 ], [ -1877908.439403811004013, 1336132.591047499096021 ], [ -1877834.060199151746929, 1336076.806644004536793 ], [ -1877796.870596822351217, 1336086.104044587118551 ], [ -1877787.573196239769459, 1336067.509243422187865 ], [ -1877741.086193327791989, 1336067.509243422187865 ], [ -1877713.193991580745205, 1336039.617041675141081 ], [ -1877583.030383427161723, 1336039.617041675141081 ], [ -1877583.030383427161723, 1336021.022240510210395 ], [ -1877564.435582262463868, 1336021.022240510210395 ], [ -1877545.840781097533181, 1335993.130038763163611 ], [ -1877480.758977020857856, 1335983.832638180814683 ], [ -1877462.16417585616, 1335955.940436433535069 ], [ -1877378.487570614553988, 1335946.643035851186141 ], [ -1877322.70316712022759, 1335955.940436433535069 ], [ -1877304.108365955296904, 1335983.832638180814683 ], [ -1877146.052556054666638, 1335983.832638180814683 ], [ -1877127.457754889968783, 1335955.940436433535069 ], [ -1877053.078550230711699, 1335955.940436433535069 ], [ -1877043.781149648362771, 1335928.048234686255455 ], [ -1876987.996746154036373, 1335928.048234686255455 ], [ -1876941.509743242058903, 1335900.156032939208671 ], [ -1876941.509743242058903, 1335881.561231774277985 ], [ -1876904.320140912430361, 1335881.561231774277985 ], [ -1876867.130538582801819, 1335844.371629444882274 ], [ -1876839.238336835755035, 1335844.371629444882274 ], [ -1876829.940936253406107, 1335797.884626532904804 ], [ -1876792.751333923777565, 1335760.695024203276262 ], [ -1876792.751333923777565, 1335695.613220126600936 ], [ -1876764.859132176497951, 1335630.53141604969278 ], [ -1876690.479927517473698, 1335621.234015467343852 ], [ -1876643.992924605496228, 1335584.04441313771531 ], [ -1876616.100722858216614, 1335584.04441313771531 ], [ -1876597.505921693518758, 1335556.152211390668526 ], [ -1876532.424117616610602, 1335537.55741022573784 ], [ -1876532.424117616610602, 1335509.665208478691056 ], [ -1876513.829316451912746, 1335509.665208478691056 ], [ -1876513.829316451912746, 1335491.07040731376037 ], [ -1876495.23451528721489, 1335491.07040731376037 ], [ -1876411.557910045608878, 1335407.393802072387189 ], [ -1876290.691702474374324, 1335398.09640148980543 ], [ -1876281.394301892025396, 1335379.501600325107574 ], [ -1876225.609898397698998, 1335370.204199742758647 ], [ -1876179.122895485721529, 1335333.014597413130105 ], [ -1876114.041091409046203, 1335333.014597413130105 ], [ -1876048.959287332138047, 1335351.60939857782796 ], [ -1876002.472284420393407, 1335388.799000907456502 ], [ -1875946.687880925834179, 1335398.09640148980543 ], [ -1875918.795679178787395, 1335463.178205566713586 ], [ -1875863.011275684460998, 1335528.260009643388912 ], [ -1875844.416474519530311, 1335593.341813720064238 ], [ -1875807.226872189901769, 1335621.234015467343852 ], [ -1875760.739869277924299, 1335714.208021291298792 ], [ -1875704.955465783597901, 1335732.802822455996647 ], [ -1875658.468462871620432, 1335788.587225950323045 ], [ -1875630.576261124573648, 1335788.587225950323045 ], [ -1875621.27886054222472, 1335807.182027115253732 ], [ -1875556.197056465316564, 1335807.182027115253732 ], [ -1875546.899655882967636, 1335788.587225950323045 ], [ -1875481.81785180629231, 1335779.289825367974117 ], [ -1875472.520451223943383, 1335760.695024203276262 ], [ -1875388.843845982337371, 1335760.695024203276262 ], [ -1875342.356843070359901, 1335769.99242478562519 ], [ -1875323.762041905429214, 1335797.884626532904804 ], [ -1875221.490635499125347, 1335807.182027115253732 ], [ -1875165.706232004798949, 1335797.884626532904804 ], [ -1875165.706232004798949, 1335779.289825367974117 ], [ -1875128.516629675170407, 1335769.99242478562519 ], [ -1875100.624427928123623, 1335723.50542187364772 ], [ -1875072.732226180844009, 1335751.397623620927334 ], [ -1874989.055620939470828, 1335732.802822455996647 ], [ -1874942.568618027493358, 1335788.587225950323045 ], [ -1874905.379015697864816, 1335788.587225950323045 ], [ -1874886.784214532934129, 1335816.479427697602659 ], [ -1874589.267395896371454, 1335807.182027115253732 ], [ -1874561.37519414932467, 1335779.289825367974117 ], [ -1874319.642779007088393, 1335779.289825367974117 ], [ -1874282.453176677459851, 1335807.182027115253732 ], [ -1874226.668773183133453, 1335816.479427697602659 ], [ -1874161.586969106225297, 1335890.858632356859744 ], [ -1874096.505165029549971, 1335890.858632356859744 ], [ -1874059.315562699921429, 1335937.345635268837214 ], [ -1874031.423360952874646, 1335946.643035851186141 ], [ -1873919.854553963989019, 1335946.643035851186141 ], [ -1873891.962352216942236, 1335974.535237598232925 ], [ -1873854.772749887313694, 1335974.535237598232925 ], [ -1873780.39354522828944, 1336011.724839927861467 ], [ -1873771.096144645707682, 1336030.319641092559323 ], [ -1873752.501343481009826, 1336030.319641092559323 ], [ -1873752.501343481009826, 1336048.914442257490009 ], [ -1873510.768928338773549, 1336048.914442257490009 ], [ -1873473.579326009145007, 1336067.509243422187865 ], [ -1873473.579326009145007, 1336113.996246334165335 ], [ -1873436.389723679516464, 1336113.996246334165335 ], [ -1873380.605320185190067, 1336160.483249246142805 ], [ -1873334.118317273212597, 1336160.483249246142805 ], [ -1873296.928714943816885, 1336197.672851575771347 ], [ -1873231.846910866908729, 1336206.970252158120275 ], [ -1873148.170305625302717, 1336290.646857399726287 ], [ -1873073.791100966278464, 1336281.349456817377359 ], [ -1873027.304098054300994, 1336318.53905914677307 ], [ -1872813.46388465934433, 1336318.53905914677307 ], [ -1872701.895077670458704, 1336337.133860311703756 ], [ -1872646.110674176132306, 1336327.836459729354829 ], [ -1872581.028870099456981, 1336383.620863223681226 ], [ -1872571.731469517108053, 1336420.810465553309768 ], [ -1872543.839267769828439, 1336439.405266718007624 ], [ -1872543.839267769828439, 1336467.297468465287238 ], [ -1872497.352264857850969, 1336513.784471377031878 ], [ -1872469.460063110571355, 1336513.784471377031878 ], [ -1872450.865261945873499, 1336541.676673124311492 ], [ -1872348.593855539569631, 1336532.379272541962564 ], [ -1872339.296454957220703, 1336550.97407370666042 ], [ -1872274.214650880312547, 1336550.97407370666042 ], [ -1871679.181013607187197, 1336411.51306497072801 ], [ -1871586.207007783232257, 1336402.215664388379082 ], [ -1871558.314806036185473, 1336448.702667300356552 ], [ -1871539.720004871254787, 1336448.702667300356552 ], [ -1871539.720004871254787, 1336476.594869047636166 ], [ -1871567.612206618534401, 1336485.892269629985094 ], [ -1871567.612206618534401, 1336532.379272541962564 ], [ -1871549.017405453603715, 1336569.568874871591106 ], [ -1871539.720004871254787, 1336662.542880695546046 ], [ -1871521.125203706556931, 1336671.840281277894974 ], [ -1871521.125203706556931, 1336746.219485936919227 ], [ -1871493.233001959277317, 1336774.111687684198841 ], [ -1871493.233001959277317, 1336811.301290013827384 ], [ -1871437.448598464950919, 1336820.598690596176311 ], [ -1871437.448598464950919, 1336922.870097002480179 ], [ -1871418.853797300253063, 1336941.464898167178035 ], [ -1871428.151197882601991, 1337006.546702244086191 ], [ -1871456.043399629648775, 1337025.141503408784047 ], [ -1871456.043399629648775, 1337043.736304573481902 ], [ -1871437.448598464950919, 1337080.925906903110445 ], [ -1871400.258996135322377, 1337294.766120298299938 ], [ -1871353.771993223344907, 1337350.550523792626336 ], [ -1871325.879791476298124, 1337350.550523792626336 ], [ -1871297.987589729018509, 1337462.119330781279132 ], [ -1871307.284990311367437, 1337508.606333693256602 ], [ -1871242.203186234692112, 1337545.795936022885144 ], [ -1871242.203186234692112, 1337582.985538352513686 ], [ -1871214.310984487645328, 1337610.877740099560469 ], [ -1871214.310984487645328, 1337629.472541264491156 ], [ -1871242.203186234692112, 1337648.067342429189011 ], [ -1871205.01358390506357, 1337675.959544176468626 ], [ -1871205.01358390506357, 1337703.851745923515409 ], [ -1871177.121382158016786, 1337713.149146505864337 ], [ -1871167.823981575667858, 1337759.636149417841807 ], [ -1871186.418782740365714, 1337768.933550000190735 ], [ -1871186.418782740365714, 1337796.825751747470349 ], [ -1871158.5265809930861, 1337796.825751747470349 ], [ -1871139.931779828388244, 1337824.717953494749963 ], [ -1871139.931779828388244, 1337852.610155241796747 ], [ -1871158.5265809930861, 1337861.907555824145675 ], [ -1871158.5265809930861, 1337982.773763395380229 ], [ -1871177.121382158016786, 1337982.773763395380229 ], [ -1871195.716183322714642, 1338085.045169801684096 ], [ -1871223.608385069994256, 1338094.342570384033024 ], [ -1871195.716183322714642, 1338112.937371548963711 ], [ -1871205.01358390506357, 1338168.721775043290108 ], [ -1871167.823981575667858, 1338252.39838028466329 ], [ -1871102.742177498759702, 1338252.39838028466329 ], [ -1871074.849975751712918, 1338289.587982614291832 ], [ -1871046.957774004433304, 1338289.587982614291832 ], [ -1871009.768171674804762, 1338317.480184361571446 ], [ -1871009.768171674804762, 1338354.669786691199988 ], [ -1870972.57856934517622, 1338373.264587855897844 ], [ -1870972.57856934517622, 1338410.454190185526386 ], [ -1870953.983768180478364, 1338419.751590767875314 ], [ -1870944.686367598129436, 1338587.104801250854507 ], [ -1870861.009762356523424, 1338596.402201833436266 ], [ -1870842.414961191825569, 1338670.781406492460519 ], [ -1870814.522759444545954, 1338680.078807074809447 ], [ -1870814.522759444545954, 1338698.673608239740133 ], [ -1870786.630557697499171, 1338717.268409404437989 ], [ -1870795.927958279848099, 1338773.052812898764387 ], [ -1870814.522759444545954, 1338782.350213481113315 ], [ -1870814.522759444545954, 1338810.242415228392929 ], [ -1870786.630557697499171, 1338838.134616975672543 ], [ -1870786.630557697499171, 1338884.621619887650013 ], [ -1870768.035756532568485, 1338893.919020469998941 ], [ -1870795.927958279848099, 1338977.595625711372122 ], [ -1870777.333157114917412, 1338986.893026293953881 ], [ -1870740.143554785521701, 1339061.272230952978134 ], [ -1870749.440955367870629, 1339163.543637359282002 ], [ -1870712.251353038242087, 1339182.138438524212688 ], [ -1870712.251353038242087, 1339200.733239688910544 ], [ -1870665.764350126264617, 1339237.922842018539086 ], [ -1870665.764350126264617, 1339265.81504376558587 ], [ -1870647.169548961566761, 1339275.112444348167628 ], [ -1870647.169548961566761, 1339321.599447260145098 ], [ -1870665.764350126264617, 1339340.194248424842954 ], [ -1870665.764350126264617, 1339386.681251336820424 ], [ -1870684.359151291195303, 1339395.978651919169351 ], [ -1870684.359151291195303, 1339414.573453084100038 ], [ -1870628.574747796636075, 1339461.060455995844677 ], [ -1870619.277347214287147, 1339498.250058325473219 ], [ -1870582.087744884658605, 1339526.142260072752833 ], [ -1870582.087744884658605, 1339554.034461819799617 ], [ -1870535.600741972681135, 1339609.818865314358845 ], [ -1870544.898142555262893, 1339684.198069973383099 ], [ -1870489.113739060703665, 1339767.874675214989111 ], [ -1870489.113739060703665, 1340074.688894433900714 ], [ -1870526.303341390332207, 1340093.2836955988314 ], [ -1870507.708540225634351, 1340214.149903169833124 ], [ -1870526.303341390332207, 1340214.149903169833124 ], [ -1870526.303341390332207, 1340251.339505499461666 ], [ -1870544.898142555262893, 1340279.231707246508449 ], [ -1870544.898142555262893, 1340595.343327048001811 ], [ -1870489.113739060703665, 1340641.830329959979281 ], [ -1870479.816338478354737, 1340706.912134036654606 ], [ -1870461.221537313656881, 1340725.506935201585293 ], [ -1870461.221537313656881, 1340902.157546266913414 ], [ -1870424.031934984028339, 1340930.049748014193028 ], [ -1870414.734534401679412, 1340967.23935034382157 ], [ -1870424.031934984028339, 1341394.919777133967727 ], [ -1870405.437133819330484, 1341413.514578298665583 ], [ -1870368.247531489701942, 1341645.949592858552933 ], [ -1870349.652730325004086, 1341683.139195187948644 ], [ -1870321.760528577724472, 1341692.436595770530403 ], [ -1870312.463127995375544, 1341738.923598682507873 ], [ -1870321.760528577724472, 1341915.574209747835994 ], [ -1870303.165727413026616, 1342138.711823725374416 ], [ -1870321.760528577724472, 1342175.901426055002958 ], [ -1870340.355329742422327, 1342175.901426055002958 ], [ -1870349.652730325004086, 1342240.983230131678283 ], [ -1870396.139733236981556, 1342287.470233043655753 ], [ -1870433.329335566377267, 1342389.741639449959621 ], [ -1870498.411139643285424, 1342464.120844109216705 ], [ -1870498.411139643285424, 1342492.013045856263489 ], [ -1870517.005940807983279, 1342501.310446438612416 ], [ -1870517.005940807983279, 1342557.094849933171645 ], [ -1870544.898142555262893, 1342557.094849933171645 ], [ -1870544.898142555262893, 1342575.689651097869501 ], [ -1870582.087744884658605, 1342594.284452262567356 ], [ -1870582.087744884658605, 1342612.879253427498043 ], [ -1870675.061750708613545, 1342705.853259251452982 ], [ -1870675.061750708613545, 1342733.745460998499766 ], [ -1870712.251353038242087, 1342752.340262163430452 ], [ -1870758.738355950219557, 1342808.12466565775685 ], [ -1870805.225358862197027, 1342817.422066240105778 ], [ -1870823.820160026894882, 1342873.206469734432176 ], [ -1870851.712361774174497, 1342891.801270899130031 ], [ -1870879.604563521454111, 1343012.667478470364586 ], [ -1870907.496765268500894, 1343031.262279635062441 ], [ -1870926.091566433431581, 1343207.912890700623393 ], [ -1870963.281168762827292, 1343254.399893612600863 ], [ -1870991.173370510106906, 1343254.399893612600863 ], [ -1871037.660373422084376, 1343300.886896524578333 ], [ -1871056.255174586782232, 1343468.240107007557526 ], [ -1871112.03957808110863, 1343542.61931166681461 ], [ -1871112.03957808110863, 1343682.08032040274702 ], [ -1871158.5265809930861, 1343709.972522149793804 ], [ -1871158.5265809930861, 1343765.756925644353032 ], [ -1871177.121382158016786, 1343775.05432622670196 ], [ -1871177.121382158016786, 1343821.54132913867943 ], [ -1871195.716183322714642, 1343849.433530885726213 ], [ -1871205.01358390506357, 1343988.894539621658623 ], [ -1871223.608385069994256, 1343998.191940204007551 ], [ -1871242.203186234692112, 1344063.273744280915707 ], [ -1871260.797987399389967, 1344063.273744280915707 ], [ -1871297.987589729018509, 1344109.760747192893177 ], [ -1871325.879791476298124, 1344109.760747192893177 ], [ -1871353.771993223344907, 1344146.950349522288889 ], [ -1871372.366794388275594, 1344146.950349522288889 ], [ -1871372.366794388275594, 1344184.139951851917431 ], [ -1871418.853797300253063, 1344221.329554181545973 ], [ -1871418.853797300253063, 1344249.221755928825587 ], [ -1871437.448598464950919, 1344258.519156511174515 ], [ -1871428.151197882601991, 1344323.600960587849841 ], [ -1871465.340800212230533, 1344351.493162335129455 ], [ -1871483.935601376928389, 1344416.57496641180478 ], [ -1871493.233001959277317, 1344630.415179806761444 ], [ -1871530.422604288905859, 1344686.199583301320672 ], [ -1871530.422604288905859, 1344769.876188542693853 ], [ -1871549.017405453603715, 1344788.47098970762454 ], [ -1871549.017405453603715, 1344825.660592037253082 ], [ -1871567.612206618534401, 1344825.660592037253082 ], [ -1871586.207007783232257, 1344862.850194366648793 ], [ -1871586.207007783232257, 1344900.039796696277335 ], [ -1871614.099209530511871, 1344909.337197278626263 ], [ -1871614.099209530511871, 1344937.229399025905877 ], [ -1871641.991411277558655, 1344946.526799608254805 ], [ -1871641.991411277558655, 1344983.716401937883347 ], [ -1871669.883613024838269, 1344993.013802520232275 ], [ -1871669.883613024838269, 1345011.608603684930131 ], [ -1871697.775814771885052, 1345020.906004267511889 ], [ -1871697.775814771885052, 1345039.500805432209745 ], [ -1871753.560218266444281, 1345095.285208926536143 ], [ -1871827.939422925468534, 1345104.582609508885071 ], [ -1871855.831624672748148, 1345151.069612420862541 ] ] ] } }
]
}
