{
"type": "FeatureCollection",
"name": "henderson_watershed_boundary",
"crs": { "type": "name", "properties": { "name": "urn:ogc:def:crs:OGC:1.3:CRS84" } },
"features": [
{ "type": "Feature", "properties": { "name": "Henderson Canyon D8 watershed (wide DEM)", "area_km2": 107.05, "cells": 1238439, "note": "WBT watershed() with D8 pointer on 10m wide breached-filled DEM. 107 km2. Verified 2026-05-06: 1000/1000 traces reach community bbox, 93.5% within BPC HUC12." }, "geometry": { "type": "Polygon", "coordinates": [ [ [ -116.404341562842589, 33.359491583932105 ], [ -116.405499263975429, 33.359197340785506 ], [ -116.40570832918813, 33.358818707608251 ], [ -116.407412709296523, 33.358255289497222 ], [ -116.408027329836344, 33.357462527502094 ], [ -116.409851353245486, 33.356962680351742 ], [ -116.409983568105602, 33.35668313499864 ], [ -116.411162640700908, 33.356470185196514 ], [ -116.411119772973677, 33.356307482315891 ], [ -116.411525313512854, 33.355893344202883 ], [ -116.411636086464796, 33.355532445051544 ], [ -116.412674013024528, 33.355174523083797 ], [ -116.412883033022894, 33.354795874654243 ], [ -116.413429680521105, 33.354526683661057 ], [ -116.414924905412406, 33.354341800411937 ], [ -116.414958845923124, 33.354079997840643 ], [ -116.415330415793164, 33.353927647686568 ], [ -116.415287540833191, 33.353764945768916 ], [ -116.415539419696358, 33.353548993741917 ], [ -116.414999923883997, 33.352282876405731 ], [ -116.41555011007101, 33.35124601339848 ], [ -116.415421488743647, 33.350757905850131 ], [ -116.415750167924713, 33.350442850950529 ], [ -116.415480426800713, 33.34980979055841 ], [ -116.415855535799807, 33.348889774212935 ], [ -116.416184205440331, 33.348574717224786 ], [ -116.41702553122937, 33.348252253827205 ], [ -116.417234511902322, 33.347873593709153 ], [ -116.417430999174485, 33.347838090057962 ], [ -116.417388123189284, 33.347675387501901 ], [ -116.417956144274868, 33.347487523513735 ], [ -116.418558088147449, 33.347037850379827 ], [ -116.418972496539837, 33.347048189197579 ], [ -116.419301146009673, 33.34673312244945 ], [ -116.420830126637426, 33.346286353404395 ], [ -116.421060525045874, 33.345989036098189 ], [ -116.421846447343853, 33.345846992878187 ], [ -116.422393002015511, 33.345577755735547 ], [ -116.422657303435884, 33.345018626733712 ], [ -116.422378552452443, 33.343961067559064 ], [ -116.422575027634991, 33.343925554901269 ], [ -116.422608938203297, 33.343663746150284 ], [ -116.423078680997818, 33.34349361213696 ], [ -116.423398320931994, 33.342754021280228 ], [ -116.424107414656973, 33.342711069795712 ], [ -116.424705813209243, 33.343029032466113 ], [ -116.425688170462976, 33.34285144563551 ], [ -116.426025767871508, 33.342960868423035 ], [ -116.426132996389782, 33.3433676193997 ], [ -116.426329468396361, 33.343332100283853 ], [ -116.426461601821188, 33.343052530479795 ], [ -116.426658072892849, 33.343017010785232 ], [ -116.426768758321316, 33.342656090356883 ], [ -116.427567083431811, 33.342170846584779 ], [ -116.428481643118445, 33.34251685720325 ], [ -116.429267517344613, 33.342374762453041 ], [ -116.429224619865195, 33.342212063042254 ], [ -116.429399638724888, 33.342095188881252 ], [ -116.430087273693289, 33.341970850694622 ], [ -116.430317624494137, 33.341673512960071 ], [ -116.430308609139374, 33.341249001842925 ], [ -116.430603306322041, 33.341195712156797 ], [ -116.43075687090375, 33.340997486154279 ], [ -116.431880322835198, 33.340964781391094 ], [ -116.431969530333689, 33.340522505463881 ], [ -116.431635341084913, 33.339645425526129 ], [ -116.43215134321953, 33.33887027743323 ], [ -116.432320723634561, 33.33756120892803 ], [ -116.432649280049972, 33.33724609965769 ], [ -116.432849127819708, 33.336442891245738 ], [ -116.433024128467977, 33.336326010586461 ], [ -116.432784775410937, 33.33619884203403 ], [ -116.432720423401221, 33.335954792700385 ], [ -116.433125745398002, 33.33554056615916 ], [ -116.433595416974356, 33.33537038710918 ], [ -116.433902507560973, 33.334973923509637 ], [ -116.434470397553682, 33.334785974353942 ], [ -116.434611525455722, 33.334930906638263 ], [ -116.435222319162904, 33.334905652895742 ], [ -116.43536344866412, 33.335050584230203 ], [ -116.436858251990927, 33.334865410067671 ], [ -116.436999384432369, 33.335010339398437 ], [ -116.437631633404777, 33.335066421939047 ], [ -116.437892446590538, 33.335274929506312 ], [ -116.438285339406477, 33.335203849843914 ], [ -116.438785514753064, 33.33553951256259 ], [ -116.439669523747924, 33.335379574600928 ], [ -116.440617904846874, 33.335463674990287 ], [ -116.442680576235915, 33.335090442782025 ], [ -116.443619870661678, 33.334750004281055 ], [ -116.44401275568417, 33.334678904954238 ], [ -116.444153900964878, 33.33482382552377 ], [ -116.445998634031625, 33.334404735536125 ], [ -116.446041561929718, 33.334567430502645 ], [ -116.44633622343882, 33.334514099901497 ], [ -116.446597057852955, 33.334722587848496 ], [ -116.446913184488551, 33.334750603124689 ], [ -116.447634550926125, 33.334364339040803 ], [ -116.44888993979032, 33.334051869489919 ], [ -116.449031092926461, 33.334196784190894 ], [ -116.450449097382474, 33.334110559008884 ], [ -116.450906379675004, 33.334283476073232 ], [ -116.451811819760934, 33.334204790883518 ], [ -116.452149416387286, 33.334314138177234 ], [ -116.452345854046101, 33.334278574058168 ], [ -116.45237966142777, 33.334016752887479 ], [ -116.452631375301237, 33.33380071334178 ], [ -116.454356349766286, 33.333317924342282 ], [ -116.454783016883169, 33.332984965839806 ], [ -116.45517588300865, 33.332913828110271 ], [ -116.455513478771167, 33.333023165709626 ], [ -116.45580812807971, 33.332969810666441 ], [ -116.456038355363972, 33.332672417459406 ], [ -116.4577080200403, 33.332370054365541 ], [ -116.458634907700969, 33.332372660665108 ], [ -116.458843646013293, 33.331993916161345 ], [ -116.45973987885229, 33.331490653330022 ], [ -116.46013273303879, 33.331419498475633 ], [ -116.460537887403476, 33.331005172415658 ], [ -116.460010125271083, 33.329396055082711 ], [ -116.460120638609425, 33.329035095427813 ], [ -116.459948823751077, 33.328384331123523 ], [ -116.459645022360121, 33.328013180266773 ], [ -116.459841440907226, 33.327977602992618 ], [ -116.459930476576332, 33.327535297073332 ], [ -116.460105417201774, 33.327418373616453 ], [ -116.460099370616575, 33.326226166237404 ], [ -116.460657957690771, 33.325613566791809 ], [ -116.461443605032301, 33.325471248237861 ], [ -116.461903971416618, 33.324876432189463 ], [ -116.462100381115889, 33.324840850887078 ], [ -116.462134151999805, 33.324579023281053 ], [ -116.462569926189985, 33.324670550621626 ], [ -116.463705417853461, 33.324294360122003 ], [ -116.464730414154005, 33.3242791250454 ], [ -116.465549800034779, 33.323874949452957 ], [ -116.465964092608061, 33.323885118925453 ], [ -116.466019331884709, 33.323704634832964 ], [ -116.467731734729554, 33.323564812020379 ], [ -116.467872903744549, 33.323709705731225 ], [ -116.468167509812773, 33.323656318233482 ], [ -116.468330163884232, 33.323882555947122 ], [ -116.46862477028921, 33.323829167288508 ], [ -116.468885628323648, 33.324037607775466 ], [ -116.469299922183623, 33.324047765199602 ], [ -116.469407348536834, 33.324454486781931 ], [ -116.469787899392955, 33.32472647222724 ], [ -116.469984305153787, 33.324690877420466 ], [ -116.470232912028465, 33.325242488470906 ], [ -116.47037408865593, 33.325387378753199 ], [ -116.470570495800686, 33.325351782976952 ], [ -116.471037004552841, 33.325949139528127 ], [ -116.471472796677546, 33.326040632871745 ], [ -116.471755157879457, 33.326330409847358 ], [ -116.47216946417673, 33.326340556875714 ], [ -116.472571522934985, 33.326693875852847 ], [ -116.472767932345874, 33.326658276381892 ], [ -116.472801668526955, 33.32639644632399 ], [ -116.473074791620419, 33.326261703000121 ], [ -116.47316375099058, 33.325819385721047 ], [ -116.47353507473494, 33.325666840963208 ], [ -116.473657763565626, 33.324962692096392 ], [ -116.473854168165801, 33.324927090677015 ], [ -116.474139524927125, 33.324449170009402 ], [ -116.474652023122104, 33.324441507007812 ], [ -116.475492851303059, 33.324118603841391 ], [ -116.47628771817898, 33.324400701417915 ], [ -116.476330703221294, 33.324563387391009 ], [ -116.476876923671441, 33.324293882552311 ], [ -116.476922873487609, 33.323688875167342 ], [ -116.477251193424792, 33.323373631921029 ], [ -116.477241927064753, 33.322949113347754 ], [ -116.477438325020046, 33.322913505689186 ], [ -116.477395338589574, 33.322750819743668 ], [ -116.477646947777288, 33.322534721817846 ], [ -116.477659172650348, 33.322191545771823 ], [ -116.478150162008518, 33.322102524108544 ], [ -116.478260581928296, 33.32174154318929 ], [ -116.478456976410143, 33.321705933724843 ], [ -116.478413988533944, 33.321543247877472 ], [ -116.479285542160184, 33.321726178018842 ], [ -116.479969986520615, 33.322369232824244 ], [ -116.481126858638177, 33.322074211242963 ], [ -116.481562641036064, 33.322165666772428 ], [ -116.482326718086597, 33.321941862212171 ], [ -116.482655009097243, 33.321626602706928 ], [ -116.482612012588874, 33.321463918414032 ], [ -116.483256385500567, 33.321176573568856 ], [ -116.483213387995193, 33.321013889395644 ], [ -116.483409778421063, 33.320978271415207 ], [ -116.483541671585172, 33.320698626930792 ], [ -116.484327228482286, 33.320556150668025 ], [ -116.484339423926954, 33.320212972930612 ], [ -116.484612505817253, 33.32007820093888 ], [ -116.484744393201041, 33.319798554708235 ], [ -116.484649087879404, 33.319048666410978 ], [ -116.485238241967494, 33.31894180377909 ], [ -116.485293433586534, 33.318761309121889 ], [ -116.48611265644621, 33.318356983457349 ], [ -116.486223034601721, 33.317995992923031 ], [ -116.486106216709587, 33.317164761898063 ], [ -116.486336283307935, 33.316867301130195 ], [ -116.486925418781553, 33.316760429496796 ], [ -116.487287353397633, 33.316183316297646 ], [ -116.487333218477772, 33.315578297660068 ], [ -116.487802653709721, 33.315407891852402 ], [ -116.487934521938215, 33.315128240067473 ], [ -116.490171303520455, 33.314637174921444 ], [ -116.490726745730058, 33.314792123069097 ], [ -116.493420760909686, 33.314473755795667 ], [ -116.493748976352975, 33.314158461144586 ], [ -116.494065037155849, 33.314186347340048 ], [ -116.494982350934606, 33.313764137241385 ], [ -116.495025368799205, 33.313926818706442 ], [ -116.495853856928036, 33.313946943565568 ], [ -116.496114754299214, 33.314155325107329 ], [ -116.496900223147648, 33.314012761404548 ], [ -116.49693387365231, 33.313750919477513 ], [ -116.497326605673152, 33.313679635456026 ], [ -116.497391139733367, 33.313923656344265 ], [ -116.49768568915141, 33.313870192294161 ], [ -116.498621740775718, 33.314296998116106 ], [ -116.499210840333831, 33.314190062993362 ], [ -116.499539031406115, 33.313874751646964 ], [ -116.50071722011127, 33.313660868807759 ], [ -116.500370254720622, 33.313127138451293 ], [ -116.500403893306284, 33.312865295171214 ], [ -116.500676922207873, 33.312730483510322 ], [ -116.500919042713761, 33.312089808094015 ], [ -116.501290247912365, 33.311937170486225 ], [ -116.50162114357083, 33.310854144153282 ], [ -116.501851133109568, 33.3105566495597 ], [ -116.502222329272911, 33.310404008597189 ], [ -116.503618329866043, 33.310235783578094 ], [ -116.503661363646458, 33.310398462633998 ], [ -116.504468299077772, 33.310337185859915 ], [ -116.504511334669772, 33.31049986457306 ], [ -116.504947080154679, 33.310591232802075 ], [ -116.505011635301543, 33.310835250492261 ], [ -116.506493717316687, 33.310992347392911 ], [ -116.506558277585896, 33.311236364071029 ], [ -116.50770279432534, 33.311284254449717 ], [ -116.507745837118094, 33.31144693172638 ], [ -116.508629435274969, 33.311286456956445 ], [ -116.508911880299195, 33.311576148638913 ], [ -116.509206413109524, 33.311522654825318 ], [ -116.50924945913934, 33.311685331481648 ], [ -116.509445814510102, 33.311649668451508 ], [ -116.509651609429852, 33.312038527967538 ], [ -116.510044321390822, 33.311967200228914 ], [ -116.510424952239418, 33.312239055762099 ], [ -116.511231901268758, 33.312177731570671 ], [ -116.511274951841784, 33.312340407312739 ], [ -116.511907071478475, 33.312396082399928 ], [ -116.513695796287976, 33.312156399780491 ], [ -116.513652740813697, 33.311993724903743 ], [ -116.514091105901372, 33.311317350423245 ], [ -116.514603514682562, 33.311309508808087 ], [ -116.51485498516189, 33.311093325722311 ], [ -116.514704285432344, 33.310523964062973 ], [ -116.514869639170755, 33.309982430778589 ], [ -116.515262336148623, 33.309911084963666 ], [ -116.515645560582499, 33.309415214057452 ], [ -116.516234600484225, 33.309308190755679 ], [ -116.516277659824297, 33.309470865295218 ], [ -116.516888229599161, 33.309445175907484 ], [ -116.517704627837787, 33.309808329590084 ], [ -116.519579408813485, 33.309893902124664 ], [ -116.519960062559875, 33.310165726831833 ], [ -116.520024663886005, 33.310409736220066 ], [ -116.520417358323229, 33.310338372800906 ], [ -116.520460426868723, 33.310501045527658 ], [ -116.522347255566032, 33.31024338623898 ], [ -116.522402356012364, 33.31006287147251 ], [ -116.522893219091131, 33.309973656767653 ], [ -116.522957829349849, 33.310217664571596 ], [ -116.523154174849097, 33.31018197800028 ], [ -116.523295421839492, 33.310326806291052 ], [ -116.52412387927518, 33.310346727076663 ], [ -116.524363301161941, 33.310473709783651 ], [ -116.524854164579949, 33.310384486740247 ], [ -116.525115126887925, 33.310592803387813 ], [ -116.525409645006505, 33.31053926789405 ], [ -116.525866954888258, 33.310711892043699 ], [ -116.525833401905899, 33.310973743596954 ], [ -116.526149461269966, 33.311001541517982 ], [ -116.526594765649961, 33.311517349282454 ], [ -116.52693236875372, 33.311626480092755 ], [ -116.52747585596731, 33.312124437375111 ], [ -116.527672204173626, 33.312088743168566 ], [ -116.527736830978981, 33.312332747533844 ], [ -116.527976264732061, 33.312459722334779 ], [ -116.528433591395867, 33.312632335772342 ], [ -116.529099268462019, 33.312426064430682 ], [ -116.529479967316405, 33.312697856548951 ], [ -116.530013928327932, 33.31277128050165 ], [ -116.530176737597202, 33.312997434041108 ], [ -116.53100522487334, 33.313017305049691 ], [ -116.531395490337331, 33.313713610665403 ], [ -116.532475415291628, 33.313517251897821 ], [ -116.532628669298333, 33.313318881766193 ], [ -116.532769939344263, 33.313463697732502 ], [ -116.533380534693109, 33.31343792070566 ], [ -116.534024656531969, 33.313150287412661 ], [ -116.534656798739888, 33.313205837067706 ], [ -116.535320070592206, 33.313767236163301 ], [ -116.53613659865097, 33.314130256382605 ], [ -116.536431122506144, 33.314076692864553 ], [ -116.536811854651845, 33.314348460000346 ], [ -116.538143190408292, 33.313935817177168 ], [ -116.538502373812818, 33.314126246157862 ], [ -116.538971689566552, 33.313955630621471 ], [ -116.539603841730198, 33.314011152949796 ], [ -116.540585577006482, 33.313832575228368 ], [ -116.540650245264175, 33.314076571700788 ], [ -116.541129165797543, 33.314330466228242 ], [ -116.541193836148878, 33.31457446221853 ], [ -116.540908922303288, 33.31505255636516 ], [ -116.540707890142954, 33.31662368057026 ], [ -116.540478029730025, 33.316921250437886 ], [ -116.540683991696525, 33.31731005129604 ], [ -116.540530750218082, 33.317508431044509 ], [ -116.540985795082449, 33.318448694471101 ], [ -116.541464743295435, 33.318702585993428 ], [ -116.541689941570198, 33.319940415091217 ], [ -116.542932786590811, 33.319970094331055 ], [ -116.543074087526165, 33.320114896214946 ], [ -116.543270448586682, 33.320079175721695 ], [ -116.543433311050165, 33.320305308055651 ], [ -116.543629672422639, 33.32026958695738 ], [ -116.543663170173176, 33.320007733721326 ], [ -116.544012768584665, 33.319773628725194 ], [ -116.543969646300695, 33.319610967026769 ], [ -116.544515600693515, 33.319341138299983 ], [ -116.544429354699659, 33.319015815023548 ], [ -116.544702329512404, 33.318880899788176 ], [ -116.54473582310419, 33.318619045713731 ], [ -116.545205152131047, 33.318448405782924 ], [ -116.545346454514799, 33.318593205186161 ], [ -116.545760729453917, 33.318603086577141 ], [ -116.545803854886529, 33.318765747839059 ], [ -116.546632406799503, 33.318785505816351 ], [ -116.547199910475655, 33.318596994477467 ], [ -116.547331573028529, 33.318317275756606 ], [ -116.547844024027711, 33.318309285734166 ], [ -116.547975683810876, 33.318029566157804 ], [ -116.548706051799755, 33.318067173547362 ], [ -116.548859273764535, 33.317868783039039 ], [ -116.549251979252119, 33.317797321678633 ], [ -116.549307023293096, 33.317616795966899 ], [ -116.549623117605151, 33.317644528942203 ], [ -116.549678160688245, 33.31746400301251 ], [ -116.550899401943994, 33.317412266005412 ], [ -116.55146688550316, 33.317223733184349 ], [ -116.552784072972813, 33.317921810730553 ], [ -116.55354790614723, 33.317697530517997 ], [ -116.553799290069861, 33.317481264070437 ], [ -116.554158527514971, 33.31767164305078 ], [ -116.554649402020218, 33.317582293438058 ], [ -116.554812292002012, 33.317808410432093 ], [ -116.555204991783967, 33.317736928687033 ], [ -116.55526970855783, 33.317980915538122 ], [ -116.55576058373029, 33.317891561210615 ], [ -116.556656035998188, 33.317387531372745 ], [ -116.55662476872412, 33.316881686893737 ], [ -116.556897715235479, 33.316746742224588 ], [ -116.557182538112713, 33.316268609544096 ], [ -116.558611971274814, 33.315837857928564 ], [ -116.558743588665962, 33.315558124996905 ], [ -116.560271170839016, 33.315109478521002 ], [ -116.560491236902834, 33.314387351283926 ], [ -116.56025389552525, 33.313492738386628 ], [ -116.559731767153735, 33.313076266094861 ], [ -116.559755498259278, 33.312389887214138 ], [ -116.559199937291055, 33.312235272809048 ], [ -116.559135213060458, 33.311991286149038 ], [ -116.558775989499935, 33.311800921190354 ], [ -116.558407065065893, 33.311186035976334 ], [ -116.558409233631991, 33.310418326271446 ], [ -116.557908708270602, 33.310083173100644 ], [ -116.557877435849221, 33.3095773236209 ], [ -116.557539798658311, 33.309468283569473 ], [ -116.557376918097802, 33.309242167721813 ], [ -116.556900159347833, 33.308220627046879 ], [ -116.556083596860887, 33.307857751531287 ], [ -116.556040456166116, 33.307695091569258 ], [ -116.555463365954978, 33.30745912799717 ], [ -116.555180764460587, 33.307169549248428 ], [ -116.554921936418324, 33.30619358564882 ], [ -116.554704046752661, 33.306147996381178 ], [ -116.554660909844515, 33.305985335497724 ], [ -116.554835661830083, 33.305868264012716 ], [ -116.55456495540011, 33.305235490509027 ], [ -116.554718137633017, 33.305037088493634 ], [ -116.5538897283637, 33.305017388523815 ], [ -116.553726867492117, 33.304791266036453 ], [ -116.553355797686208, 33.30494407489028 ], [ -116.552975053918303, 33.304672358971281 ], [ -116.552910355193077, 33.304428366129009 ], [ -116.552615878641291, 33.30448197270524 ], [ -116.552474588212817, 33.304337179301193 ], [ -116.552278270585717, 33.304372916362006 ], [ -116.552235139661121, 33.304210254148245 ], [ -116.551842504644313, 33.304281727125428 ], [ -116.551701215997284, 33.30413693272672 ], [ -116.551112263026241, 33.304244138955433 ], [ -116.550554531552237, 33.304857197452847 ], [ -116.550511403923224, 33.304694534704915 ], [ -116.549879318868832, 33.304639071738848 ], [ -116.549520151228975, 33.304448675769315 ], [ -116.549673344642244, 33.304250280265705 ], [ -116.549481536800144, 33.302750577282808 ], [ -116.548904502482472, 33.302514579022251 ], [ -116.54855725962868, 33.30198098587843 ], [ -116.548612294206222, 33.301800456369094 ], [ -116.548415981150811, 33.301836186950297 ], [ -116.548037538876287, 33.300796733212266 ], [ -116.547580237986296, 33.300624194980109 ], [ -116.547297690011746, 33.30033459394312 ], [ -116.547125217382899, 33.299683933463292 ], [ -116.547299966587289, 33.29956687239131 ], [ -116.546833035746047, 33.298969803347909 ], [ -116.546672490292522, 33.29797594555027 ], [ -116.546083576554139, 33.298083126913646 ], [ -116.545942309617828, 33.297938324120508 ], [ -116.54566940952644, 33.298073246395347 ], [ -116.545626295703656, 33.297910580211891 ], [ -116.545429990990627, 33.297946305883556 ], [ -116.544342992092737, 33.296950538091401 ], [ -116.544278326457146, 33.296706537650671 ], [ -116.543679797558582, 33.296389177501268 ], [ -116.543483495755055, 33.296424899919913 ], [ -116.543418833214133, 33.296180898808558 ], [ -116.543200977913116, 33.296135287027568 ], [ -116.542808374959293, 33.296206729914083 ], [ -116.542578582078775, 33.296504312785594 ], [ -116.542207529691126, 33.296657087405777 ], [ -116.541824534617646, 33.297153056200713 ], [ -116.541125523552736, 33.297621267037869 ], [ -116.541092026886645, 33.297883128015222 ], [ -116.540656309814224, 33.297791895421398 ], [ -116.538987697429548, 33.29809548060279 ], [ -116.538453827564823, 33.298022096863328 ], [ -116.537486617109806, 33.297089741884591 ], [ -116.5369096602235, 33.296853681341616 ], [ -116.53669418670043, 33.296040331978702 ], [ -116.536301578318003, 33.296111752599671 ], [ -116.53613878636942, 33.295885602223798 ], [ -116.535681540071437, 33.295713015320743 ], [ -116.535288932402452, 33.295784432508825 ], [ -116.535006446995382, 33.295494799161496 ], [ -116.534003383426807, 33.295591998320369 ], [ -116.533481512588168, 33.295175395760914 ], [ -116.532849515942374, 33.29511983817882 ], [ -116.532425805644493, 33.294685378419423 ], [ -116.531990116306076, 33.294594112477689 ], [ -116.531686105818707, 33.294223134351874 ], [ -116.530989495904976, 33.293923557882351 ], [ -116.53094641467635, 33.293760885203277 ], [ -116.53046765206625, 33.293506940599798 ], [ -116.530556252060393, 33.293064557936724 ], [ -116.529871649414076, 33.292421777755379 ], [ -116.529570106464291, 33.291283062434346 ], [ -116.529864549341795, 33.291229514003895 ], [ -116.530204512973242, 33.290570907181255 ], [ -116.530946605522857, 33.29026543168181 ], [ -116.531231490173184, 33.28978734511476 ], [ -116.531427780988309, 33.289751643324188 ], [ -116.53138470113646, 33.289588969824777 ], [ -116.531973571356332, 33.289481862621912 ], [ -116.532497817057305, 33.289130742614709 ], [ -116.532478696900398, 33.28828167218245 ], [ -116.531944899625245, 33.288208257098063 ], [ -116.531423088601102, 33.287791640706807 ], [ -116.530987438560103, 33.287700370042458 ], [ -116.530901283097378, 33.287375021689037 ], [ -116.531032951341302, 33.287095309028125 ], [ -116.53020473673844, 33.28707543747425 ], [ -116.529824159233911, 33.28680363766842 ], [ -116.528940878955837, 33.286964281400643 ], [ -116.528342485902002, 33.286646836721516 ], [ -116.527949916772783, 33.286718229724102 ], [ -116.527961916895066, 33.286375030565786 ], [ -116.528344946849089, 33.285879100313409 ], [ -116.528129591796201, 33.285065721904964 ], [ -116.527911776096673, 33.285020080344133 ], [ -116.528000380899471, 33.284577694204323 ], [ -116.527662892257183, 33.284468562258077 ], [ -116.527598288544326, 33.284224547994533 ], [ -116.527021455538005, 33.283988433296948 ], [ -116.526870719719696, 33.283419065250207 ], [ -116.527079000101992, 33.283040169865068 ], [ -116.526916261651095, 33.282814002106477 ], [ -116.527213146530769, 33.281992719111813 ], [ -116.526942744082476, 33.281359858519238 ], [ -116.526681873794132, 33.281151537197779 ], [ -116.526315824018326, 33.279768778278893 ], [ -116.526253709440553, 33.278757017277826 ], [ -116.526548107749477, 33.278703476388252 ], [ -116.526787437362017, 33.278830459864068 ], [ -116.527038770708344, 33.278614239883275 ], [ -116.527900427994155, 33.278372270116726 ], [ -116.527943494515682, 33.278534947576794 ], [ -116.528477222507846, 33.278608382320655 ], [ -116.528826682305962, 33.278374309559467 ], [ -116.529317340632929, 33.278285063260668 ], [ -116.529776918552542, 33.277689934329004 ], [ -116.529973179880926, 33.277654234400686 ], [ -116.52996363475043, 33.277229692023617 ], [ -116.530389678309717, 33.276896425419643 ], [ -116.530720026656311, 33.275813260131429 ], [ -116.531222651126711, 33.275380800411632 ], [ -116.531158043839923, 33.275136784928755 ], [ -116.531531445812149, 33.274216291787226 ], [ -116.531435750241911, 33.273466392883471 ], [ -116.531632000295986, 33.273430689896131 ], [ -116.531600911167104, 33.272924806360713 ], [ -116.531775624078335, 33.272807764394734 ], [ -116.531689481648044, 33.272482409586978 ], [ -116.531940781286053, 33.272266176862985 ], [ -116.531897709937027, 33.272103499420211 ], [ -116.532050884829587, 33.271905118138996 ], [ -116.532890916800127, 33.271581769738894 ], [ -116.533273843796138, 33.271085812350265 ], [ -116.533438987093888, 33.270544221302011 ], [ -116.534027712159855, 33.270437100583408 ], [ -116.534269431421393, 33.269796315477222 ], [ -116.535054388862434, 33.269653481335041 ], [ -116.535284131842801, 33.269355901926723 ], [ -116.535351139304311, 33.268832161540871 ], [ -116.535939848976028, 33.26872503073546 ], [ -116.536313164686433, 33.267804513424878 ], [ -116.536107353719927, 33.267415676786143 ], [ -116.536413663303932, 33.267018900003201 ], [ -116.537394820209556, 33.266840337406151 ], [ -116.537658041012492, 33.266280880191957 ], [ -116.537952384947701, 33.266227309046705 ], [ -116.537887764323415, 33.265983294103201 ], [ -116.538378335213011, 33.265894007417032 ], [ -116.539373773682286, 33.264604456459708 ], [ -116.539569998063683, 33.264568739423041 ], [ -116.539505373789737, 33.264324724801391 ], [ -116.539854737463699, 33.264090613558224 ], [ -116.539790112700047, 33.26384659892696 ], [ -116.539148769974517, 33.263366523397792 ], [ -116.539344991374747, 33.263330806681822 ], [ -116.539455048499221, 33.262969736145827 ], [ -116.540012569815588, 33.262356694305907 ], [ -116.540656249817459, 33.262069002432092 ], [ -116.540950575978798, 33.262015423259342 ], [ -116.541189878108938, 33.262142379756249 ], [ -116.541419576013169, 33.261844784793929 ], [ -116.541354948245186, 33.261600770245515 ], [ -116.541529621554517, 33.261483711483457 ], [ -116.541464993741883, 33.26123969686855 ], [ -116.541673145304387, 33.260860762738488 ], [ -116.541543890212367, 33.260372733103566 ], [ -116.542099050817072, 33.260527444674842 ], [ -116.54227372064139, 33.260410384595573 ], [ -116.542307197448466, 33.260148508999542 ], [ -116.541981728622247, 33.259696201329071 ], [ -116.541993663506702, 33.259352987202149 ], [ -116.542244892988634, 33.259136727753294 ], [ -116.542115637183485, 33.258648697535165 ], [ -116.542170656253418, 33.258468159740723 ], [ -116.54246496793408, 33.258414576397911 ], [ -116.542771210509741, 33.258017777418416 ], [ -116.542728124588663, 33.257855100666028 ], [ -116.543022433600285, 33.257801515843845 ], [ -116.542665816537223, 33.256843316261282 ], [ -116.542144156544637, 33.256426729631983 ], [ -116.542057989209596, 33.256101374845059 ], [ -116.541557878457226, 33.255766123862813 ], [ -116.542495799471041, 33.255424836888132 ], [ -116.543270984707064, 33.254857388312821 ], [ -116.543031701348241, 33.254730434810519 ], [ -116.542641625195998, 33.254034109100701 ], [ -116.542696639838752, 33.253853569837197 ], [ -116.542990933926035, 33.253799984782709 ], [ -116.543057876933688, 33.253276228006513 ], [ -116.54269895990177, 33.253085796449646 ], [ -116.542624725014605, 33.252417222823063 ], [ -116.541787266210591, 33.2519728769702 ], [ -116.541485705854114, 33.250834125907389 ], [ -116.541267977043162, 33.250788507442486 ], [ -116.541203358812339, 33.250544488868769 ], [ -116.540887536635481, 33.250516729987233 ], [ -116.540583654312357, 33.250145751638392 ], [ -116.540191278120844, 33.250217190348756 ], [ -116.539636193898403, 33.25006246720794 ], [ -116.538777240385258, 33.249536757874914 ], [ -116.537949418583594, 33.249516941172814 ], [ -116.537329738629424, 33.249118185749154 ], [ -116.537243599163574, 33.248792823868598 ], [ -116.53702587844856, 33.248747197208615 ], [ -116.537059367740497, 33.248485318684025 ], [ -116.536786623704756, 33.248620229534914 ], [ -116.535860718926415, 33.248618254313847 ], [ -116.53529608414641, 33.248038949827702 ], [ -116.534523308123568, 33.247838571010426 ], [ -116.534229030542619, 33.247892134789133 ], [ -116.53387015936957, 33.247701674086187 ], [ -116.533685943661098, 33.247394162988222 ], [ -116.533489759378512, 33.247429870848208 ], [ -116.533446698406522, 33.247267188090746 ], [ -116.533011270055709, 33.247175919724434 ], [ -116.532324625120523, 33.247300891754584 ], [ -116.531745621652931, 33.247832568043094 ], [ -116.531080497176902, 33.248038874122059 ], [ -116.530774234516457, 33.248435647648471 ], [ -116.530403385588329, 33.248588394766948 ], [ -116.52996550949554, 33.24926489328643 ], [ -116.528515601441399, 33.249613987552095 ], [ -116.528068171839848, 33.249865918366638 ], [ -116.528025120729282, 33.249703234151831 ], [ -116.527328918300967, 33.249403616019393 ], [ -116.527285868969116, 33.249240931417006 ], [ -116.526513101530341, 33.249040498939934 ], [ -116.525903002935962, 33.249066241823598 ], [ -116.524826438954889, 33.24849477895161 ], [ -116.524029662294183, 33.248980765094359 ], [ -116.523888523915957, 33.248835924785219 ], [ -116.52359423538384, 33.248889461177832 ], [ -116.523410056999026, 33.248581934098233 ], [ -116.521886077453075, 33.248262354673699 ], [ -116.520871573773832, 33.248702663187807 ], [ -116.519890605272664, 33.248881089085977 ], [ -116.519629861148857, 33.24867274185371 ], [ -116.518648890208809, 33.248851157131206 ], [ -116.518691921496966, 33.249013845069967 ], [ -116.518495726390384, 33.249049527177476 ], [ -116.518538757470651, 33.249212215126533 ], [ -116.518287494578871, 33.249428425744284 ], [ -116.518438103356658, 33.249997833284269 ], [ -116.518263421209866, 33.25011485881793 ], [ -116.518315931452193, 33.25070210663268 ], [ -116.517889978456537, 33.25103534109801 ], [ -116.516908974166, 33.251213740866568 ], [ -116.516657700420467, 33.251429947278567 ], [ -116.516298855611552, 33.251239432541475 ], [ -116.51580835095011, 33.251328626644955 ], [ -116.515363457325634, 33.250812731863768 ], [ -116.514688805209133, 33.250594381830453 ], [ -116.514437527347155, 33.25081058357059 ], [ -116.513315395499163, 33.250844100942338 ], [ -116.513085623532746, 33.251141644354185 ], [ -116.512518524098141, 33.251330005383835 ], [ -116.511681246656167, 33.250885438863122 ], [ -116.509719209259444, 33.251242123746323 ], [ -116.509458484217561, 33.251033754093157 ], [ -116.508946466890876, 33.251041573411058 ], [ -116.507931855139418, 33.251481765588728 ], [ -116.507778659230027, 33.251680120548286 ], [ -116.507288142183455, 33.251769278129387 ], [ -116.506493897038808, 33.251487365613549 ], [ -116.504486125260044, 33.252449042925342 ], [ -116.504345016595408, 33.252304179285687 ], [ -116.50414880680222, 33.252339836660717 ], [ -116.504084302250902, 33.252095797730568 ], [ -116.503311565853565, 33.25189520965327 ], [ -116.50276864679158, 33.25139709428214 ], [ -116.502376230118287, 33.251468403391584 ], [ -116.501928706434754, 33.251720231465193 ], [ -116.501741886942014, 33.252180445212808 ], [ -116.501272858547381, 33.252350923726588 ], [ -116.500889821198868, 33.252846787750322 ], [ -116.500399289096805, 33.252935915696007 ], [ -116.499841526292656, 33.253548773242599 ], [ -116.498587622310268, 33.253861836765964 ], [ -116.498302669495189, 33.254339867216167 ], [ -116.498029838861626, 33.254474684666931 ], [ -116.497996217314494, 33.254736549472248 ], [ -116.497799998591987, 33.254772195851679 ], [ -116.49786448587119, 33.255016237363883 ], [ -116.497438423074186, 33.255349393712017 ], [ -116.497490781599666, 33.255936646562596 ], [ -116.49712919847326, 33.256513842465843 ], [ -116.496519032443771, 33.256539428645453 ], [ -116.496191068106498, 33.256854757619386 ], [ -116.495777124108656, 33.256844696321487 ], [ -116.49515481660039, 33.257213485744423 ], [ -116.494523151528924, 33.257157713871763 ], [ -116.494382052749458, 33.257012838963036 ], [ -116.493302807409975, 33.257208855187301 ], [ -116.492361841553858, 33.258317505931871 ], [ -116.49199087168094, 33.258470126536395 ], [ -116.491935737639665, 33.258650640218526 ], [ -116.49154327503966, 33.258721911481253 ], [ -116.491475984981335, 33.259245633927065 ], [ -116.491092852461875, 33.259741460214194 ], [ -116.491178813313354, 33.260066851539754 ], [ -116.490633087073405, 33.260336449594647 ], [ -116.490577948615368, 33.260516962131881 ], [ -116.490032217201815, 33.260786557148968 ], [ -116.489998566380763, 33.261048417194303 ], [ -116.489627579072049, 33.261201029541802 ], [ -116.48932105652969, 33.261597684628001 ], [ -116.489385523132611, 33.261841728478252 ], [ -116.489189282820277, 33.261877359746613 ], [ -116.488729490592632, 33.262472339637249 ], [ -116.488683667151662, 33.263077405486349 ], [ -116.488214545636566, 33.263247827848396 ], [ -116.488159399599851, 33.263428338455554 ], [ -116.487766909784952, 33.263499596291297 ], [ -116.48762581207167, 33.263354714406674 ], [ -116.487080050900545, 33.263624294252395 ], [ -116.486426853799372, 33.263487130120026 ], [ -116.485641869740107, 33.263629632563685 ], [ -116.485163436317919, 33.263375487712082 ], [ -116.484694305413768, 33.263545895593289 ], [ -116.484651336391977, 33.263383198352628 ], [ -116.484237359570884, 33.263373095475487 ], [ -116.484194391586911, 33.263210398022451 ], [ -116.483976661785675, 33.263164671552929 ], [ -116.483780415732383, 33.263200293492574 ], [ -116.483823382855974, 33.263362991103165 ], [ -116.48284214799861, 33.263541096059576 ], [ -116.48270105926737, 33.263396208122039 ], [ -116.481741302973319, 33.263655652616578 ], [ -116.481600216061381, 33.263510763348279 ], [ -116.481425449251887, 33.26362773041788 ], [ -116.480989990809832, 33.263536266599075 ], [ -116.480269436496883, 33.263922780035792 ], [ -116.480235751888216, 33.264184636015628 ], [ -116.479864730902761, 33.264337216066899 ], [ -116.479831044771799, 33.264599071769574 ], [ -116.479217871519168, 33.26539232456269 ], [ -116.479325269094218, 33.265799071461458 ], [ -116.478822420950493, 33.266231309630108 ], [ -116.478755039916209, 33.266755018866682 ], [ -116.478558782558864, 33.266790631680415 ], [ -116.478503611919038, 33.266971136708953 ], [ -116.478111095722909, 33.267042361115152 ], [ -116.477979273112908, 33.267322021124485 ], [ -116.477194235566486, 33.267464464921943 ], [ -116.476942801023583, 33.267680579117396 ], [ -116.475351236085388, 33.267884097125886 ], [ -116.474652089817596, 33.268351922592522 ], [ -116.473278243762209, 33.268601155442688 ], [ -116.472382812907753, 33.269104569897756 ], [ -116.471303347214274, 33.269300375519514 ], [ -116.470953756815263, 33.269534275999177 ], [ -116.470637883350236, 33.269506324315913 ], [ -116.469720954479243, 33.269928366834826 ], [ -116.468914405991768, 33.269989402744891 ], [ -116.46792079573504, 33.27051057925739 ], [ -116.466623559244368, 33.270660583532617 ], [ -116.465258843143218, 33.271334270900006 ], [ -116.463756124614051, 33.271095280537608 ], [ -116.463385039169538, 33.271247805711312 ], [ -116.462928095405758, 33.271074922593847 ], [ -116.462044855288639, 33.271235054652195 ], [ -116.461498952006636, 33.2715045095999 ], [ -116.461357888270641, 33.271359597078316 ], [ -116.460726133739982, 33.271303640109238 ], [ -116.460563610072271, 33.271077374367387 ], [ -116.46017105720415, 33.271148536919178 ], [ -116.460128134683089, 33.270985832294272 ], [ -116.458754196761845, 33.271234890126813 ], [ -116.458711277120031, 33.271072184991915 ], [ -116.458024306252696, 33.271196707471773 ], [ -116.457785110735614, 33.271069579080738 ], [ -116.457490694297874, 33.271122943986278 ], [ -116.457349638618425, 33.270978026452305 ], [ -116.456171970662979, 33.271191477068271 ], [ -116.455353084662633, 33.271595616551949 ], [ -116.454819472507182, 33.271521840675945 ], [ -116.454656965354673, 33.271295566632816 ], [ -116.454166266131153, 33.271384494301344 ], [ -116.45385952543748, 33.271781048645593 ], [ -116.453172540720487, 33.271905541923587 ], [ -116.45312963224157, 33.271742834858216 ], [ -116.452292473152738, 33.271297847813869 ], [ -116.451893993621198, 33.270176677346591 ], [ -116.451513768072417, 33.269904611035393 ], [ -116.450903483585947, 33.269929953884954 ], [ -116.450599950243316, 33.269558747628253 ], [ -116.450023455591278, 33.269322240608034 ], [ -116.448759996215358, 33.269210197932189 ], [ -116.448063923098218, 33.268910106937277 ], [ -116.447475092797845, 33.269016786392591 ], [ -116.446561302998617, 33.268670890345263 ], [ -116.446190195689582, 33.268823360397036 ], [ -116.446049164915792, 33.26867842847431 ], [ -116.445558472279188, 33.268767319637767 ], [ -116.445199720534546, 33.268576587167679 ], [ -116.443825777454251, 33.268825466959711 ], [ -116.443782889957134, 33.268662755666817 ], [ -116.443586612051604, 33.268698308506224 ], [ -116.443326004213532, 33.268489793770904 ], [ -116.442617589068135, 33.268532868637358 ], [ -116.442356984342098, 33.268324351648907 ], [ -116.441452292021793, 33.26840296973797 ], [ -116.440884897230347, 33.268590971529321 ], [ -116.440752939892235, 33.268870588078698 ], [ -116.43908455602633, 33.269172732255434 ], [ -116.438823958535068, 33.268964207429953 ], [ -116.438038833895618, 33.269106382735714 ], [ -116.437876379925683, 33.268880084113086 ], [ -116.437287536058037, 33.268986711245056 ], [ -116.436732522010075, 33.268831494050602 ], [ -116.436689649159902, 33.268668780105919 ], [ -116.436297086740751, 33.268739861156533 ], [ -116.435818781532632, 33.268485512282467 ], [ -116.435524359880262, 33.268538820974776 ], [ -116.435319044566668, 33.268149804021547 ], [ -116.434840746098573, 33.267895450848059 ], [ -116.434690707355927, 33.267325948549704 ], [ -116.434246254727015, 33.266809751126395 ], [ -116.433439710740586, 33.266870537726987 ], [ -116.43286328728432, 33.266633943489069 ], [ -116.432568870551776, 33.266687244734641 ], [ -116.432308298528412, 33.266478704342795 ], [ -116.431578464929331, 33.266440353051003 ], [ -116.43151417363967, 33.266196278371957 ], [ -116.431317896344154, 33.266231810332869 ], [ -116.431275036091748, 33.266069093746879 ], [ -116.431078759005246, 33.26610462530499 ], [ -116.430002650534902, 33.265532286214224 ], [ -116.428705423926061, 33.265681862495356 ], [ -116.428564430943339, 33.265536908401174 ], [ -116.427954172926306, 33.265562129240216 ], [ -116.427377775517343, 33.265325506968267 ], [ -116.426690805272756, 33.265449842722596 ], [ -116.426046681956166, 33.265736893011429 ], [ -116.425641681876058, 33.266151136444549 ], [ -116.425074265581301, 33.266339060596096 ], [ -116.424929810002766, 33.266961857901748 ], [ -116.424490926390732, 33.267637934884981 ], [ -116.42444460658821, 33.268242970359097 ], [ -116.424116305145063, 33.26855808763181 ], [ -116.423839819570517, 33.26946047855246 ], [ -116.423293797955196, 33.269729752249837 ], [ -116.422931608020676, 33.270306702300935 ], [ -116.422637170844212, 33.270359977753557 ], [ -116.422581869582643, 33.270540454898622 ], [ -116.421894846294393, 33.270664760967023 ], [ -116.421753856925491, 33.270519799549255 ], [ -116.421045411749063, 33.270562740980331 ], [ -116.420904424125766, 33.270417778496366 ], [ -116.420021106043876, 33.270577586927665 ], [ -116.419551791452989, 33.270747726382282 ], [ -116.419419754786006, 33.271027317489988 ], [ -116.418361549423508, 33.271303983927837 ], [ -116.41775124346907, 33.271329150239204 ], [ -116.417708408465572, 33.271166429791165 ], [ -116.41729439943245, 33.271156085273894 ], [ -116.41689287213508, 33.270802544186978 ], [ -116.4166626779014, 33.2710998854756 ], [ -116.415736512674897, 33.271096939863682 ], [ -116.415374261108084, 33.271673864887681 ], [ -116.414981664491364, 33.271744872634073 ], [ -116.414849609933285, 33.272024458071783 ], [ -116.411687387795965, 33.272511106332189 ], [ -116.411328701032332, 33.272320268917895 ], [ -116.408776765735539, 33.272781704618765 ], [ -116.408448382708258, 33.273096774934096 ], [ -116.407880875379405, 33.273284612078115 ], [ -116.407365064044839, 33.274059724598438 ], [ -116.406677986061268, 33.274183938836991 ], [ -116.406392402146395, 33.27466172639879 ], [ -116.406119343963894, 33.274796321013476 ], [ -116.404941480284549, 33.275009244146887 ], [ -116.404711228648111, 33.275306559614229 ], [ -116.404318604317353, 33.275377530468987 ], [ -116.403618969888669, 33.275844917490886 ], [ -116.403563621205208, 33.276025384016933 ], [ -116.403367306819902, 33.276060867611143 ], [ -116.403410114860264, 33.276223592256223 ], [ -116.400858006736286, 33.276684849068275 ], [ -116.40050817448774, 33.276918532148905 ], [ -116.40061518131958, 33.277325345820351 ], [ -116.400222543236495, 33.277396302439342 ], [ -116.399740587894186, 33.277909548974769 ], [ -116.399249785555071, 33.277998240717963 ], [ -116.398942742694047, 33.278394644243789 ], [ -116.398277013006648, 33.278600170216095 ], [ -116.397586145929665, 33.279492070028958 ], [ -116.396779443856502, 33.279552597575325 ], [ -116.396374218847811, 33.279966729256095 ], [ -116.394116442539499, 33.280374626273115 ], [ -116.392981251964827, 33.28075015182916 ], [ -116.392370864733579, 33.280775182681722 ], [ -116.391812064664421, 33.281387489264972 ], [ -116.39179947208217, 33.281730676310268 ], [ -116.391547757805412, 33.28194659863572 ], [ -116.391611938102812, 33.282190690111129 ], [ -116.39122806556783, 33.282686165763913 ], [ -116.390933560688694, 33.282739358829531 ], [ -116.390801402342049, 33.283018912085907 ], [ -116.389700151753644, 33.283132581452577 ], [ -116.389644766059149, 33.283313039344506 ], [ -116.388957579425096, 33.283437145712504 ], [ -116.382353861073398, 33.283351161119612 ], [ -116.381350765073634, 33.283447026667531 ], [ -116.381163165984404, 33.283907022228334 ], [ -116.380966821868824, 33.283942467059113 ], [ -116.381030971001607, 33.284186563747454 ], [ -116.381346871400524, 33.284214761715546 ], [ -116.381453789175367, 33.284621588946024 ], [ -116.381342977651542, 33.284982495906803 ], [ -116.381458642048045, 33.285813871873231 ], [ -116.381283677134917, 33.285930682407631 ], [ -116.381454749309484, 33.286581604284535 ], [ -116.381224375190484, 33.286878867571609 ], [ -116.381309911708996, 33.287204328214841 ], [ -116.380742238030876, 33.287392027161566 ], [ -116.380977461211529, 33.288287043728729 ], [ -116.380823874132133, 33.288485218188974 ], [ -116.381071742111033, 33.289037051118662 ], [ -116.381409046805516, 33.289146613668123 ], [ -116.381451816589447, 33.28930934341215 ], [ -116.381340998460971, 33.289670247913627 ], [ -116.381440137428157, 33.291612526385983 ], [ -116.381077540287137, 33.292189325796109 ], [ -116.380782993016908, 33.292242492056097 ], [ -116.380745065551437, 33.293272032800921 ], [ -116.380950176756627, 33.293661133217867 ], [ -116.380348426175289, 33.294110643710418 ], [ -116.380433966928521, 33.294436101590456 ], [ -116.380203565979755, 33.29473335943733 ], [ -116.380246336306854, 33.294896088311596 ], [ -116.380583664947991, 33.295005652357297 ], [ -116.380255076473901, 33.295320631730355 ], [ -116.380319232668924, 33.295564724784562 ], [ -116.380046057458856, 33.295699253209342 ], [ -116.380054796635363, 33.296123796148827 ], [ -116.380272557090734, 33.296169717781666 ], [ -116.380336714031671, 33.296413810525543 ], [ -116.380042150460625, 33.296466974556793 ], [ -116.37990993041474, 33.296746509686592 ], [ -116.379974086701608, 33.296990602429155 ], [ -116.380191849506843, 33.297036524157527 ], [ -116.380469867766237, 33.29809425736395 ], [ -116.380666247389925, 33.298058814112153 ], [ -116.381097883141976, 33.29891837303618 ], [ -116.381413842661914, 33.298946570216934 ], [ -116.381162044880583, 33.299162464345606 ], [ -116.381388561140994, 33.299632924351535 ], [ -116.381188281895589, 33.300436085728087 ], [ -116.380500932511666, 33.300560138331299 ], [ -116.380291900771169, 33.300938757382433 ], [ -116.379997320243334, 33.300991920949869 ], [ -116.379668704444313, 33.301306895909349 ], [ -116.379754250205565, 33.301632350900896 ], [ -116.379404244509033, 33.301865961120043 ], [ -116.379489789784571, 33.30219141604524 ], [ -116.379314785561121, 33.302308220800015 ], [ -116.379601548235712, 33.303790486308507 ], [ -116.378739158164166, 33.304031332384319 ], [ -116.378713851696673, 33.304717680872869 ], [ -116.378440641989769, 33.304852203689038 ], [ -116.378483414169892, 33.305014930834353 ], [ -116.378231588948495, 33.305230816631102 ], [ -116.378458105157051, 33.305701278288907 ], [ -116.378675891168257, 33.305747202316191 ], [ -116.378740050963273, 33.305991292565828 ], [ -116.378509609808049, 33.306288542031822 ], [ -116.378616542896808, 33.306695358882891 ], [ -116.378441527367528, 33.306812161543455 ], [ -116.378928614332736, 33.307491271628983 ], [ -116.378753597497266, 33.307608074631155 ], [ -116.378531883981367, 33.308329858976869 ], [ -116.37886534868538, 33.309207133071411 ], [ -116.378515306679333, 33.309440738015773 ], [ -116.378558081506426, 33.309603464052415 ], [ -116.378152606009337, 33.310017513276811 ], [ -116.378216767661897, 33.310261602310668 ], [ -116.378041743612357, 33.310378403758392 ], [ -116.378148679838318, 33.310785218637974 ], [ -116.378387867346973, 33.310912505804083 ], [ -116.378494806086763, 33.311319320046678 ], [ -116.378712607659452, 33.311365243630902 ], [ -116.378755383939918, 33.311527969140933 ], [ -116.378273079747473, 33.31204110001665 ], [ -116.378260423250126, 33.312384270317565 ], [ -116.377931752953117, 33.312699235106308 ], [ -116.377995916106414, 33.312943323316944 ], [ -116.377633195495704, 33.313520094013683 ], [ -116.37790250792159, 33.314153276421287 ], [ -116.377505733070095, 33.314991852139357 ], [ -116.378211555663327, 33.317676809468679 ], [ -116.378647193909018, 33.317768656451982 ], [ -116.378728832418503, 33.318861800871908 ], [ -116.378925264629771, 33.318826361666382 ], [ -116.379010826354786, 33.319151808963937 ], [ -116.379271431500868, 33.319360454523903 ], [ -116.379998745811989, 33.322126745314812 ], [ -116.379516384788531, 33.322639873559901 ], [ -116.379567908416547, 33.323227122447811 ], [ -116.379414249620623, 33.323425284995693 ], [ -116.379820707461832, 33.324971145731979 ], [ -116.37949199085439, 33.325286109264596 ], [ -116.379479337541241, 33.325629273134382 ], [ -116.380561680329819, 33.329354141695141 ], [ -116.380408012075009, 33.329552303822496 ], [ -116.380549969181871, 33.331657191161518 ], [ -116.380439087297944, 33.332018072683688 ], [ -116.380165785779653, 33.332152594303984 ], [ -116.38017452964921, 33.332577114861664 ], [ -116.380679284437264, 33.33410523174819 ], [ -116.380996334378182, 33.336093303608777 ], [ -116.381278398407147, 33.336383298919664 ], [ -116.381474873199622, 33.336347856244252 ], [ -116.381722896472411, 33.336899649574889 ], [ -116.382321079548632, 33.337217835885845 ], [ -116.382949426484032, 33.338041894841886 ], [ -116.383808303975385, 33.338568703710671 ], [ -116.383872506443211, 33.338812779524034 ], [ -116.384090387236967, 33.338858691075785 ], [ -116.384218794793597, 33.339346842061396 ], [ -116.384513516026956, 33.339293670596327 ], [ -116.384556319480211, 33.339456387385901 ], [ -116.38499208568328, 33.339548207390862 ], [ -116.385034890264421, 33.33971092394232 ], [ -116.386231330768069, 33.340347256193581 ], [ -116.38629554220131, 33.340591330026427 ], [ -116.386731316717587, 33.340683143276877 ], [ -116.387350953879135, 33.341082659422199 ], [ -116.387863568628148, 33.34107538428669 ], [ -116.388188487906191, 33.341528075586311 ], [ -116.388526027472821, 33.341637608890764 ], [ -116.389099045968919, 33.342642070774041 ], [ -116.389436591580804, 33.342751601224663 ], [ -116.390039836793875, 33.344261926468334 ], [ -116.390539863869222, 33.344597795066257 ], [ -116.390834600496035, 33.344544607768533 ], [ -116.391432878519808, 33.344862743079112 ], [ -116.392014766866325, 33.346291697060373 ], [ -116.392775547201225, 33.346836162695382 ], [ -116.393096736310483, 33.348056500943152 ], [ -116.393652222978915, 33.348211911561421 ], [ -116.393780705111382, 33.34870004527869 ], [ -116.393998619060156, 33.348745937364825 ], [ -116.394105689910404, 33.349152714861034 ], [ -116.394366434427837, 33.349361317112056 ], [ -116.394785910638504, 33.350563914066377 ], [ -116.395003830335042, 33.350609804120957 ], [ -116.395350246144602, 33.351143824005135 ], [ -116.395546751451263, 33.351108357988679 ], [ -116.396046845535977, 33.35144419928713 ], [ -116.396341604083744, 33.35139099836961 ], [ -116.396722032554422, 33.351663215534458 ], [ -116.396918538539822, 33.351627747195849 ], [ -116.397004210343965, 33.351953165693267 ], [ -116.397581150915371, 33.352189910997573 ], [ -116.397645407216302, 33.352433974322864 ], [ -116.397863333759346, 33.352479858824786 ], [ -116.397915013844027, 33.353067074235014 ], [ -116.398372290787719, 33.353240195913166 ], [ -116.398718741037897, 33.353774203612723 ], [ -116.399309677262764, 33.355627607372867 ], [ -116.399831238185229, 33.356044783694628 ], [ -116.400024038666217, 33.356776965475085 ], [ -116.40026340135995, 33.35690419859219 ], [ -116.4003490927429, 33.357229612127874 ], [ -116.400545610994939, 33.357194137862663 ], [ -116.400827822709772, 33.357484076318698 ], [ -116.400913517058612, 33.357809489162229 ], [ -116.401229720149217, 33.357837629360716 ], [ -116.401293992379806, 33.358081688664782 ], [ -116.401610196700403, 33.358109827804114 ], [ -116.401695894966537, 33.35843523977146 ], [ -116.402012100851721, 33.35846337778932 ], [ -116.402054950919819, 33.358626083567451 ], [ -116.402371157700372, 33.358654220588491 ], [ -116.402414008614912, 33.358816926188005 ], [ -116.403132129230542, 33.359198607902925 ], [ -116.403939642971821, 33.359138042624814 ], [ -116.404341562842589, 33.359491583932105 ] ] ] } }
]
}
