{
  "type": "FeatureCollection",
  "name": "deanza_villas_complex_boundary",
  "crs": {
    "type": "name",
    "properties": {
      "name": "urn:ogc:def:crs:OGC:1.3:CRS84"
    }
  },
  "features": [
    {
      "type": "Feature",
      "properties": {
        "name": "De Anza Villas complex boundary",
        "source": "SanGIS parcel polygons, subname LIKE 'DE ANZA VILLAS%', excluding Vista Villas (APN 14026410xx). Two blocks merged across Monroe St ROW with straight bridge.",
        "parcel_count": 36,
        "excluded_count": 31,
        "excluded_reason": "Vista Villas \u2014 separate community (APN prefix 14026410)"
      },
      "geometry": {
        "type": "Polygon",
        "coordinates": [
          [
            [
              -116.40043080702495,
              33.28788182536171
            ],
            [
              -116.40006745858553,
              33.28781355727491
            ],
            [
              -116.40007223968927,
              33.28779997764414
            ],
            [
              -116.40007680780322,
              33.28778678238522
            ],
            [
              -116.40008130395356,
              33.28777356917951
            ],
            [
              -116.40008572922027,
              33.28776034163259
            ],
            [
              -116.40009008466913,
              33.28774709523449
            ],
            [
              -116.40009436815613,
              33.28773383179142
            ],
            [
              -116.40009857968741,
              33.28772055490999
            ],
            [
              -116.40010272247459,
              33.28770725917634
            ],
            [
              -116.4001067900853,
              33.287693950008205
            ],
            [
              -116.40011078895974,
              33.287680626496154
            ],
            [
              -116.40011471587394,
              33.28766728684083
            ],
            [
              -116.40011857082801,
              33.28765393104215
            ],
            [
              -116.4001223506042,
              33.287640560907384
            ],
            [
              -116.40012606486813,
              33.287627178228135
            ],
            [
              -116.40012970610142,
              33.28761378121029
            ],
            [
              -116.40013327323207,
              33.28760037075674
            ],
            [
              -116.40013676840587,
              33.28758694596325
            ],
            [
              -116.4001401905507,
              33.28757350773288
            ],
            [
              -116.40014354181997,
              33.28756005966956
            ],
            [
              -116.40014682327347,
              33.287546593657
            ],
            [
              -116.40015003063537,
              33.28753312052048
            ],
            [
              -116.40015316174765,
              33.28751963395099
            ],
            [
              -116.40015622412862,
              33.28750613574271
            ],
            [
              -116.40015921455439,
              33.28749262409615
            ],
            [
              -116.40016213410334,
              33.28747910171512
            ],
            [
              -116.40016497741209,
              33.28746557131112
            ],
            [
              -116.4001677487642,
              33.287452026567145
            ],
            [
              -116.40017044817063,
              33.287438473795085
            ],
            [
              -116.40017307455463,
              33.28742491119285
            ],
            [
              -116.400175626838,
              33.28741133605655
            ],
            [
              -116.4001781071773,
              33.2873977537939
            ],
            [
              -116.40018051557095,
              33.28738416350305
            ],
            [
              -116.40018285093929,
              33.287370561578626
            ],
            [
              -116.4001851122164,
              33.28735695253039
            ],
            [
              -116.40018730047284,
              33.28734333455369
            ],
            [
              -116.40018941463664,
              33.28732970855143
            ],
            [
              -116.40019145578142,
              33.28731607452231
            ],
            [
              -116.40019342498074,
              33.28730243246502
            ],
            [
              -116.40019532223782,
              33.28728878418297
            ],
            [
              -116.40019714433029,
              33.28727512877849
            ],
            [
              -116.40019889447585,
              33.28726146444415
            ],
            [
              -116.40020056946005,
              33.2872477947907
            ],
            [
              -116.40020217250522,
              33.28723412071582
            ],
            [
              -116.40020370038279,
              33.28722043771497
            ],
            [
              -116.40020515632447,
              33.287206752096125
            ],
            [
              -116.40020653924591,
              33.28719305754879
            ],
            [
              -116.40020784808587,
              33.287179361287706
            ],
            [
              -116.4002090839117,
              33.28716565970481
            ],
            [
              -116.4002102456485,
              33.28715195189987
            ],
            [
              -116.40021133115208,
              33.28713823967867
            ],
            [
              -116.40021234793926,
              33.28712452393394
            ],
            [
              -116.40021328635066,
              33.28711080648051
            ],
            [
              -116.40021415282496,
              33.287097085507455
            ],
            [
              -116.40021494735902,
              33.28708335921142
            ],
            [
              -116.40021566673825,
              33.28706963120279
            ],
            [
              -116.40021631418045,
              33.28705589967453
            ],
            [
              -116.400216886471,
              33.287042168237186
            ],
            [
              -116.40021738574322,
              33.28702842877304
            ],
            [
              -116.40021781094684,
              33.287014694808605
            ],
            [
              -116.40021816098958,
              33.287000955524924
            ],
            [
              -116.40021843802806,
              33.28698721632958
            ],
            [
              -116.40021864313583,
              33.286973477221295
            ],
            [
              -116.40021876986681,
              33.28695973550274
            ],
            [
              -116.40021882896148,
              33.28694599386601
            ],
            [
              -116.4002188118313,
              33.28693225232145
            ],
            [
              -116.40021876725903,
              33.286925670129534
            ],
            [
              -116.4002187195498,
              33.28691851086782
            ],
            [
              -116.4002185553377,
              33.28690476950122
            ],
            [
              -116.40021831919987,
              33.28689103092663
            ],
            [
              -116.40021800361177,
              33.28687728974304
            ],
            [
              -116.40021761717615,
              33.28686355405531
            ],
            [
              -116.40021715558483,
              33.28684981575341
            ],
            [
              -116.4002166209988,
              33.28683608294988
            ],
            [
              -116.4002160155561,
              33.286822350232136
            ],
            [
              -116.4002153338934,
              33.286808620311504
            ],
            [
              -116.40021458030665,
              33.28679489408462
            ],
            [
              -116.40021374835128,
              33.28678116975588
            ],
            [
              -116.40021284769111,
              33.286767448215194
            ],
            [
              -116.40021187189093,
              33.28675373307728
            ],
            [
              -116.400210820943,
              33.28674001983351
            ],
            [
              -116.40020969807114,
              33.28672631028344
            ],
            [
              -116.40020850327703,
              33.286712605328766
            ],
            [
              -116.40020723333835,
              33.286698904071685
            ],
            [
              -116.4002058871893,
              33.28668521102179
            ],
            [
              -116.40020447340775,
              33.28667151985713
            ],
            [
              -116.40020298019202,
              33.286657835100215
            ],
            [
              -116.40020141612932,
              33.286644155839085
            ],
            [
              -116.40019977907863,
              33.28663048568296
            ],
            [
              -116.4001980668806,
              33.286616817421006
            ],
            [
              -116.40019628384023,
              33.286603157359885
            ],
            [
              -116.40019442781207,
              33.286589506403764
            ],
            [
              -116.40019249663655,
              33.28657585734188
            ],
            [
              -116.40019049355605,
              33.28656222279369
            ],
            [
              -116.4001884153299,
              33.28654859104153
            ],
            [
              -116.4001862641145,
              33.28653496749249
            ],
            [
              -116.40018404528244,
              33.28652135484547
            ],
            [
              -116.40018174487248,
              33.286507750412156
            ],
            [
              -116.40017937791184,
              33.28649415237097
            ],
            [
              -116.4001769336708,
              33.28648056434166
            ],
            [
              -116.40017441644683,
              33.286466988122335
            ],
            [
              -116.40017183159716,
              33.28645341739487
            ],
            [
              -116.40016917054696,
              33.286439860284624
            ],
            [
              -116.40016643436066,
              33.2864263113803
            ],
            [
              -116.40016362948583,
              33.28641277428075
            ],
            [
              -116.4001607494796,
              33.28639924809218
            ],
            [
              -116.40015779755653,
              33.28638572920382
            ],
            [
              -116.40015477372899,
              33.286372224829236
            ],
            [
              -116.40015167799706,
              33.2863587349683
            ],
            [
              -116.40014850712762,
              33.286345252411635
            ],
            [
              -116.4001452643492,
              33.28633178166359
            ],
            [
              -116.40014195288569,
              33.28631832452372
            ],
            [
              -116.4001385684427,
              33.28630488099708
            ],
            [
              -116.40013510994217,
              33.28629144838006
            ],
            [
              -116.40013158276273,
              33.28627803297785
            ],
            [
              -116.40012797937712,
              33.28626462758613
            ],
            [
              -116.40012430409193,
              33.28625123941306
            ],
            [
              -116.40012056118765,
              33.28623786033835
            ],
            [
              -116.40011674208655,
              33.28622449668425
            ],
            [
              -116.40011284786522,
              33.286211150252655
            ],
            [
              -116.40010889247415,
              33.28619781742011
            ],
            [
              -116.40010486088318,
              33.286184498204655
            ],
            [
              -116.40010075739289,
              33.286171196207874
            ],
            [
              -116.40009658199709,
              33.28615790782297
            ],
            [
              -116.40009233470508,
              33.286144638460186
            ],
            [
              -116.40008801873304,
              33.286131385410286
            ],
            [
              -116.40008363086179,
              33.28611814957912
            ],
            [
              -116.40007917430128,
              33.286104924650935
            ],
            [
              -116.40007463940785,
              33.286091721457446
            ],
            [
              -116.40007003905679,
              33.28607853547484
            ],
            [
              -116.40006536572993,
              33.28606536490877
            ],
            [
              -116.40006062479989,
              33.28605221245777
            ],
            [
              -116.40005581197696,
              33.28603908083198
            ],
            [
              -116.40005092402964,
              33.28602596372367
            ],
            [
              -116.40004597277974,
              33.286012868331916
            ],
            [
              -116.40004094748367,
              33.2859997901613
            ],
            [
              -116.40003585244203,
              33.28598673281333
            ],
            [
              -116.40003068979586,
              33.285973692678716
            ],
            [
              -116.40002545525537,
              33.285960672467624
            ],
            [
              -116.40002015097092,
              33.285947673980836
            ],
            [
              -116.40001477908508,
              33.285934694510765
            ],
            [
              -116.40000933423461,
              33.28592173676882
            ],
            [
              -116.40000382178437,
              33.28590879894522
            ],
            [
              -116.39999823958709,
              33.285895881042514
            ],
            [
              -116.39999258871808,
              33.285882983961116
            ],
            [
              -116.39998686703787,
              33.28587011221195
            ],
            [
              -116.39998107561078,
              33.2858572603836
            ],
            [
              -116.39997521980632,
              33.28584442937141
            ],
            [
              -116.39996929104043,
              33.285831621890594
            ],
            [
              -116.39996329360287,
              33.28581883523111
            ],
            [
              -116.39995723179113,
              33.28580607119095
            ],
            [
              -116.39995109701967,
              33.2857933315839
            ],
            [
              -116.39994489358429,
              33.28578061730642
            ],
            [
              -116.39993862577316,
              33.28576792474667
            ],
            [
              -116.39993228822006,
              33.285755254812685
            ],
            [
              -116.3999258820016,
              33.28574260930661
            ],
            [
              -116.39991940819606,
              33.28572999093208
            ],
            [
              -116.39991286786928,
              33.28571739517952
            ],
            [
              -116.39990625887717,
              33.2857048238548
            ],
            [
              -116.39989958229503,
              33.2856922778583
            ],
            [
              -116.3998928391994,
              33.28567975899204
            ],
            [
              -116.39988602743546,
              33.28566726275018
            ],
            [
              -116.39987915130997,
              33.28565479634104
            ],
            [
              -116.39987220543644,
              33.285642348951015
            ],
            [
              -116.3998651952122,
              33.285629937705245
            ],
            [
              -116.39985811846226,
              33.28561754637637
            ],
            [
              -116.39985097413006,
              33.28560518488393
            ],
            [
              -116.39984376328462,
              33.28559285052171
            ],
            [
              -116.39983648806991,
              33.285580541483704
            ],
            [
              -116.39982914312593,
              33.28556826228478
            ],
            [
              -116.39982173703346,
              33.28555600840608
            ],
            [
              -116.39981426228687,
              33.28554378526693
            ],
            [
              -116.39980672424623,
              33.28553158835231
            ],
            [
              -116.39979911862658,
              33.28551942307744
            ],
            [
              -116.3997914475658,
              33.28550728402977
            ],
            [
              -116.39978371429393,
              33.2854951766153
            ],
            [
              -116.39977591236185,
              33.28548309633354
            ],
            [
              -116.39976805143624,
              33.28547104587785
            ],
            [
              -116.39976012185667,
              33.28545902616142
            ],
            [
              -116.39975212684222,
              33.2854470362788
            ],
            [
              -116.39974406639445,
              33.285435077131574
            ],
            [
              -116.39973594373421,
              33.28542314871593
            ],
            [
              -116.39972775886447,
              33.285411252835125
            ],
            [
              -116.39971950855536,
              33.28539938408306
            ],
            [
              -116.39971119711188,
              33.28538754876618
            ],
            [
              -116.3997028191617,
              33.285375744186005
            ],
            [
              -116.39969438007567,
              33.28536397213935
            ],
            [
              -116.39968587448759,
              33.28535223353437
            ],
            [
              -116.39968037685853,
              33.285346033915076
            ],
            [
              -116.40013435657494,
              33.28484254340924
            ],
            [
              -116.40082511539772,
              33.285025841355896
            ],
            [
              -116.40082508766035,
              33.28502607777695
            ],
            [
              -116.40101496814995,
              33.28507800550799
            ],
            [
              -116.40101496814995,
              33.28507800550799
            ],
            [
              -116.40101499491519,
              33.28507783119487
            ],
            [
              -116.4017443509021,
              33.285142565953684
            ],
            [
              -116.40176561435678,
              33.28791867720469
            ],
            [
              -116.40071911503608,
              33.28794306025544
            ],
            [
              -116.40071922531178,
              33.28794258267235
            ],
            [
              -116.40071922531178,
              33.28794258267235
            ],
            [
              -116.40043077545802,
              33.28788161490048
            ],
            [
              -116.4004283840645,
              33.287865671140345
            ],
            [
              -116.40043080702495,
              33.28788182536171
            ]
          ]
        ]
      }
    }
  ]
}