{
  "type": "FeatureCollection",
  "features": [
    {
      "id": "0",
      "type": "Feature",
      "properties": {
        "name": "De Anza Villas 8km AOI",
        "buffer_m": 8000,
        "area_ha": 20856.03,
        "source_parcel": "/home/hermes/workspace/deanza-villas-flood-study/data/raw/sangis/deanza_villas_complex_boundary.geojson"
      },
      "geometry": {
        "type": "Polygon",
        "coordinates": [
          [
            [
              -116.38131282880282,
              33.35770368987596
            ],
            [
              -116.38129848960195,
              33.357756008602585
            ],
            [
              -116.38093483510981,
              33.35768768678416
            ],
            [
              -116.38011788267195,
              33.35749840473853
            ],
            [
              -116.37923662588469,
              33.35734700100046
            ],
            [
              -116.37894808030086,
              33.357285718235545
            ],
            [
              -116.37896495084459,
              33.35723126713748
            ],
            [
              -116.37265258999118,
              33.3557684358276
            ],
            [
              -116.36464185790793,
              33.35317738298721
            ],
            [
              -116.3569819414869,
              33.34994018110955
            ],
            [
              -116.34974864351614,
              33.346088877112166
            ],
            [
              -116.34301351279258,
              33.34166159269183
            ],
            [
              -116.33684313356557,
              33.33670214469024
            ],
            [
              -116.33129846574332,
              33.33125960898916
            ],
            [
              -116.32643424246031,
              33.325387832371085
            ],
            [
              -116.32229843096441,
              33.31914489730318
            ],
            [
              -116.31893176208582,
              33.312592545059076
            ],
            [
              -116.31636733280368,
              33.30579556300254
            ],
            [
              -116.31463028563918,
              33.298821142195415
            ],
            [
              -116.314300828877,
              33.296207350363474
            ],
            [
              -116.31389395380617,
              33.29427075337115
            ],
            [
              -116.31326074130756,
              33.28742290735947
            ],
            [
              -116.31342156004436,
              33.280556209403215
            ],
            [
              -116.31437472577582,
              33.273733743385435
            ],
            [
              -116.31611128006388,
              33.26701817241544
            ],
            [
              -116.31861507995237,
              33.26047116376817
            ],
            [
              -116.32186295317939,
              33.254152823474634
            ],
            [
              -116.32582491724507,
              33.248121145716894
            ],
            [
              -116.33046446009647,
              33.242431482025125
            ],
            [
              -116.33091863470176,
              33.241928234194916
            ],
            [
              -116.3361908472903,
              33.236634715372375
            ],
            [
              -116.34204900786325,
              33.231783630209286
            ],
            [
              -116.34843933705402,
              33.22741943752386
            ],
            [
              -116.35530320927985,
              33.22358212773745
            ],
            [
              -116.36257768947927,
              33.22030685846163
            ],
            [
              -116.37019610803306,
              33.21762363429889
            ],
            [
              -116.3780886686955,
              33.21555703370418
            ],
            [
              -116.38618308410575,
              33.21412598533044
            ],
            [
              -116.39440523323613,
              33.21334359583974
            ],
            [
              -116.40267983496686,
              33.21321703070307
            ],
            [
              -116.41093113185461,
              33.213747449042636
            ],
            [
              -116.4190835780839,
              33.214929993092326
            ],
            [
              -116.42069221674679,
              33.21522978021408
            ],
            [
              -116.42867932733874,
              33.217055708239464
            ],
            [
              -116.43641929723032,
              33.21950749482085
            ],
            [
              -116.44384107907409,
              33.22256263601536
            ],
            [
              -116.45087652352835,
              33.22619308735523
            ],
            [
              -116.45746100158645,
              33.2303655196272
            ],
            [
              -116.46353399575112,
              33.2350416229857
            ],
            [
              -116.46903965473909,
              33.240178456694856
            ],
            [
              -116.47392730668747,
              33.245728841377485
            ],
            [
              -116.47815192616363,
              33.25164179026517
            ],
            [
              -116.4816745506515,
              33.25786297558272
            ],
            [
              -116.48446264260131,
              33.26433522587348
            ],
            [
              -116.48649039358061,
              33.27099904978107
            ],
            [
              -116.48773896755307,
              33.27779318154786
            ],
            [
              -116.48819668083385,
              33.28465514327715
            ],
            [
              -116.48822099138611,
              33.28743123931354
            ],
            [
              -116.48787675862116,
              33.29435963640866
            ],
            [
              -116.48672583541776,
              33.3012279369751
            ],
            [
              -116.48477879600888,
              33.30797179312679
            ],
            [
              -116.48205368577578,
              33.31452800839456
            ],
            [
              -116.47857585935897,
              33.320835130919185
            ],
            [
              -116.47437774949302,
              33.326834030785534
            ],
            [
              -116.46949856849274,
              33.3324684560228
            ],
            [
              -116.46398394498907,
              33.33768556198263
            ],
            [
              -116.45788549916549,
              33.34243640904176
            ],
            [
              -116.45126036037502,
              33.34667642386357
            ],
            [
              -116.44417063161362,
              33.35036581978989
            ],
            [
              -116.43668280588162,
              33.35346997231575
            ],
            [
              -116.4288671399738,
              33.35595974602236
            ],
            [
              -116.42079699169133,
              33.35781176980792
            ],
            [
              -116.41254812686242,
              33.35900865774824
            ],
            [
              -116.40419800288458,
              33.35953917344514
            ],
            [
              -116.40315055176191,
              33.35956357616751
            ],
            [
              -116.39510752933555,
              33.35944095491297
            ],
            [
              -116.38711313132062,
              33.35869995695432
            ],
            [
              -116.38131282880282,
              33.35770368987596
            ]
          ]
        ]
      }
    }
  ],
  "name": "deanza_villas_8km_aoi"
}