{
"type": "FeatureCollection",
"name": "deanza_villas_2km_aoi",
"crs": { "type": "name", "properties": { "name": "urn:ogc:def:crs:OGC:1.3:CRS84" } },
"features": [
{ "type": "Feature", "properties": { "name": "deanza_villas_2km_context" }, "geometry": { "type": "Polygon", "coordinates": [ [ [ -116.394261009653988, 33.285952221997071 ], [ -116.394291635702103, 33.285413421763529 ], [ -116.394384993221848, 33.284879737133302 ], [ -116.394540182018787, 33.284356307642888 ], [ -116.394755706515852, 33.283848173979024 ], [ -116.395029490196038, 33.283360229442799 ], [ -116.395358895634757, 33.282897172836137 ], [ -116.395740749928237, 33.282463463223998 ], [ -116.396171375271237, 33.282063277007438 ], [ -116.396646624389447, 33.281700467720277 ], [ -116.397161920484493, 33.281378528935775 ], [ -116.397712301306768, 33.281100560639977 ], [ -116.398292466931764, 33.280869239395003 ], [ -116.398896830780288, 33.280686792578429 ], [ -116.399519573392297, 33.280554976946803 ], [ -116.400154698436893, 33.280475061728929 ], [ -116.400796090421196, 33.280447816411133 ], [ -116.401437573543234, 33.280473503332239 ], [ -116.402072971123985, 33.280551875158899 ], [ -116.402696165047843, 33.280682177265788 ], [ -116.403301154640744, 33.280863154997739 ], [ -116.403882114420554, 33.281093065744109 ], [ -116.404433450165186, 33.281369695709451 ], [ -116.4049498527596, 33.2816903812192 ], [ -116.405426349304378, 33.282052034356212 ], [ -116.405858350994464, 33.282451172681299 ], [ -116.406241697307237, 33.282883952752712 ], [ -116.406572696074917, 33.283346207122179 ], [ -116.406848159055002, 33.283833484452011 ], [ -116.407065432655543, 33.284341092367633 ], [ -116.407222423518959, 33.284864142633324 ], [ -116.407317618716448, 33.285397598216974 ], [ -116.407350100357689, 33.285936321790565 ], [ -116.407319554473034, 33.286475125200091 ], [ -116.407226274081793, 33.287008819428479 ], [ -116.407071156414347, 33.287532264570338 ], [ -116.406855694314345, 33.288040419337463 ], [ -116.406581961900926, 33.288528389617767 ], [ -116.406252594628441, 33.288991475620044 ], [ -116.405870763934061, 33.289425217149628 ], [ -116.40544014671606, 33.289825436578909 ], [ -116.404964889936494, 33.290188279097706 ], [ -116.4044495706882, 33.290510249855735 ], [ -116.40389915211054, 33.290788247638183 ], [ -116.403318935578966, 33.291019594749763 ], [ -116.402714509628908, 33.291202062818897 ], [ -116.402091696107021, 33.291333894272306 ], [ -116.401456494069166, 33.291413819273146 ], [ -116.400815021967077, 33.29144106795912 ], [ -116.400173458681593, 33.291415377862009 ], [ -116.399537983972337, 33.291336996437209 ], [ -116.398914718918959, 33.291206678678883 ], [ -116.398309666928995, 33.291025679843685 ], [ -116.397728655882446, 33.290795743353208 ], [ -116.397177281971565, 33.290519083992287 ], [ -116.396660855778066, 33.290198366565079 ], [ -116.396184351108317, 33.289836680215359 ], [ -116.395752357079559, 33.289437508658608 ], [ -116.395369033920019, 33.289004696613674 ], [ -116.39503807290771, 33.288542412757572 ], [ -116.394762660834246, 33.288055109561121 ], [ -116.394545449335197, 33.287547480392945 ], [ -116.394388529381686, 33.287024414305485 ], [ -116.394293411177443, 33.286490948938862 ], [ -116.394261009653988, 33.285952221997071 ] ] ] } }
]
}
