{
  "type": "FeatureCollection",
  "features": [
    {
      "id": "0",
      "type": "Feature",
      "properties": {
        "name": "De Anza Villas 2km AOI",
        "buffer_m": 2000,
        "area_ha": 1454.07,
        "source_parcel": "/home/hermes/workspace/deanza-villas-flood-study/data/raw/sangis/deanza_villas_complex_boundary.geojson"
      },
      "geometry": {
        "type": "Polygon",
        "coordinates": [
          [
            [
              -116.39504770584047,
              33.305227436748766
            ],
            [
              -116.39320863869008,
              33.30480087392751
            ],
            [
              -116.39119822401233,
              33.304149285727796
            ],
            [
              -116.38927629863447,
              33.3033347861092
            ],
            [
              -116.38746203448113,
              33.30236550073548
            ],
            [
              -116.38577352747083,
              33.301251099163714
            ],
            [
              -116.38422761684289,
              33.30000269823522
            ],
            [
              -116.38283971712487,
              33.29863275102208
            ],
            [
              -116.3816236644209,
              33.297154922444854
            ],
            [
              -116.38059157855417,
              33.29558395281061
            ],
            [
              -116.37975374243419,
              33.293935510639294
            ],
            [
              -116.3791184998427,
              33.29222603625549
            ],
            [
              -116.37869217264556,
              33.29047257771016
            ],
            [
              -116.37848646314907,
              33.28875495239355
            ],
            [
              -116.37826357227867,
              33.28776046287106
            ],
            [
              -116.37808223209292,
              33.28602766187633
            ],
            [
              -116.37810451885584,
              33.28428844932673
            ],
            [
              -116.37833020901562,
              33.28255922195968
            ],
            [
              -116.3787571616952,
              33.28085628142494
            ],
            [
              -116.37938133936967,
              33.27919568063695
            ],
            [
              -116.38019684639455,
              33.2775930725061
            ],
            [
              -116.38119598500415,
              33.27606356247253
            ],
            [
              -116.38236932823659,
              33.2746215662293
            ],
            [
              -116.38282335678547,
              33.27411813641734
            ],
            [
              -116.38413313623325,
              33.27280155385492
            ],
            [
              -116.38558806292005,
              33.27159423724363
            ],
            [
              -116.38717493314239,
              33.270507138517225
            ],
            [
              -116.38887934819208,
              33.26955011869707
            ],
            [
              -116.39068584493977,
              33.268731858566554
            ],
            [
              -116.39257803599503,
              33.268059780048816
            ],
            [
              -116.39453875817588,
              33.26753997899288
            ],
            [
              -116.39655022795087,
              33.26717716997479
            ],
            [
              -116.39859420245304,
              33.26697464361016
            ],
            [
              -116.4006521446193,
              33.26693423676076
            ],
            [
              -116.40270539097085,
              33.26705631590495
            ],
            [
              -116.40473532052857,
              33.26733977381925
            ],
            [
              -116.40565344754272,
              33.267544011524144
            ],
            [
              -116.40715141040054,
              33.26779886652629
            ],
            [
              -116.40923110305066,
              33.26833839326683
            ],
            [
              -116.41123470658883,
              33.26904878021382
            ],
            [
              -116.41314185545743,
              33.26992280697114
            ],
            [
              -116.41493316261916,
              33.27095158966578
            ],
            [
              -116.41659041639174,
              33.27212467110463
            ],
            [
              -116.41809676543969,
              33.27343012691073
            ],
            [
              -116.41943689005062,
              33.274854686569284
            ],
            [
              -116.42059715795818,
              33.276383868160096
            ],
            [
              -116.42156576312564,
              33.278002125416755
            ],
            [
              -116.42233284607329,
              33.279693005624495
            ],
            [
              -116.42289059451461,
              33.28143931676054
            ],
            [
              -116.42323332326359,
              33.283223302182655
            ],
            [
              -116.4233575325813,
              33.285026821097354
            ],
            [
              -116.42337955782088,
              33.28780292873544
            ],
            [
              -116.42329207887859,
              33.2895349846412
            ],
            [
              -116.42300297646972,
              33.291251916870124
            ],
            [
              -116.42251494544682,
              33.29293764375846
            ],
            [
              -116.42183254471416,
              33.29457637502396
            ],
            [
              -116.42096215497376,
              33.29615275973608
            ],
            [
              -116.41991191935753,
              33.2976520302013
            ],
            [
              -116.41869166748657,
              33.29906014041127
            ],
            [
              -116.41731282365681,
              33.30036389775267
            ],
            [
              -116.41578830000154,
              33.30155108673881
            ],
            [
              -116.41413237562548,
              33.30261058359762
            ],
            [
              -116.41236056284002,
              33.30353246063656
            ],
            [
              -116.4104894617533,
              33.3043080793994
            ],
            [
              -116.40853660458187,
              33.30493017173671
            ],
            [
              -116.40652029115023,
              33.30539290802327
            ],
            [
              -116.40445941712993,
              33.30569195187983
            ],
            [
              -116.40237329664049,
              33.30582450088035
            ],
            [
              -116.40132655953138,
              33.30584888884265
            ],
            [
              -116.39931142142908,
              33.30581794161439
            ],
            [
              -116.39730852603255,
              33.30563160899329
            ],
            [
              -116.39586077965494,
              33.30538208561757
            ],
            [
              -116.39565091114633,
              33.30535133163437
            ],
            [
              -116.39528748623913,
              33.30528305013141
            ],
            [
              -116.39519584850366,
              33.30526179623435
            ],
            [
              -116.39504689340129,
              33.305230054036315
            ],
            [
              -116.39504770584047,
              33.305227436748766
            ]
          ]
        ]
      }
    }
  ],
  "name": "deanza_villas_2km_aoi"
}