{"type": "FeatureCollection", "features": [{"type": "Feature", "geometry": {"type": "Point", "coordinates": [-116.40657159745213, 33.289143489065694]}, "properties": {"accum": 672.2095947265625}}, {"type": "Feature", "geometry": {"type": "Point", "coordinates": [-116.40654357046893, 33.28912105350767]}, "properties": {"accum": 87.23188781738281}}, {"type": "Feature", "geometry": {"type": "Point", "coordinates": [-116.40651554350168, 33.28909861794209]}, "properties": {"accum": 101.93770599365234}}, {"type": "Feature", "geometry": {"type": "Point", "coordinates": [-116.40648751655038, 33.28907618236892]}, "properties": {"accum": 76.29668426513672}}, {"type": "Feature", "geometry": {"type": "Point", "coordinates": [-116.4064594896151, 33.28905374678817]}, "properties": {"accum": 70.9415054321289}}, {"type": "Feature", "geometry": {"type": "Point", "coordinates": [-116.40727024040389, 33.28889803907915]}, "properties": {"accum": 797.9991455078125}}, {"type": "Feature", "geometry": {"type": "Point", "coordinates": [-116.40643146269574, 33.28903131119984]}, "properties": {"accum": 67.33074951171875}}, {"type": "Feature", "geometry": {"type": "Point", "coordinates": [-116.40640343579236, 33.289008875603926]}, "properties": {"accum": 52.89712142944336}}, {"type": "Feature", "geometry": {"type": "Point", "coordinates": [-116.40637540890496, 33.28898644000042]}, "properties": {"accum": 46.93648147583008}}, {"type": "Feature", "geometry": {"type": "Point", "coordinates": [-116.40724260497898, 33.28879302895652]}, "properties": {"accum": 21.23064613342285}}, {"type": "Feature", "geometry": {"type": "Point", "coordinates": [-116.40509909605761, 33.28918044769732]}, "properties": {"accum": 3617.179443359375}}, {"type": "Feature", "geometry": {"type": "Point", "coordinates": [-116.40503708914304, 33.28915498598698]}, "properties": {"accum": 204.08872985839844}}, {"type": "Feature", "geometry": {"type": "Point", "coordinates": [-116.40502192450971, 33.289139392579266]}, "properties": {"accum": 105.26174926757812}}, {"type": "Feature", "geometry": {"type": "Point", "coordinates": [-116.40500675988235, 33.28912379916917]}, "properties": {"accum": 46.38597106933594}}, {"type": "Feature", "geometry": {"type": "Point", "coordinates": [-116.40499159526104, 33.28910820575674]}, "properties": {"accum": 67.93464660644531}}, {"type": "Feature", "geometry": {"type": "Point", "coordinates": [-116.4049764306457, 33.28909261234194]}, "properties": {"accum": 53.862064361572266}}, {"type": "Feature", "geometry": {"type": "Point", "coordinates": [-116.40496126603638, 33.28907701892478]}, "properties": {"accum": 120.01914978027344}}, {"type": "Feature", "geometry": {"type": "Point", "coordinates": [-116.40494610143308, 33.289061425505274]}, "properties": {"accum": 50.869503021240234}}, {"type": "Feature", "geometry": {"type": "Point", "coordinates": [-116.40493093683575, 33.28904583208341]}, "properties": {"accum": 204.6580810546875}}, {"type": "Feature", "geometry": {"type": "Point", "coordinates": [-116.40485837088798, 33.289022278623385]}, "properties": {"accum": 246.43328857421875}}, {"type": "Feature", "geometry": {"type": "Point", "coordinates": [-116.40454429200086, 33.28900570475832]}, "properties": {"accum": 1045.3677978515625}}, {"type": "Feature", "geometry": {"type": "Point", "coordinates": [-116.40451031174915, 33.289002678807925]}, "properties": {"accum": 9.607080459594727}}, {"type": "Feature", "geometry": {"type": "Point", "coordinates": [-116.40443179205282, 33.28899853518387]}, "properties": {"accum": 76.43376922607422}}, {"type": "Feature", "geometry": {"type": "Point", "coordinates": [-116.40247277336577, 33.28928839050312]}, "properties": {"accum": 7084.2099609375}}, {"type": "Feature", "geometry": {"type": "Point", "coordinates": [-116.40244935235916, 33.28928345581741]}, "properties": {"accum": 1744.830810546875}}, {"type": "Feature", "geometry": {"type": "Point", "coordinates": [-116.40748781273918, 33.28825368307273]}, "properties": {"accum": 973.720703125}}, {"type": "Feature", "geometry": {"type": "Point", "coordinates": [-116.4022692885267, 33.289187656310865]}, "properties": {"accum": 69.34371948242188}}, {"type": "Feature", "geometry": {"type": "Point", "coordinates": [-116.40749146288348, 33.288225521942834]}, "properties": {"accum": 258.9638977050781}}, {"type": "Feature", "geometry": {"type": "Point", "coordinates": [-116.40190471546538, 33.28918936668293]}, "properties": {"accum": 920.5361328125}}, {"type": "Feature", "geometry": {"type": "Point", "coordinates": [-116.40748820414856, 33.28817110826994]}, "properties": {"accum": 304.9735412597656}}, {"type": "Feature", "geometry": {"type": "Point", "coordinates": [-116.40178626091388, 33.289201604481335]}, "properties": {"accum": 268.3328857421875}}, {"type": "Feature", "geometry": {"type": "Point", "coordinates": [-116.40166780632559, 33.28921384215718]}, "properties": {"accum": 123.7120590209961}}, {"type": "Feature", "geometry": {"type": "Point", "coordinates": [-116.40159158890162, 33.28921844754069]}, "properties": {"accum": 244.4277801513672}}, {"type": "Feature", "geometry": {"type": "Point", "coordinates": [-116.40745461558801, 33.288085508375296]}, "properties": {"accum": 88.38056945800781}}, {"type": "Feature", "geometry": {"type": "Point", "coordinates": [-116.40743945068193, 33.28806991526306]}, "properties": {"accum": 25.62065887451172}}, {"type": "Feature", "geometry": {"type": "Point", "coordinates": [-116.40081464876175, 33.28916632996575]}, "properties": {"accum": 1901.6925048828125}}, {"type": "Feature", "geometry": {"type": "Point", "coordinates": [-116.40733733825961, 33.28785002743365]}, "properties": {"accum": 1494.020751953125}}, {"type": "Feature", "geometry": {"type": "Point", "coordinates": [-116.40726651161523, 33.28770698860089]}, "properties": {"accum": 852.31396484375}}, {"type": "Feature", "geometry": {"type": "Point", "coordinates": [-116.40721775872076, 33.287605795431546]}, "properties": {"accum": 440.708984375}}, {"type": "Feature", "geometry": {"type": "Point", "coordinates": [-116.40719568522807, 33.28756394969466]}, "properties": {"accum": 23.459896087646484}}, {"type": "Feature", "geometry": {"type": "Point", "coordinates": [-116.40717130885496, 33.287513353088855]}, "properties": {"accum": 64.72339630126953}}, {"type": "Feature", "geometry": {"type": "Point", "coordinates": [-116.40022096286857, 33.288549412561885]}, "properties": {"accum": 20.978946685791016}}, {"type": "Feature", "geometry": {"type": "Point", "coordinates": [-116.40702965703198, 33.287227275004874]}, "properties": {"accum": 497.9847412109375}}, {"type": "Feature", "geometry": {"type": "Point", "coordinates": [-116.40700528086973, 33.28717667833905]}, "properties": {"accum": 113.13453674316406}}, {"type": "Feature", "geometry": {"type": "Point", "coordinates": [-116.40698320761021, 33.287134832535195]}, "properties": {"accum": 87.52082824707031}}, {"type": "Feature", "geometry": {"type": "Point", "coordinates": [-116.40696804298055, 33.287119239339084]}, "properties": {"accum": 46.111778259277344}}, {"type": "Feature", "geometry": {"type": "Point", "coordinates": [-116.4069588315064, 33.287084235852696]}, "properties": {"accum": 5.0}}, {"type": "Feature", "geometry": {"type": "Point", "coordinates": [-116.4069344554339, 33.2870336391613]}, "properties": {"accum": 55.824649810791016}}, {"type": "Feature", "geometry": {"type": "Point", "coordinates": [-116.40691238225213, 33.28699179333509]}, "properties": {"accum": 103.88323211669922}}, {"type": "Feature", "geometry": {"type": "Point", "coordinates": [-116.40013348109312, 33.288216874881975]}, "properties": {"accum": 379.6676330566406}}, {"type": "Feature", "geometry": {"type": "Point", "coordinates": [-116.40688800623805, 33.28694119662703]}, "properties": {"accum": 175.45616149902344}}, {"type": "Feature", "geometry": {"type": "Point", "coordinates": [-116.40686363025533, 33.28689059991007]}, "properties": {"accum": 236.79421997070312}}, {"type": "Feature", "geometry": {"type": "Point", "coordinates": [-116.40684155715127, 33.28684875406154]}, "properties": {"accum": 224.66714477539062}}, {"type": "Feature", "geometry": {"type": "Point", "coordinates": [-116.4000897404824, 33.28805060595675]}, "properties": {"accum": 50.759883880615234}}, {"type": "Feature", "geometry": {"type": "Point", "coordinates": [-116.40681718122698, 33.28679815732791]}, "properties": {"accum": 108.71472930908203}}, {"type": "Feature", "geometry": {"type": "Point", "coordinates": [-116.40679280533402, 33.286747560585376]}, "properties": {"accum": 102.74663543701172}}, {"type": "Feature", "geometry": {"type": "Point", "coordinates": [-116.40005981280254, 33.287936842975164]}, "properties": {"accum": 8.583206176757812}}, {"type": "Feature", "geometry": {"type": "Point", "coordinates": [-116.40677073230766, 33.28670571471452]}, "properties": {"accum": 75.40778350830078}}, {"type": "Feature", "geometry": {"type": "Point", "coordinates": [-116.40674635647315, 33.28665511795533]}, "properties": {"accum": 72.74352264404297}}, {"type": "Feature", "geometry": {"type": "Point", "coordinates": [-116.40003679156918, 33.28784933297125]}, "properties": {"accum": 32.31993103027344}}, {"type": "Feature", "geometry": {"type": "Point", "coordinates": [-116.40672198066996, 33.28660452118723]}, "properties": {"accum": 81.51100158691406}}, {"type": "Feature", "geometry": {"type": "Point", "coordinates": [-116.40669990772133, 33.28656267529406]}, "properties": {"accum": 96.9845962524414}}, {"type": "Feature", "geometry": {"type": "Point", "coordinates": [-116.40662908339222, 33.28641963580009]}, "properties": {"accum": 489.4876708984375}}, {"type": "Feature", "geometry": {"type": "Point", "coordinates": [-116.40660470773724, 33.28636903898977]}, "properties": {"accum": 291.08245849609375}}, {"type": "Feature", "geometry": {"type": "Point", "coordinates": [-116.40658033211359, 33.28631844217051]}, "properties": {"accum": 55.26112365722656}}, {"type": "Feature", "geometry": {"type": "Point", "coordinates": [-116.40012691316373, 33.28739303453271]}, "properties": {"accum": 2468.320556640625}}, {"type": "Feature", "geometry": {"type": "Point", "coordinates": [-116.40653388375517, 33.28622599939678]}, "properties": {"accum": 54.99053192138672}}, {"type": "Feature", "geometry": {"type": "Point", "coordinates": [-116.40014112498599, 33.287362965686526]}, "properties": {"accum": 432180.28125}}, {"type": "Feature", "geometry": {"type": "Point", "coordinates": [-116.4001365207507, 33.28734546367565]}, "properties": {"accum": 12.593899726867676}}, {"type": "Feature", "geometry": {"type": "Point", "coordinates": [-116.400135569249, 33.28729980073065]}, "properties": {"accum": 28.93763542175293}}, {"type": "Feature", "geometry": {"type": "Point", "coordinates": [-116.40648743550578, 33.286133556591786]}, "properties": {"accum": 132.3366241455078}}, {"type": "Feature", "geometry": {"type": "Point", "coordinates": [-116.40013731897426, 33.28718031389302]}, "properties": {"accum": 387.3011779785156}}, {"type": "Feature", "geometry": {"type": "Point", "coordinates": [-116.40641661194846, 33.28599051687745]}, "properties": {"accum": 620.5617065429688}}, {"type": "Feature", "geometry": {"type": "Point", "coordinates": [-116.40014367291346, 33.28707832905257]}, "properties": {"accum": 66.06609344482422}}, {"type": "Feature", "geometry": {"type": "Point", "coordinates": [-116.40639223656275, 33.28593991999039]}, "properties": {"accum": 122.74819946289062}}, {"type": "Feature", "geometry": {"type": "Point", "coordinates": [-116.40013811719449, 33.2870151640707]}, "properties": {"accum": 37.11505889892578}}, {"type": "Feature", "geometry": {"type": "Point", "coordinates": [-116.40013716569585, 33.28696950110379]}, "properties": {"accum": 107.72369384765625}}, {"type": "Feature", "geometry": {"type": "Point", "coordinates": [-116.40014312051495, 33.28695009116597]}, "properties": {"accum": 61.33753204345703}}, {"type": "Feature", "geometry": {"type": "Point", "coordinates": [-116.40632141335243, 33.28579688017698]}, "properties": {"accum": 508.6826171875}}, {"type": "Feature", "geometry": {"type": "Point", "coordinates": [-116.40014216901417, 33.28690442819478]}, "properties": {"accum": 19.189701080322266}}, {"type": "Feature", "geometry": {"type": "Point", "coordinates": [-116.40013756480546, 33.286886926172315]}, "properties": {"accum": 10.769458770751953}}, {"type": "Feature", "geometry": {"type": "Point", "coordinates": [-116.40629703808783, 33.285746283255484]}, "properties": {"accum": 177.34320068359375}}, {"type": "Feature", "geometry": {"type": "Point", "coordinates": [-116.40013891541138, 33.2868500142088]}, "properties": {"accum": 925.9742431640625}}, {"type": "Feature", "geometry": {"type": "Point", "coordinates": [-116.40627496560548, 33.28570443722831]}, "properties": {"accum": 153.5615997314453}}, {"type": "Feature", "geometry": {"type": "Point", "coordinates": [-116.40013796391426, 33.286804351230934]}, "properties": {"accum": 226.5996551513672}}, {"type": "Feature", "geometry": {"type": "Point", "coordinates": [-116.40013931451854, 33.28676743926299]}, "properties": {"accum": 135.8138885498047}}, {"type": "Feature", "geometry": {"type": "Point", "coordinates": [-116.40625059039934, 33.28565384029013]}, "properties": {"accum": 96.84783172607422}}, {"type": "Feature", "geometry": {"type": "Point", "coordinates": [-116.40623312345524, 33.285629496058704]}, "properties": {"accum": 120.93096160888672}}, {"type": "Feature", "geometry": {"type": "Point", "coordinates": [-116.40014066512157, 33.286730527293045]}, "properties": {"accum": 59.57229232788086}}, {"type": "Feature", "geometry": {"type": "Point", "coordinates": [-116.40622621522449, 33.28560324334305]}, "properties": {"accum": 64.8718490600586}}, {"type": "Feature", "geometry": {"type": "Point", "coordinates": [-116.40621105103958, 33.28558765001215]}, "properties": {"accum": 16.082508087158203}}, {"type": "Feature", "geometry": {"type": "Point", "coordinates": [-116.4001397136249, 33.286684864307276]}, "properties": {"accum": 56.74063491821289}}, {"type": "Feature", "geometry": {"type": "Point", "coordinates": [-116.40013876212932, 33.286639201318444]}, "properties": {"accum": 208.1385498046875}}, {"type": "Feature", "geometry": {"type": "Point", "coordinates": [-116.40617976770348, 33.2855108003298]}, "properties": {"accum": 148.2252655029297}}, {"type": "Feature", "geometry": {"type": "Point", "coordinates": [-116.40014011273038, 33.28660228934165]}, "properties": {"accum": 62.1866569519043}}, {"type": "Feature", "geometry": {"type": "Point", "coordinates": [-116.4061553926184, 33.285460203357154]}, "properties": {"accum": 236.5044708251953}}, {"type": "Feature", "geometry": {"type": "Point", "coordinates": [-116.40012304658754, 33.28649536923458]}, "properties": {"accum": 1693.8662109375}}, {"type": "Feature", "geometry": {"type": "Point", "coordinates": [-116.40617594777751, 33.285328148245625]}, "properties": {"accum": 409.4673156738281}}, {"type": "Feature", "geometry": {"type": "Point", "coordinates": [-116.4061819009843, 33.285308737947965]}, "properties": {"accum": 37.056087493896484}}, {"type": "Feature", "geometry": {"type": "Point", "coordinates": [-116.40009311945053, 33.286381606004724]}, "properties": {"accum": 157.30043029785156}}, {"type": "Feature", "geometry": {"type": "Point", "coordinates": [-116.40621762016352, 33.28519227614399]}, "properties": {"accum": 384.1167907714844}}, {"type": "Feature", "geometry": {"type": "Point", "coordinates": [-116.40007009863473, 33.28629409580979]}, "properties": {"accum": 245.33352661132812}}, {"type": "Feature", "geometry": {"type": "Point", "coordinates": [-116.40622357334978, 33.28517286584033]}, "properties": {"accum": 291.2191162109375}}, {"type": "Feature", "geometry": {"type": "Point", "coordinates": [-116.4062354797135, 33.28513404523045]}, "properties": {"accum": 236.1993408203125}}, {"type": "Feature", "geometry": {"type": "Point", "coordinates": [-116.40624143289098, 33.285114634924234]}, "properties": {"accum": 17.426742553710938}}, {"type": "Feature", "geometry": {"type": "Point", "coordinates": [-116.40004247372332, 33.28618908355509]}, "properties": {"accum": 25858.3828125}}, {"type": "Feature", "geometry": {"type": "Point", "coordinates": [-116.4065180896715, 33.284862951492485]}, "properties": {"accum": 847.42919921875}}, {"type": "Feature", "geometry": {"type": "Point", "coordinates": [-116.40652404275882, 33.284843541163944]}, "properties": {"accum": 39.105133056640625}}, {"type": "Feature", "geometry": {"type": "Point", "coordinates": [-116.4065276930897, 33.284815379925206]}, "properties": {"accum": 360.9266357421875}}, {"type": "Feature", "geometry": {"type": "Point", "coordinates": [-116.39998126933735, 33.28599846893476]}, "properties": {"accum": 2.0}}, {"type": "Feature", "geometry": {"type": "Point", "coordinates": [-116.39996380425464, 33.28597412376056]}, "properties": {"accum": 3.1737051010131836}}, {"type": "Feature", "geometry": {"type": "Point", "coordinates": [-116.3999311761744, 33.28593418442934]}, "properties": {"accum": 32.584205627441406}}, {"type": "Feature", "geometry": {"type": "Point", "coordinates": [-116.3999091070216, 33.2858923371883]}, "properties": {"accum": 10.187440872192383}}, {"type": "Feature", "geometry": {"type": "Point", "coordinates": [-116.39984615305751, 33.28582120950446]}, "properties": {"accum": 9783.541015625}}, {"type": "Feature", "geometry": {"type": "Point", "coordinates": [-116.40637509734404, 33.28461378365884]}, "properties": {"accum": 12.620997428894043}}, {"type": "Feature", "geometry": {"type": "Point", "coordinates": [-116.4063576305921, 33.28458943940959]}, "properties": {"accum": 74.19930267333984}}, {"type": "Feature", "geometry": {"type": "Point", "coordinates": [-116.40634246657635, 33.284573846073094]}, "properties": {"accum": 9.422242164611816}}, {"type": "Feature", "geometry": {"type": "Point", "coordinates": [-116.40632499984335, 33.284549501817445]}, "properties": {"accum": 60.894874572753906}}, {"type": "Feature", "geometry": {"type": "Point", "coordinates": [-116.40630983584175, 33.28453390847573]}, "properties": {"accum": 16.601707458496094}}, {"type": "Feature", "geometry": {"type": "Point", "coordinates": [-116.40627720514026, 33.28449397086676]}, "properties": {"accum": 31.044063568115234}}, {"type": "Feature", "geometry": {"type": "Point", "coordinates": [-116.39955505262687, 33.28517711731753]}, "properties": {"accum": 66.17678833007812}}, {"type": "Feature", "geometry": {"type": "Point", "coordinates": [-116.39952512681114, 33.28506335372155]}, "properties": {"accum": 47.639556884765625}}, {"type": "Feature", "geometry": {"type": "Point", "coordinates": [-116.39951361690504, 33.28501959848523]}, "properties": {"accum": 3556.98388671875}}, {"type": "Feature", "geometry": {"type": "Point", "coordinates": [-116.39943765184547, 33.28473081382679]}, "properties": {"accum": 6.805353164672852}}, {"type": "Feature", "geometry": {"type": "Point", "coordinates": [-116.40647005821671, 33.28337738789771]}, "properties": {"accum": 3960.37548828125}}, {"type": "Feature", "geometry": {"type": "Point", "coordinates": [-116.4064760112036, 33.28335797752973]}, "properties": {"accum": 58.70066833496094}}, {"type": "Feature", "geometry": {"type": "Point", "coordinates": [-116.40647140579479, 33.28334047567146]}, "properties": {"accum": 57.28230667114258}}, {"type": "Feature", "geometry": {"type": "Point", "coordinates": [-116.40645393929546, 33.283316131391814]}, "properties": {"accum": 600.0385131835938}}, {"type": "Feature", "geometry": {"type": "Point", "coordinates": [-116.40640153986224, 33.28324309853178]}, "properties": {"accum": 224.96328735351562}}, {"type": "Feature", "geometry": {"type": "Point", "coordinates": [-116.39939891841925, 33.28449947069019]}, "properties": {"accum": 133.8221893310547}}, {"type": "Feature", "geometry": {"type": "Point", "coordinates": [-116.39939336347946, 33.2844363054356]}, "properties": {"accum": 46.966705322265625}}, {"type": "Feature", "geometry": {"type": "Point", "coordinates": [-116.39993225640731, 33.28425642830149]}, "properties": {"accum": 65.94686889648438}}, {"type": "Feature", "geometry": {"type": "Point", "coordinates": [-116.40052624211728, 33.28407575983754]}, "properties": {"accum": 486.89105224609375}}, {"type": "Feature", "geometry": {"type": "Point", "coordinates": [-116.40621496974138, 33.28303847616538]}, "properties": {"accum": 273.43353271484375}}, {"type": "Feature", "geometry": {"type": "Point", "coordinates": [-116.40618099199983, 33.283035450683826]}, "properties": {"accum": 169.9803466796875}}, {"type": "Feature", "geometry": {"type": "Point", "coordinates": [-116.40102654784728, 33.28387534821775]}, "properties": {"accum": 12.122891426086426}}, {"type": "Feature", "geometry": {"type": "Point", "coordinates": [-116.40085761023553, 33.283905876207335]}, "properties": {"accum": 34.87710952758789}}, {"type": "Feature", "geometry": {"type": "Point", "coordinates": [-116.40081537581213, 33.28391350816563]}, "properties": {"accum": 4.653685092926025}}, {"type": "Feature", "geometry": {"type": "Point", "coordinates": [-116.4012867040972, 33.28364499503946]}, "properties": {"accum": 14.164101600646973}}, {"type": "Feature", "geometry": {"type": "Point", "coordinates": [-116.40546268734428, 33.28274359725722]}, "properties": {"accum": 3350.0849609375}}, {"type": "Feature", "geometry": {"type": "Point", "coordinates": [-116.40133338614119, 33.283444051094406]}, "properties": {"accum": 3.0}}, {"type": "Feature", "geometry": {"type": "Point", "coordinates": [-116.40133934039895, 33.283424640995044]}, "properties": {"accum": 2.0}}, {"type": "Feature", "geometry": {"type": "Point", "coordinates": [-116.4013452946538, 33.28340523089481]}, "properties": {"accum": 5.0}}, {"type": "Feature", "geometry": {"type": "Point", "coordinates": [-116.40135490101846, 33.28335765966006]}, "properties": {"accum": 9.533323287963867}}, {"type": "Feature", "geometry": {"type": "Point", "coordinates": [-116.4013608552644, 33.283338249557126]}, "properties": {"accum": 6.466677188873291}}, {"type": "Feature", "geometry": {"type": "Point", "coordinates": [-116.40137276374747, 33.283299429348716]}, "properties": {"accum": 4.0}}, {"type": "Feature", "geometry": {"type": "Point", "coordinates": [-116.40521372533685, 33.282596086828164]}, "properties": {"accum": 982.2191772460938}}, {"type": "Feature", "geometry": {"type": "Point", "coordinates": [-116.40137641584852, 33.283271268210804]}, "properties": {"accum": 2.0}}, {"type": "Feature", "geometry": {"type": "Point", "coordinates": [-116.40138237008263, 33.283251858104336]}, "properties": {"accum": 5.366498947143555}}, {"type": "Feature", "geometry": {"type": "Point", "coordinates": [-116.40138832431381, 33.28323244799701]}, "properties": {"accum": 2.6335010528564453}}, {"type": "Feature", "geometry": {"type": "Point", "coordinates": [-116.40139427854204, 33.28321303788881]}, "properties": {"accum": 10.0}}, {"type": "Feature", "geometry": {"type": "Point", "coordinates": [-116.40510853595026, 33.282532595271014]}, "properties": {"accum": 601.968017578125}}, {"type": "Feature", "geometry": {"type": "Point", "coordinates": [-116.40140388485368, 33.28316546663666]}, "properties": {"accum": 4.0}}, {"type": "Feature", "geometry": {"type": "Point", "coordinates": [-116.40140983907301, 33.28314605652577]}, "properties": {"accum": 5.0}}, {"type": "Feature", "geometry": {"type": "Point", "coordinates": [-116.40141579328943, 33.28312664641403]}, "properties": {"accum": 5.0}}, {"type": "Feature", "geometry": {"type": "Point", "coordinates": [-116.40500334673322, 33.282469103611504]}, "properties": {"accum": 185.72164916992188}}, {"type": "Feature", "geometry": {"type": "Point", "coordinates": [-116.4014194453671, 33.283098485267686]}, "properties": {"accum": 7.136626243591309}}, {"type": "Feature", "geometry": {"type": "Point", "coordinates": [-116.40142539957753, 33.283079075154106]}, "properties": {"accum": 5.894964694976807}}, {"type": "Feature", "geometry": {"type": "Point", "coordinates": [-116.40493904262561, 33.28243489062961]}, "properties": {"accum": 190.65313720703125}}, {"type": "Feature", "geometry": {"type": "Point", "coordinates": [-116.40143135378503, 33.283059665039666]}, "properties": {"accum": 6.087418556213379}}, {"type": "Feature", "geometry": {"type": "Point", "coordinates": [-116.4014373079896, 33.283040254924366]}, "properties": {"accum": 6.368055820465088}}, {"type": "Feature", "geometry": {"type": "Point", "coordinates": [-116.40144326219124, 33.28302084480822]}, "properties": {"accum": 6.115347385406494}}, {"type": "Feature", "geometry": {"type": "Point", "coordinates": [-116.40144096005558, 33.283012093773785]}, "properties": {"accum": 42.67195129394531}}, {"type": "Feature", "geometry": {"type": "Point", "coordinates": [-116.40495269151997, 33.28227658223624]}, "properties": {"accum": 629.041748046875}}, {"type": "Feature", "geometry": {"type": "Point", "coordinates": [-116.40495864479759, 33.28225717191601]}, "properties": {"accum": 209.19749450683594}}, {"type": "Feature", "geometry": {"type": "Point", "coordinates": [-116.40148033724837, 33.282867471900374]}, "properties": {"accum": 6.254942893981934}}, {"type": "Feature", "geometry": {"type": "Point", "coordinates": [-116.40496229556827, 33.28222901062124]}, "properties": {"accum": 87.45217895507812}}, {"type": "Feature", "geometry": {"type": "Point", "coordinates": [-116.40148629142635, 33.28284806177711]}, "properties": {"accum": 6.58749532699585}}, {"type": "Feature", "geometry": {"type": "Point", "coordinates": [-116.40496824883992, 33.282209600299176]}, "properties": {"accum": 138.1453399658203}}, {"type": "Feature", "geometry": {"type": "Point", "coordinates": [-116.40497420210863, 33.282190189976234]}, "properties": {"accum": 48.28656768798828}}, {"type": "Feature", "geometry": {"type": "Point", "coordinates": [-116.40497785287064, 33.28216202867822]}, "properties": {"accum": 83.3350601196289}}, {"type": "Feature", "geometry": {"type": "Point", "coordinates": [-116.40498380613339, 33.28214261835345]}, "properties": {"accum": 41.193115234375}}, {"type": "Feature", "geometry": {"type": "Point", "coordinates": [-116.4049897593932, 33.28212320802781]}, "properties": {"accum": 52.43228530883789}}, {"type": "Feature", "geometry": {"type": "Point", "coordinates": [-116.40499341014656, 33.28209504672657]}, "properties": {"accum": 49.68757629394531}}, {"type": "Feature", "geometry": {"type": "Point", "coordinates": [-116.40499936340042, 33.2820756363991]}, "properties": {"accum": 28.041906356811523}}, {"type": "Feature", "geometry": {"type": "Point", "coordinates": [-116.40500531665134, 33.282056226070765]}, "properties": {"accum": 22.184673309326172}}, {"type": "Feature", "geometry": {"type": "Point", "coordinates": [-116.40165371937042, 33.2826436308997]}, "properties": {"accum": 33.0}}, {"type": "Feature", "geometry": {"type": "Point", "coordinates": [-116.40501492064098, 33.28200865443611]}, "properties": {"accum": 25.980113983154297}}, {"type": "Feature", "geometry": {"type": "Point", "coordinates": [-116.405020873883, 33.281989244105084]}, "properties": {"accum": 68.84925079345703}}, {"type": "Feature", "geometry": {"type": "Point", "coordinates": [-116.40502452461901, 33.28196108279738]}, "properties": {"accum": 19.213186264038086}}, {"type": "Feature", "geometry": {"type": "Point", "coordinates": [-116.40503047785509, 33.281941672464505]}, "properties": {"accum": 47.26340103149414}}, {"type": "Feature", "geometry": {"type": "Point", "coordinates": [-116.4050364310882, 33.28192226213077]}, "properties": {"accum": 74.77205657958984}}, {"type": "Feature", "geometry": {"type": "Point", "coordinates": [-116.40504008181556, 33.28189410081983]}, "properties": {"accum": 127.68644714355469}}, {"type": "Feature", "geometry": {"type": "Point", "coordinates": [-116.40504603504273, 33.28187469048425]}, "properties": {"accum": 117.97106170654297}}, {"type": "Feature", "geometry": {"type": "Point", "coordinates": [-116.40505198826698, 33.28185528014783]}, "properties": {"accum": 205.1302490234375}}, {"type": "Feature", "geometry": {"type": "Point", "coordinates": [-116.40505563898564, 33.28182711883365]}, "properties": {"accum": 47.18269348144531}}, {"type": "Feature", "geometry": {"type": "Point", "coordinates": [-116.40506159220391, 33.281807708495364]}, "properties": {"accum": 56.36856460571289}}, {"type": "Feature", "geometry": {"type": "Point", "coordinates": [-116.40506524291693, 33.28177954717893]}, "properties": {"accum": 394.328369140625}}, {"type": "Feature", "geometry": {"type": "Point", "coordinates": [-116.40499156311357, 33.281499515821466]}, "properties": {"accum": 499.2416076660156}}, {"type": "Feature", "geometry": {"type": "Point", "coordinates": [-116.4049224887737, 33.28123698627733]}, "properties": {"accum": 37.6094970703125}}, {"type": "Feature", "geometry": {"type": "Point", "coordinates": [-116.4049132788965, 33.281201982327374]}, "properties": {"accum": 28.37782096862793}}, {"type": "Feature", "geometry": {"type": "Point", "coordinates": [-116.40487874192993, 33.28107071749267]}, "properties": {"accum": 1949.2271728515625}}, {"type": "Feature", "geometry": {"type": "Point", "coordinates": [-116.40456896934063, 33.28065001611115]}, "properties": {"accum": 93.48687744140625}}, {"type": "Feature", "geometry": {"type": "Point", "coordinates": [-116.40452348064889, 33.280603235117056]}, "properties": {"accum": 82.7432861328125}}, {"type": "Feature", "geometry": {"type": "Point", "coordinates": [-116.4044968057434, 33.28054388642692]}, "properties": {"accum": 211.11141967773438}}, {"type": "Feature", "geometry": {"type": "Point", "coordinates": [-116.40447013087815, 33.28048453772547]}, "properties": {"accum": 134.5124969482422}}, {"type": "Feature", "geometry": {"type": "Point", "coordinates": [-116.40444345605304, 33.28042518901268]}, "properties": {"accum": 78.25454711914062}}, {"type": "Feature", "geometry": {"type": "Point", "coordinates": [-116.40441678126817, 33.280365840288574]}, "properties": {"accum": 154.2527618408203}}, {"type": "Feature", "geometry": {"type": "Point", "coordinates": [-116.40439010652348, 33.28030649155313]}, "properties": {"accum": 88.82807922363281}}, {"type": "Feature", "geometry": {"type": "Point", "coordinates": [-116.40436343181898, 33.28024714280637]}, "properties": {"accum": 181.61497497558594}}, {"type": "Feature", "geometry": {"type": "Point", "coordinates": [-116.40433675715468, 33.28018779404827]}, "properties": {"accum": 132.17041015625}}, {"type": "Feature", "geometry": {"type": "Point", "coordinates": [-116.40431008253057, 33.280128445278855]}, "properties": {"accum": 195.67649841308594}}, {"type": "Feature", "geometry": {"type": "Point", "coordinates": [-116.40428340794666, 33.28006909649809]}, "properties": {"accum": 179.02053833007812}}, {"type": "Feature", "geometry": {"type": "Point", "coordinates": [-116.40426594284901, 33.28004475176937]}, "properties": {"accum": 168.63377380371094}}, {"type": "Feature", "geometry": {"type": "Point", "coordinates": [-116.40425078012225, 33.28002915805324]}, "properties": {"accum": 83.03623962402344}}, {"type": "Feature", "geometry": {"type": "Point", "coordinates": [-116.4042356174015, 33.280013564334745]}, "properties": {"accum": 16.748823165893555}}, {"type": "Feature", "geometry": {"type": "Point", "coordinates": [-116.40422045468677, 33.27999797061388]}, "properties": {"accum": 60.01613998413086}}, {"type": "Feature", "geometry": {"type": "Point", "coordinates": [-116.40420529197802, 33.27998237689066]}, "properties": {"accum": 24.420854568481445}}, {"type": "Feature", "geometry": {"type": "Point", "coordinates": [-116.40419012927529, 33.279966783165094]}, "properties": {"accum": 30.881805419921875}}, {"type": "Feature", "geometry": {"type": "Point", "coordinates": [-116.40417496657857, 33.27995118943716]}, "properties": {"accum": 41.391136169433594}}, {"type": "Feature", "geometry": {"type": "Point", "coordinates": [-116.40415980388781, 33.27993559570688]}, "properties": {"accum": 30.94546890258789}}, {"type": "Feature", "geometry": {"type": "Point", "coordinates": [-116.40414464120309, 33.27992000197422]}, "properties": {"accum": 48.22465896606445}}, {"type": "Feature", "geometry": {"type": "Point", "coordinates": [-116.40412947852438, 33.279904408239204]}, "properties": {"accum": 83.62193298339844}}, {"type": "Feature", "geometry": {"type": "Point", "coordinates": [-116.40411431585167, 33.27988881450184]}, "properties": {"accum": 53.402652740478516}}, {"type": "Feature", "geometry": {"type": "Point", "coordinates": [-116.40409915318494, 33.27987322076212]}, "properties": {"accum": 42.22413635253906}}, {"type": "Feature", "geometry": {"type": "Point", "coordinates": [-116.40408399052424, 33.279857627020036]}, "properties": {"accum": 134.88308715820312}}, {"type": "Feature", "geometry": {"type": "Point", "coordinates": [-116.40406882786952, 33.2798420332756]}, "properties": {"accum": 88.86845397949219}}, {"type": "Feature", "geometry": {"type": "Point", "coordinates": [-116.40405366522083, 33.2798264395288]}, "properties": {"accum": 70.55050659179688}}, {"type": "Feature", "geometry": {"type": "Point", "coordinates": [-116.40403850257812, 33.279810845779636]}, "properties": {"accum": 10.89893627166748}}, {"type": "Feature", "geometry": {"type": "Point", "coordinates": [-116.40402333994142, 33.279795252028116]}, "properties": {"accum": 53.74503707885742}}, {"type": "Feature", "geometry": {"type": "Point", "coordinates": [-116.40400817731074, 33.27977965827424]}, "properties": {"accum": 53.52009963989258}}, {"type": "Feature", "geometry": {"type": "Point", "coordinates": [-116.40399301468605, 33.279764064518005]}, "properties": {"accum": 22.192115783691406}}, {"type": "Feature", "geometry": {"type": "Point", "coordinates": [-116.40397785206736, 33.279748470759394]}, "properties": {"accum": 38.70707321166992}}, {"type": "Feature", "geometry": {"type": "Point", "coordinates": [-116.40396268945467, 33.27973287699845]}, "properties": {"accum": 47.04370880126953}}, {"type": "Feature", "geometry": {"type": "Point", "coordinates": [-116.40390203906398, 33.27967050193105]}, "properties": {"accum": 227.32835388183594}}, {"type": "Feature", "geometry": {"type": "Point", "coordinates": [-116.40387171390466, 33.27963931438318]}, "properties": {"accum": 118.76997375488281}}, {"type": "Feature", "geometry": {"type": "Point", "coordinates": [-116.40385655133399, 33.27962372060573]}, "properties": {"accum": 14.927247047424316}}, {"type": "Feature", "geometry": {"type": "Point", "coordinates": [-116.40375732037906, 33.27954081719458]}, "properties": {"accum": 387.13623046875}}, {"type": "Feature", "geometry": {"type": "Point", "coordinates": [-116.4037339021903, 33.27953588270133]}, "properties": {"accum": 176.79432678222656}}, {"type": "Feature", "geometry": {"type": "Point", "coordinates": [-116.4036953214866, 33.27951535440201]}, "properties": {"accum": 283.6326599121094}}, {"type": "Feature", "geometry": {"type": "Point", "coordinates": [-116.40353274319557, 33.2794439003573]}, "properties": {"accum": 75.8541030883789}}, {"type": "Feature", "geometry": {"type": "Point", "coordinates": [-116.40345788425722, 33.2794115946441]}, "properties": {"accum": 207.72959899902344}}, {"type": "Feature", "geometry": {"type": "Point", "coordinates": [-116.40340874574848, 33.279392974487656]}, "properties": {"accum": 146.03292846679688}}, {"type": "Feature", "geometry": {"type": "Point", "coordinates": [-116.40154593661907, 33.27971130725754]}, "properties": {"accum": 15.0}}, {"type": "Feature", "geometry": {"type": "Point", "coordinates": [-116.4033338869094, 33.27936066869108]}, "properties": {"accum": 179.8525390625}}, {"type": "Feature", "geometry": {"type": "Point", "coordinates": [-116.40328474846173, 33.27934204848012]}, "properties": {"accum": 66.3000259399414}}, {"type": "Feature", "geometry": {"type": "Point", "coordinates": [-116.4015252181844, 33.27963254758171]}, "properties": {"accum": 15.0}}, {"type": "Feature", "geometry": {"type": "Point", "coordinates": [-116.4032333078106, 33.27931467720211]}, "properties": {"accum": 87.815185546875}}, {"type": "Feature", "geometry": {"type": "Point", "coordinates": [-116.40320988972188, 33.279309742600205]}, "properties": {"accum": 70.84296417236328}}, {"type": "Feature", "geometry": {"type": "Point", "coordinates": [-116.40317130926552, 33.27928921411782]}, "properties": {"accum": 231.3853302001953}}, {"type": "Feature", "geometry": {"type": "Point", "coordinates": [-116.4030964506224, 33.27925690816136]}, "properties": {"accum": 134.8697052001953}}, {"type": "Feature", "geometry": {"type": "Point", "coordinates": [-116.40301087316152, 33.27901569513527]}, "properties": {"accum": 1325.166748046875}}]}