{
"type": "FeatureCollection",
"name": "parcel_contributing_area",
"crs": { "type": "name", "properties": { "name": "urn:ogc:def:crs:OGC:1.3:CRS84" } },
"features": [
{ "type": "Feature", "properties": { "area_km2": 42.22, "cells": 422220, "resolution_m": 10.0, "trace_type": "boolean_dinf" }, "geometry": { "type": "Polygon", "coordinates": [ [ [ -116.404557703901773, 33.359556329011411 ], [ -116.404088863394108, 33.359457652903814 ], [ -116.40407871602136, 33.359455072223405 ], [ -116.404068923037343, 33.359451680505316 ], [ -116.404059578754087, 33.359447510413737 ], [ -116.404050773162382, 33.359442602109034 ], [ -116.404042591064965, 33.359437002861 ], [ -116.404035111259958, 33.35943076659354 ], [ -116.404028405782043, 33.359423953365507 ], [ -116.404022539208526, 33.359416628792111 ], [ -116.403887560318324, 33.359228690144043 ], [ -116.403435302345031, 33.35931033985942 ], [ -116.403424566317526, 33.359311814206713 ], [ -116.403413705691193, 33.359312387964906 ], [ -116.403402830396089, 33.359312055326484 ], [ -116.403392050510661, 33.359310819658425 ], [ -116.40338147514764, 33.359308693467966 ], [ -116.403371211349651, 33.35930569827611 ], [ -116.403361363005558, 33.359301864399868 ], [ -116.403352029799052, 33.359297230645268 ], [ -116.403343306199659, 33.359291843914662 ], [ -116.40333528050644, 33.359285758731744 ], [ -116.403328033954267, 33.359279036689976 ], [ -116.403218206428491, 33.359166211461329 ], [ -116.40307215127433, 33.359192579301016 ], [ -116.403061681211739, 33.359194028117564 ], [ -116.403051090041089, 33.359194620303626 ], [ -116.40304047976143, 33.359194350156109 ], [ -116.403029952555954, 33.359193220276673 ], [ -116.403019609807743, 33.359191241546746 ], [ -116.40300955112339, 33.359188433022595 ], [ -116.402999873373815, 33.359184821751953 ], [ -116.402990669761252, 33.359180442513406 ], [ -116.401574632363221, 33.358427806726844 ], [ -116.401565991698234, 33.358422701582818 ], [ -116.401557997028405, 33.358416919817138 ], [ -116.401550725346794, 33.35841051711143 ], [ -116.401544246683656, 33.358403555127303 ], [ -116.401538623431989, 33.358396100912707 ], [ -116.40153390974659, 33.358388226255919 ], [ -116.401530151022669, 33.358380006994224 ], [ -116.4015273834585, 33.358371522283704 ], [ -116.401467798064175, 33.358145263836057 ], [ -116.400861859932377, 33.357823190554953 ], [ -116.400853219380025, 33.357818085352903 ], [ -116.40084522482401, 33.357812303532512 ], [ -116.400837953256271, 33.357805900776057 ], [ -116.400831474705996, 33.357798938745724 ], [ -116.40082585156506, 33.35779148448978 ], [ -116.400821137987222, 33.357783609796819 ], [ -116.400817379366643, 33.357775390504663 ], [ -116.4008146119006, 33.357766905769601 ], [ -116.400727881752076, 33.357437557752029 ], [ -116.400634083206668, 33.357341191130701 ], [ -116.400488030574294, 33.357367555751331 ], [ -116.4004772569008, 33.357369033410649 ], [ -116.400466358178491, 33.357369604129168 ], [ -116.400455445495851, 33.357369262089662 ], [ -116.400444630083669, 33.357368010778451 ], [ -116.400434022181159, 33.357365862949969 ], [ -116.400423729912575, 33.357362840496464 ], [ -116.400413858184805, 33.357358974225335 ], [ -116.400404507618262, 33.357354303544504 ], [ -116.400395773521254, 33.357348876061387 ], [ -116.400387744918433, 33.357342747097022 ], [ -116.40038050364349, 33.357335979122738 ], [ -116.400374123505003, 33.357328641122919 ], [ -116.399872738252014, 33.356685862732071 ], [ -116.399867847189284, 33.356678928744039 ], [ -116.399863725944286, 33.356671659898261 ], [ -116.399860407649172, 33.356664114631876 ], [ -116.399857918980743, 33.356656353604173 ], [ -116.399586318529472, 33.355624905303493 ], [ -116.398969805530697, 33.354929020969848 ], [ -116.398963604988197, 33.35492119519099 ], [ -116.398958424743682, 33.354912876346852 ], [ -116.398954321375683, 33.354904155296161 ], [ -116.398951339700929, 33.354895127290547 ], [ -116.398638333132212, 33.353706345641122 ], [ -116.39841859610145, 33.353589534893509 ], [ -116.398409515839518, 33.353584139719885 ], [ -116.398401156444436, 33.353577997521008 ], [ -116.398393607168387, 33.353571173876432 ], [ -116.398386948613833, 33.35356374164126 ], [ -116.39838125187319, 33.353555780168797 ], [ -116.398376577769511, 33.353547374462508 ], [ -116.398150039628646, 33.353077471801406 ], [ -116.397830555891474, 33.352973845414631 ], [ -116.397820864507523, 33.352970237802218 ], [ -116.397811647408602, 33.352965860230455 ], [ -116.397802993549689, 33.352960754947631 ], [ -116.39779498644981, 33.352954971225266 ], [ -116.397787703386044, 33.352948564882553 ], [ -116.397781214647694, 33.352941597747567 ], [ -116.397775582857889, 33.352934137060849 ], [ -116.397770862369214, 33.352926254825974 ], [ -116.397767098739209, 33.35291802711496 ], [ -116.397764328290648, 33.352909533334099 ], [ -116.397591546874679, 33.352253266045956 ], [ -116.397148904259765, 33.352085678877451 ], [ -116.397138986709578, 33.352081397502253 ], [ -116.397129656157318, 33.352076290993224 ], [ -116.397121012375237, 33.352070413954657 ], [ -116.397113147791742, 33.352063829230083 ], [ -116.397106146503205, 33.352056607230566 ], [ -116.397100083374667, 33.352048825181242 ], [ -116.397095023239274, 33.352040566296274 ], [ -116.397091020205025, 33.352031918888272 ], [ -116.396434748960942, 33.350360273494069 ], [ -116.396119252230008, 33.350257930951003 ], [ -116.396109796354523, 33.350254422171837 ], [ -116.396100789380114, 33.350250180234639 ], [ -116.396092313976965, 33.350245244073825 ], [ -116.396084447936062, 33.350239658995747 ], [ -116.396077263455439, 33.350233476262801 ], [ -116.396070826477356, 33.350226752622973 ], [ -116.396065196083157, 33.35021954978879 ], [ -116.3960604239509, 33.350211933871172 ], [ -116.396056553881124, 33.350203974772441 ], [ -116.396053621394771, 33.350195745544696 ], [ -116.39500927245399, 33.346646609077148 ], [ -116.394735851507363, 33.346365623844484 ], [ -116.394136650617227, 33.346119705255454 ], [ -116.394127256552537, 33.346115354799174 ], [ -116.394118431212306, 33.346110252674045 ], [ -116.39411026200591, 33.346104449413353 ], [ -116.394102829844073, 33.346098002494728 ], [ -116.394096208337444, 33.346090975770849 ], [ -116.394090463067741, 33.346083438836956 ], [ -116.394085650937896, 33.346075466341645 ], [ -116.394081819608701, 33.346067137247303 ], [ -116.394079007026718, 33.346058534048353 ], [ -116.393784327694036, 33.344938943590648 ], [ -116.393331087108351, 33.344412638307212 ], [ -116.392833817193264, 33.344148224564933 ], [ -116.392825473566532, 33.344143311043894 ], [ -116.392817728410989, 33.344137766177568 ], [ -116.392810651139087, 33.344131639659508 ], [ -116.392804305177592, 33.344124986395869 ], [ -116.392798747399212, 33.344117866013654 ], [ -116.392794027612823, 33.34411034232604 ], [ -116.392790188117218, 33.344102482760725 ], [ -116.39278726332185, 33.344094357755537 ], [ -116.391856408678265, 33.340976133379264 ], [ -116.391178652636299, 33.340031923284805 ], [ -116.390556685354625, 33.339701166505932 ], [ -116.390547865427337, 33.339695940941283 ], [ -116.390539721812615, 33.339690010100028 ], [ -116.390532336403894, 33.33968343362362 ], [ -116.390525783469926, 33.339676277646355 ], [ -116.390520128907895, 33.339668614129813 ], [ -116.390515429580716, 33.339660520139624 ], [ -116.390511732745338, 33.339652077070284 ], [ -116.390141384557921, 33.338652443271805 ], [ -116.389917342976076, 33.338533295453281 ], [ -116.389909022985449, 33.338528396537583 ], [ -116.389901297854365, 33.338522869729324 ], [ -116.389894236423814, 33.338516764279483 ], [ -116.389887901620227, 33.338510134595694 ], [ -116.389882349894833, 33.338503039757143 ], [ -116.389877630720619, 33.338495542988085 ], [ -116.389873786151284, 33.338487711094579 ], [ -116.389596264399174, 33.337835714115769 ], [ -116.389370114897403, 33.337715442371149 ], [ -116.38936147729811, 33.337710336156491 ], [ -116.389353485628916, 33.337704553368681 ], [ -116.389346216853923, 33.337698149699243 ], [ -116.389339740975473, 33.337691186819093 ], [ -116.389334120359663, 33.337683731784772 ], [ -116.389329409135968, 33.337675856392423 ], [ -116.389325652675836, 33.337667636486458 ], [ -116.389322887155785, 33.33765915122914 ], [ -116.389169395861032, 33.337075778486529 ], [ -116.388787594117076, 33.336802478386538 ], [ -116.38877989220957, 33.336796391563496 ], [ -116.388772950289763, 33.336789707044794 ], [ -116.388766835636716, 33.33678248961499 ], [ -116.388761607511825, 33.336774809223584 ], [ -116.38875731658446, 33.336766740306814 ], [ -116.388754004440813, 33.3367583610666 ], [ -116.388214784320411, 33.335126505992427 ], [ -116.388063260475832, 33.334915378369274 ], [ -116.387341492595056, 33.334604013636948 ], [ -116.38733240836261, 33.334599616707848 ], [ -116.387323883089664, 33.334594509395842 ], [ -116.387315997489836, 33.334588740054869 ], [ -116.387308826220476, 33.334582363306531 ], [ -116.387302437176004, 33.334575439523249 ], [ -116.38729689084488, 33.334568034256371 ], [ -116.387292239737207, 33.334560217615824 ], [ -116.38728852788735, 33.334552063606139 ], [ -116.387285790437247, 33.334543649425981 ], [ -116.386986525809732, 33.333406061516158 ], [ -116.386984760907623, 33.333397269152492 ], [ -116.386984059937831, 33.333388375037302 ], [ -116.38698442984267, 33.333379467260919 ], [ -116.386985866958085, 33.333370634049068 ], [ -116.3869883570501, 33.333361962889043 ], [ -116.386991875455564, 33.333353539662838 ], [ -116.386996387326747, 33.333345447797022 ], [ -116.387001847976222, 33.333337767436134 ], [ -116.387008203319638, 33.333330574649018 ], [ -116.387415077824116, 33.332915154715224 ], [ -116.387250588445625, 33.331884222154329 ], [ -116.387249732868568, 33.331875854918174 ], [ -116.387249827215584, 33.331867458092134 ], [ -116.38725087065697, 33.331859105492995 ], [ -116.387252854019479, 33.331850870548678 ], [ -116.387255759867003, 33.331842825652885 ], [ -116.387259562653952, 33.331835041528407 ], [ -116.387264228949618, 33.331827586605691 ], [ -116.387269717732323, 33.331820526421119 ], [ -116.387275980749806, 33.331813923040919 ], [ -116.387594178813515, 33.331509015702892 ], [ -116.387398509438682, 33.330765205796133 ], [ -116.387396708767042, 33.330756153421554 ], [ -116.387396035669056, 33.330746995964887 ], [ -116.387396497207604, 33.330737829521361 ], [ -116.387398088539086, 33.330728750280514 ], [ -116.3874007929642, 33.330719853516833 ], [ -116.387404582103287, 33.330711232589756 ], [ -116.387409416194131, 33.3307029779643 ], [ -116.387415244509128, 33.330695176261635 ], [ -116.388650988080698, 33.329216077787237 ], [ -116.388315687461599, 33.32794149664165 ], [ -116.388313938528952, 33.327932818309108 ], [ -116.388313226092492, 33.327924039713366 ], [ -116.388313557027672, 33.327915245577195 ], [ -116.388314928140289, 33.327906520773261 ], [ -116.388317326197281, 33.327897949505299 ], [ -116.388320728054552, 33.327889614495 ], [ -116.38832510088028, 33.327881596184021 ], [ -116.388330402471809, 33.327873971957501 ], [ -116.388336581662998, 33.327866815397236 ], [ -116.388343578817924, 33.327860195571539 ], [ -116.388588702941547, 33.327650077070835 ], [ -116.38865790740644, 33.327117450899308 ], [ -116.388659505241577, 33.327108984477988 ], [ -116.388662072640244, 33.327100683298262 ], [ -116.388665586098114, 33.327092623356123 ], [ -116.38867001344974, 33.327084878438889 ], [ -116.388675314163223, 33.327077519450022 ], [ -116.38868143971122, 33.32707061375978 ], [ -116.38908485369042, 33.326658675756526 ], [ -116.389018063921966, 33.326404787175697 ], [ -116.3886142024718, 33.326319689129413 ], [ -116.388604378857821, 33.326317202121629 ], [ -116.388594884503661, 33.326313954167979 ], [ -116.388585805102167, 33.326309974583324 ], [ -116.388577222600944, 33.32630529928614 ], [ -116.38856921446272, 33.326299970474047 ], [ -116.388561852966163, 33.326294036243162 ], [ -116.388555204553455, 33.326287550153751 ], [ -116.388549329230798, 33.326280570747116 ], [ -116.388544280026593, 33.326273161016992 ], [ -116.388540102513034, 33.326265387841048 ], [ -116.388536834394628, 33.326257321377241 ], [ -116.388534505167968, 33.326249034430695 ], [ -116.387949581113546, 33.323604736805684 ], [ -116.387948201701477, 33.323596205615196 ], [ -116.387947817326619, 33.323587604137032 ], [ -116.387948431538902, 33.323579011817962 ], [ -116.388021606477778, 33.323015830234667 ], [ -116.388023204298108, 33.323007363772106 ], [ -116.388025771630112, 33.322999062557471 ], [ -116.388029284970074, 33.322991002587095 ], [ -116.388033712153586, 33.32298325764858 ], [ -116.388039012650381, 33.322975898645595 ], [ -116.388045137935023, 33.322968992948454 ], [ -116.388458279539861, 33.322547102998456 ], [ -116.388470735741777, 33.322208220866173 ], [ -116.388471545968727, 33.322199670779916 ], [ -116.388473339757212, 33.322191224091952 ], [ -116.388476100657883, 33.322182958258324 ], [ -116.388479803353079, 33.322174949076391 ], [ -116.388484413888861, 33.322167269990352 ], [ -116.388489889986516, 33.322159991417074 ], [ -116.388496181430128, 33.322153180100955 ], [ -116.388503230527178, 33.322146898501558 ], [ -116.388510972637519, 33.322141204220884 ], [ -116.38883546178694, 33.321924644669132 ], [ -116.388573466800665, 33.320928631231027 ], [ -116.388571609808977, 33.320919154392712 ], [ -116.388570988112619, 33.320909567341467 ], [ -116.388571608855401, 33.320899980247631 ], [ -116.388608192981508, 33.320618388231281 ], [ -116.388609762827116, 33.320610034272192 ], [ -116.388612276613159, 33.32060184015787 ], [ -116.388615711938314, 33.320593878908284 ], [ -116.388620038189117, 33.320586221468538 ], [ -116.388625216812883, 33.320578936076132 ], [ -116.388631201661227, 33.320572087653325 ], [ -116.38863793940132, 33.320565737228279 ], [ -116.388868609789668, 33.320367986774215 ], [ -116.388788855907549, 33.320064787082622 ], [ -116.38878711892923, 33.320056192236962 ], [ -116.388786398524459, 33.320047498237926 ], [ -116.388786701513439, 33.320038787396378 ], [ -116.388788025027196, 33.320030142182766 ], [ -116.388790356535026, 33.320021644445958 ], [ -116.388793673962923, 33.32001337463884 ], [ -116.388797945902681, 33.320005411056094 ], [ -116.388803131909242, 33.319997829093268 ], [ -116.388809182883662, 33.319990700532941 ], [ -116.389296805150067, 33.319471851312763 ], [ -116.389031367648357, 33.318462738986007 ], [ -116.389029589418655, 33.318453849643021 ], [ -116.389028898412363, 33.318444857272347 ], [ -116.389029301623282, 33.31843585289343 ], [ -116.389030794969884, 33.318426927647295 ], [ -116.389033363336338, 33.318418171873837 ], [ -116.389036980725706, 33.318409674197646 ], [ -116.389041610523009, 33.318401520630879 ], [ -116.389047205865921, 33.318393793702526 ], [ -116.389053710118986, 33.318386571623286 ], [ -116.389061057447122, 33.318379927493879 ], [ -116.389069173481644, 33.318373928565045 ], [ -116.389202283812693, 33.318285087039385 ], [ -116.388688958834436, 33.316731223522993 ], [ -116.388466567257424, 33.316612912539931 ], [ -116.388458269480807, 33.316608026235706 ], [ -116.388450563307018, 33.316602515002728 ], [ -116.388443517070115, 33.31659642771168 ], [ -116.388437193252116, 33.316589818341299 ], [ -116.388431647929011, 33.316582745499836 ], [ -116.38842693027344, 33.316575271905378 ], [ -116.388423082118777, 33.316567463829685 ], [ -116.388420137588014, 33.316559390510328 ], [ -116.388418122791379, 33.316551123537081 ], [ -116.388158995295584, 33.315150839047085 ], [ -116.387689427222313, 33.314548321640977 ], [ -116.387358972479348, 33.314441043530039 ], [ -116.387349373085158, 33.314437471464409 ], [ -116.387340238378911, 33.314433143131353 ], [ -116.387331654913027, 33.314428099542383 ], [ -116.387323704016751, 33.314422388486108 ], [ -116.387316461025705, 33.314416064075445 ], [ -116.3873099945679, 33.314409186234919 ], [ -116.387304365913522, 33.314401820132851 ], [ -116.387299628394501, 33.3143940355639 ], [ -116.387295826899063, 33.314385906287718 ], [ -116.387292997446522, 33.314377509330079 ], [ -116.387291166845927, 33.314368924252946 ], [ -116.387290352442051, 33.314360232400851 ], [ -116.387290561951119, 33.314351516129989 ], [ -116.387291793387703, 33.314342858027842 ], [ -116.387384414110741, 33.313884809446435 ], [ -116.385580718231068, 33.307445561186789 ], [ -116.385578790159656, 33.307436655649063 ], [ -116.38557795636531, 33.307427634381988 ], [ -116.385578225356582, 33.307418589447991 ], [ -116.38557959438802, 33.307409613151322 ], [ -116.385582049488207, 33.307400797095603 ], [ -116.385585565602355, 33.30739223124916 ], [ -116.385590106847985, 33.307384003026876 ], [ -116.38559562688117, 33.307376196398302 ], [ -116.385602069369369, 33.307368891030379 ], [ -116.386013322422997, 33.306948859012344 ], [ -116.386004561044203, 33.306524861606043 ], [ -116.386004926028946, 33.306515817129558 ], [ -116.386006390716844, 33.306506849337566 ], [ -116.386008940154184, 33.306498049784167 ], [ -116.386012548312934, 33.306489508305859 ], [ -116.386017178356283, 33.306481312104253 ], [ -116.386022783014937, 33.30647354485604 ], [ -116.386029305069528, 33.306466285858662 ], [ -116.386036677934911, 33.306459609220568 ], [ -116.386044826339884, 33.306453583104833 ], [ -116.3861810297105, 33.306362667785081 ], [ -116.386018130174392, 33.305743164302982 ], [ -116.385761396084447, 33.305537607602162 ], [ -116.385754143890196, 33.305531202213622 ], [ -116.385747683743219, 33.305524239100578 ], [ -116.385742077763638, 33.305516785219801 ], [ -116.385737379857815, 33.305508912247213 ], [ -116.385733635200211, 33.305500695888696 ], [ -116.3857308797988, 33.305492215152043 ], [ -116.385729140148968, 33.30548355158723 ], [ -116.385728432978723, 33.305474788502416 ], [ -116.385728765087762, 33.305466010162569 ], [ -116.385730133282237, 33.30545730097932 ], [ -116.385732524405356, 33.305448744699362 ], [ -116.385735915464039, 33.30544042359908 ], [ -116.385740273849891, 33.30543241769314 ], [ -116.385745557652839, 33.305424803965657 ], [ -116.385884542354447, 33.305245493661303 ], [ -116.38540085382877, 33.303815603230198 ], [ -116.385398579161233, 33.303807419935339 ], [ -116.385397239488313, 33.303799096091488 ], [ -116.385396846586843, 33.303790704873883 ], [ -116.385397403910531, 33.303782320049898 ], [ -116.385398906559615, 33.303774015330916 ], [ -116.385401341323941, 33.303765863723946 ], [ -116.385404686799191, 33.303757936889909 ], [ -116.385408913574935, 33.303750304513841 ], [ -116.385413984493269, 33.303743033692122 ], [ -116.385520786058422, 33.303605242144656 ], [ -116.385097236049759, 33.303379857017163 ], [ -116.385088602494136, 33.30337475022764 ], [ -116.38508061462359, 33.303368966855501 ], [ -116.38507334936574, 33.30336256259789 ], [ -116.385066876689024, 33.303355599131379 ], [ -116.385061258928701, 33.303348143518093 ], [ -116.385056550186761, 33.30334026755979 ], [ -116.385052795810751, 33.303332047106444 ], [ -116.385050031957078, 33.303323561325406 ], [ -116.38500401390651, 33.303148539183184 ], [ -116.385002249903962, 33.303139746404696 ], [ -116.385001549427486, 33.303130851888596 ], [ -116.385001919414464, 33.303121943729231 ], [ -116.385003356200059, 33.303113110156154 ], [ -116.385005845553493, 33.303104438660043 ], [ -116.385009362819048, 33.303096015126499 ], [ -116.385013873160176, 33.303087922984936 ], [ -116.385019331904715, 33.303080242382656 ], [ -116.385025684987113, 33.303073049390939 ], [ -116.385428995145887, 33.302661109953078 ], [ -116.385325007991341, 33.302265614467267 ], [ -116.385323201587369, 33.302256512788453 ], [ -116.385322534528711, 33.302247305433688 ], [ -116.38532301389003, 33.302238090059667 ], [ -116.385324634586638, 33.30222896440808 ], [ -116.385327379428446, 33.302220025268845 ], [ -116.385331219302273, 33.302211367453729 ], [ -116.385336113480705, 33.302203082790705 ], [ -116.38534201005406, 33.302195259149791 ], [ -116.385348846480852, 33.302187979511316 ], [ -116.385677178807398, 33.30187324216039 ], [ -116.385688901259769, 33.301554535741879 ], [ -116.385466402799082, 33.301092493820221 ], [ -116.384723822344583, 33.300697325441959 ], [ -116.384715189107268, 33.30069221860451 ], [ -116.384707201536273, 33.300686435183906 ], [ -116.384699936556302, 33.300680030877679 ], [ -116.384693464133093, 33.300673067363086 ], [ -116.384687846599505, 33.300665611702534 ], [ -116.384683138055308, 33.300657735698287 ], [ -116.384679383846176, 33.300649515200725 ], [ -116.384676620126896, 33.300641029377779 ], [ -116.384561581377994, 33.300203471829263 ], [ -116.384559834786799, 33.300194802396852 ], [ -116.384559122116229, 33.300186032854505 ], [ -116.38455945022929, 33.300177247657807 ], [ -116.384560815965813, 33.300168531412965 ], [ -116.384563206172629, 33.300159968062125 ], [ -116.384566597830414, 33.300151640075008 ], [ -116.38457095827539, 33.300143627654577 ], [ -116.38457624551387, 33.300136007964774 ], [ -116.384906660264519, 33.299709703244993 ], [ -116.384912823313925, 33.299702549645296 ], [ -116.384919802881257, 33.299695931048582 ], [ -116.384927531749355, 33.299689911195422 ], [ -116.384935935485061, 33.299684548060178 ], [ -116.384944933155865, 33.299679893292613 ], [ -116.38495443810946, 33.299675991720619 ], [ -116.384964358808119, 33.299672880918408 ], [ -116.384974599710389, 33.299670590844549 ], [ -116.385291432578398, 33.299613395845235 ], [ -116.385231938301118, 33.299387109801309 ], [ -116.384626518735558, 33.299064923519623 ], [ -116.384618348341775, 33.299060118119826 ], [ -116.384610750040309, 33.299054706464972 ], [ -116.384603789120391, 33.299048735055543 ], [ -116.384597525394469, 33.299042255201478 ], [ -116.38459201268418, 33.299035322581794 ], [ -116.384242750410465, 33.298548380768459 ], [ -116.384237671849661, 33.298540412986547 ], [ -116.384233585163599, 33.298532062681595 ], [ -116.384230531716852, 33.298523414374309 ], [ -116.384228542415627, 33.298514555601571 ], [ -116.384227637394943, 33.298505576030578 ], [ -116.384227825815003, 33.298496566551265 ], [ -116.384229105768199, 33.298487618356233 ], [ -116.384231464298693, 33.298478822017721 ], [ -116.384234877533473, 33.298470266570902 ], [ -116.384239310923959, 33.298462038612563 ], [ -116.384244719595813, 33.298454221424876 ], [ -116.384428567713144, 33.298217015471401 ], [ -116.383784849960705, 33.297939151121284 ], [ -116.383775388669562, 33.297934546705555 ], [ -116.383766539478756, 33.297929171161663 ], [ -116.383758393581701, 33.297923079886033 ], [ -116.383751034924032, 33.297916335651102 ], [ -116.383744539338593, 33.297909007958054 ], [ -116.383738973764025, 33.297901172320898 ], [ -116.383734395554811, 33.297892909487999 ], [ -116.383490752005741, 33.297386900755569 ], [ -116.383487272742499, 33.297378481896267 ], [ -116.383484818847791, 33.297369818490921 ], [ -116.383483414545609, 33.2973609960628 ], [ -116.383483073698585, 33.297352101705073 ], [ -116.383483799671083, 33.297343223220849 ], [ -116.383485585296157, 33.297334448256656 ], [ -116.383488412946136, 33.297325863436861 ], [ -116.383492254706766, 33.297317553509018 ], [ -116.383497072652773, 33.297309600506757 ], [ -116.383502819222173, 33.297302082940227 ], [ -116.383509437686016, 33.297295075021225 ], [ -116.383516862708106, 33.29728864593018 ], [ -116.383525020990263, 33.297282859133503 ], [ -116.383533831995763, 33.297277771757173 ], [ -116.383543208744385, 33.297273434022458 ], [ -116.383866997286788, 33.297140678850724 ], [ -116.383539875634455, 33.295896323473436 ], [ -116.383538111957819, 33.295887530579982 ], [ -116.383537411711202, 33.295878635961444 ], [ -116.38353778182973, 33.295869727713161 ], [ -116.383539218647243, 33.295860894065584 ], [ -116.383541707932693, 33.295852222510121 ], [ -116.383545225030915, 33.295843798932871 ], [ -116.383549735107152, 33.29583570676386 ], [ -116.383555193491759, 33.295828026150531 ], [ -116.383561546122834, 33.295820833164321 ], [ -116.383964826799343, 33.295408894544892 ], [ -116.383814846022531, 33.294838368846399 ], [ -116.383813169525425, 33.294830183585667 ], [ -116.383812414854532, 33.294821904848874 ], [ -116.383812588494109, 33.294813603771829 ], [ -116.383813688951861, 33.294805351682491 ], [ -116.383815706771728, 33.294797219487819 ], [ -116.383982127784748, 33.294255210416488 ], [ -116.383533382927467, 33.29373363808444 ], [ -116.383527737192139, 33.293726355542645 ], [ -116.383522966137249, 33.293718655383941 ], [ -116.383519114324386, 33.293710609527878 ], [ -116.383516217729266, 33.293702293122969 ], [ -116.383514303405875, 33.293693783844716 ], [ -116.38351338923367, 33.293685161169783 ], [ -116.383513483750747, 33.29367650563416 ], [ -116.383514586073929, 33.293667898080699 ], [ -116.383516685907225, 33.293659418903928 ], [ -116.383519763637835, 33.293651147299499 ], [ -116.383523790519462, 33.293643160524226 ], [ -116.383528728940703, 33.293635533174637 ], [ -116.383534532776508, 33.293628336490123 ], [ -116.384158667443259, 33.292929983760757 ], [ -116.383442387063724, 33.29241688054308 ], [ -116.38313614510281, 33.292389553554962 ], [ -116.383125788640925, 33.292388205617698 ], [ -116.383115638487638, 33.292386032514528 ], [ -116.383105790142935, 33.29238305469142 ], [ -116.383096336267158, 33.292379300165955 ], [ -116.383087365809189, 33.292374804263474 ], [ -116.383078963169453, 33.292369609284677 ], [ -116.383071207405976, 33.292363764107499 ], [ -116.383064171490389, 33.292357323727686 ], [ -116.383057921621429, 33.292350348740982 ], [ -116.383052516602149, 33.292342904772909 ], [ -116.383048007286547, 33.292335061861685 ], [ -116.383044436101216, 33.292326893798929 ], [ -116.383041836646086, 33.2923184774356 ], [ -116.383040233378338, 33.292309891958702 ], [ -116.383039641382325, 33.29230121814642 ], [ -116.383040066227622, 33.29229253760807 ], [ -116.383041503916658, 33.29228393201619 ], [ -116.383043940922335, 33.292275482338106 ], [ -116.383047354315266, 33.292267268074227 ], [ -116.383051711979675, 33.292259366509967 ], [ -116.383056972915355, 33.292251851988738 ], [ -116.383063087623626, 33.292244795212198 ], [ -116.383069998572935, 33.292238262575324 ], [ -116.383300599970582, 33.29204051520788 ], [ -116.383137627887976, 33.291420519880781 ], [ -116.382119011718373, 33.290805458495093 ], [ -116.382110674562099, 33.290799879554399 ], [ -116.382103045041134, 33.290793643828565 ], [ -116.382096198159459, 33.290786812619757 ], [ -116.382090201227015, 33.290779453083971 ], [ -116.382085113198059, 33.290771637571183 ], [ -116.382080984091573, 33.29076344291385 ], [ -116.382077854499528, 33.290754949671808 ], [ -116.382075755187898, 33.290746241340038 ], [ -116.382074706794185, 33.290737403528141 ], [ -116.382074719624484, 33.290728523118538 ], [ -116.382075793552389, 33.290719687412263 ], [ -116.382077918019974, 33.290710983271126 ], [ -116.382190816906459, 33.290343295756621 ], [ -116.382066303777364, 33.289869572951162 ], [ -116.381558342921849, 33.289528048676146 ], [ -116.38155058160855, 33.289522294974894 ], [ -116.38154352450772, 33.289515948940583 ], [ -116.381537237138375, 33.289509069490883 ], [ -116.381531777873334, 33.289501720495636 ], [ -116.381527197396977, 33.289493970184019 ], [ -116.381523538234944, 33.289485890511202 ], [ -116.381520834359151, 33.289477556490084 ], [ -116.381397043908507, 33.289006561469236 ], [ -116.381227578144717, 33.288970822477125 ], [ -116.381218076032425, 33.28896842830742 ], [ -116.381208879242649, 33.288965321341109 ], [ -116.381200065441917, 33.288961527816397 ], [ -116.381191709062463, 33.288957079769524 ], [ -116.38118388067349, 33.288952014764106 ], [ -116.381176646385384, 33.288946375573829 ], [ -116.381170067291308, 33.288940209821504 ], [ -116.380715273920984, 33.288472311744819 ], [ -116.380709110855051, 33.288465301562681 ], [ -116.380703794873639, 33.288457830203825 ], [ -116.380699375830218, 33.288449967735303 ], [ -116.380695895166639, 33.288441787891834 ], [ -116.380693385524523, 33.288433367384691 ], [ -116.380691870439136, 33.288424785182023 ], [ -116.380691364118775, 33.288416121768137 ], [ -116.38069187131137, 33.288407458389223 ], [ -116.380693387260123, 33.288398876290962 ], [ -116.380695897748026, 33.288390455956751 ], [ -116.380699379231302, 33.288382276352969 ], [ -116.380703799060115, 33.288374414188446 ], [ -116.380709115784796, 33.288366943194873 ], [ -116.380715279544646, 33.288359933435665 ], [ -116.380722232535362, 33.2883534506486 ], [ -116.380729909551363, 33.288347555629606 ], [ -116.380738238597132, 33.288342303662382 ], [ -116.380747141562438, 33.288337744000145 ], [ -116.380756534954813, 33.288333919403527 ], [ -116.38076633068269, 33.288330865739837 ], [ -116.38077643688132, 33.288328611646278 ], [ -116.38104247477365, 33.288280588768309 ], [ -116.381326786083946, 33.287805340685431 ], [ -116.381332037144915, 33.287797561608585 ], [ -116.381338195183602, 33.28779025361893 ], [ -116.381345199208539, 33.28778348909723 ], [ -116.381352979849353, 33.28777733504154 ], [ -116.381361460043905, 33.287771852403608 ], [ -116.381370555801425, 33.287767095485258 ], [ -116.381380177034615, 33.287763111400615 ], [ -116.381390228451551, 33.287759939609224 ], [ -116.38140061049981, 33.287757611525656 ], [ -116.381717398039484, 33.287700425411487 ], [ -116.381727274676038, 33.287699036301198 ], [ -116.38173726408327, 33.287698411096827 ], [ -116.381747280426424, 33.287698555170479 ], [ -116.381757237639334, 33.287699467284085 ], [ -116.381767050163859, 33.287701139600351 ], [ -116.382210711107732, 33.287794703047339 ], [ -116.382819357138501, 33.287684825682831 ], [ -116.382829233753668, 33.287683436477714 ], [ -116.382839223150171, 33.287682811177326 ], [ -116.382849239493353, 33.287682955154686 ], [ -116.38285919671705, 33.287683867172667 ], [ -116.382869009263061, 33.287685539394658 ], [ -116.383546865158166, 33.287828484413069 ], [ -116.384155509585824, 33.287718599961892 ], [ -116.384165970493839, 33.287717152720603 ], [ -116.384176552193921, 33.287716562216154 ], [ -116.384187152778864, 33.287716834135423 ], [ -116.384197670159637, 33.287717965859727 ], [ -116.384208003048357, 33.287719946489901 ], [ -116.384218051934056, 33.287722756951453 ], [ -116.38422772004067, 33.287726370178234 ], [ -116.384236914259347, 33.287730751372962 ], [ -116.384447316396376, 33.287842740776391 ], [ -116.384978482742881, 33.287667094165847 ], [ -116.386681145635961, 33.285817734553419 ], [ -116.386688484117926, 33.285810575625213 ], [ -116.386696686931131, 33.285804093073601 ], [ -116.386705663846243, 33.285798358205319 ], [ -116.386715316118966, 33.285793434102629 ], [ -116.386725537576325, 33.285789374929607 ], [ -116.387841032446232, 33.285404608161038 ], [ -116.387849708585406, 33.285401970176046 ], [ -116.387858624942623, 33.285399956190261 ], [ -116.387867716313323, 33.285398580931599 ], [ -116.389147811257644, 33.285251485979849 ], [ -116.389103632496685, 33.285083451159501 ], [ -116.389101885740814, 33.285074781606049 ], [ -116.389101172701317, 33.285066011899559 ], [ -116.389101500244777, 33.285057226497102 ], [ -116.389102865216444, 33.285048510006931 ], [ -116.389105254470564, 33.285039946373573 ], [ -116.389108644996995, 33.285031618069418 ], [ -116.389113004142828, 33.285023605300502 ], [ -116.389118289926884, 33.285015985234111 ], [ -116.389283453741982, 33.284802821806572 ], [ -116.389289603543659, 33.284795680066274 ], [ -116.389296566955963, 33.284789071295059 ], [ -116.389304277155176, 33.284783058913135 ], [ -116.389312660151134, 33.284777700617646 ], [ -116.389321635497311, 33.284773047828807 ], [ -116.389331117062895, 33.284769145196599 ], [ -116.389801102544538, 33.284598943863493 ], [ -116.390173373386361, 33.284006559622554 ], [ -116.390178678647658, 33.283999035272274 ], [ -116.390184841103647, 33.283991973870208 ], [ -116.390191802410854, 33.283985442270442 ], [ -116.390199496662632, 33.283979502311169 ], [ -116.390207851013329, 33.283974210229118 ], [ -116.390216786367688, 33.283969616127258 ], [ -116.390226218129982, 33.283965763500383 ], [ -116.390236057004657, 33.283962688823308 ], [ -116.390246209841877, 33.28396042120572 ], [ -116.391935622357209, 33.283655286416334 ], [ -116.391945412413534, 33.283653905164122 ], [ -116.391955314119684, 33.283653274610799 ], [ -116.391965243856532, 33.283653400081384 ], [ -116.391975117768339, 33.283654280516224 ], [ -116.391984852470813, 33.283655908480178 ], [ -116.391994365755167, 33.283658270225175 ], [ -116.392003577282523, 33.28366134580655 ], [ -116.392465799909715, 33.283836540589427 ], [ -116.393991816902485, 33.283647946132305 ], [ -116.398401045690989, 33.277839535131882 ], [ -116.398407036445136, 33.277832430250122 ], [ -116.398413827724795, 33.277825838638933 ], [ -116.398421355922693, 33.277819822035447 ], [ -116.398429550529542, 33.277814436791168 ], [ -116.398438334794591, 33.277809733344213 ], [ -116.398447626444337, 33.277805755747167 ], [ -116.398457338453227, 33.277802541254125 ], [ -116.398467379858587, 33.277800119971943 ], [ -116.398477656612712, 33.27779851457845 ], [ -116.399823962105245, 33.277643667385931 ], [ -116.400044790661838, 33.277358561334133 ], [ -116.40005095058757, 33.277351406688823 ], [ -116.400057926902335, 33.277344786956071 ], [ -116.400065652420352, 33.277338765887372 ], [ -116.400074052740663, 33.277333401468837 ], [ -116.400083046963672, 33.277328745362617 ], [ -116.400092548470269, 33.277324842409385 ], [ -116.400102465755964, 33.277321730196711 ], [ -116.400112703312104, 33.277319438696765 ], [ -116.400380876614165, 33.277270975433105 ], [ -116.400829643503059, 33.276580187879354 ], [ -116.40083497996811, 33.276572839539043 ], [ -116.400841139928204, 33.276565947985091 ], [ -116.400848066896557, 33.276559576412872 ], [ -116.400855697352938, 33.276553783249483 ], [ -116.400863961326124, 33.276548621618019 ], [ -116.400872783035737, 33.276544138850504 ], [ -116.400882081586971, 33.276540376053738 ], [ -116.400891771712409, 33.276537367732416 ], [ -116.400901764553964, 33.276535141472728 ], [ -116.403379075616101, 33.276087402103443 ], [ -116.403500070477946, 33.275831338072841 ], [ -116.403504696589565, 33.275822870330565 ], [ -116.40351035656262, 33.275814845617383 ], [ -116.403516989434294, 33.275807350366094 ], [ -116.403524523763011, 33.27580046530656 ], [ -116.403532878397741, 33.27579426459635 ], [ -116.404285383541207, 33.275291557737447 ], [ -116.404293465207786, 33.275286652988676 ], [ -116.404302060058541, 33.275282389612052 ], [ -116.40431109424145, 33.275278804241147 ], [ -116.40432049012955, 33.275275927683495 ], [ -116.404330166987904, 33.275273784656051 ], [ -116.404708731174111, 33.275205355200988 ], [ -116.404932204052301, 33.274916792538768 ], [ -116.404938568605928, 33.274909423016339 ], [ -116.404945799054133, 33.274902624377376 ], [ -116.40495382136271, 33.274896466234431 ], [ -116.404962553389296, 33.274891011642147 ], [ -116.404971905724778, 33.274886316451202 ], [ -116.404981782608573, 33.274882428736625 ], [ -116.404992082909146, 33.274879388305543 ], [ -116.406300639852063, 33.274553941092094 ], [ -116.407164164285746, 33.273324435891084 ], [ -116.407170287348933, 33.273316672184706 ], [ -116.407177346210361, 33.273309475031489 ], [ -116.407185265166206, 33.273302921617955 ], [ -116.407193959288605, 33.273297082227018 ], [ -116.407203335336376, 33.273292019483833 ], [ -116.407213292755031, 33.273287787684261 ], [ -116.407223724755127, 33.273284432212741 ], [ -116.407234519457646, 33.273281989055391 ], [ -116.408061948301594, 33.273132394639454 ], [ -116.408901504819866, 33.272718531580082 ], [ -116.409276994044049, 33.272120632234909 ], [ -116.409282257307837, 33.272113157015269 ], [ -116.409288366401697, 33.272106137815335 ], [ -116.409295264277887, 33.272099640181608 ], [ -116.409302886522852, 33.272093724789741 ], [ -116.409311161958868, 33.272088446878541 ], [ -116.409320013308701, 33.272083855733868 ], [ -116.409329357917159, 33.272079994228513 ], [ -116.409339108523014, 33.272076898421645 ], [ -116.409349174073753, 33.272074597222357 ], [ -116.409359460575985, 33.272073112119585 ], [ -116.410543735106998, 33.271950647340404 ], [ -116.410553745534415, 33.271950001834597 ], [ -116.410563785024507, 33.271950129392046 ], [ -116.410573766884141, 33.27195102891136 ], [ -116.410583604917818, 33.271952692624836 ], [ -116.410593214171925, 33.271955106166089 ], [ -116.410602511668529, 33.271958248693558 ], [ -116.410611417121643, 33.271962093070847 ], [ -116.410619853630692, 33.271966606100946 ], [ -116.410627748344467, 33.271971748812874 ], [ -116.411014710058268, 33.272248867901062 ], [ -116.411794411100928, 33.272373243087614 ], [ -116.411804396897779, 33.272375248325886 ], [ -116.411814107780529, 33.272378030733904 ], [ -116.41182345594126, 33.272381565152529 ], [ -116.411832356851747, 33.272385819622812 ], [ -116.412180485486644, 33.272571037338729 ], [ -116.412875733421259, 33.272445308232399 ], [ -116.412885864711157, 33.272443890520123 ], [ -116.412896112642997, 33.272443276907801 ], [ -116.412906384552727, 33.272443472943827 ], [ -116.412916587559522, 33.272444476855668 ], [ -116.413468053950254, 33.272520927357625 ], [ -116.416484418640593, 33.271884366304668 ], [ -116.416495270739802, 33.271882560898959 ], [ -116.416506288712924, 33.271881685273748 ], [ -116.416517356941441, 33.271881748617368 ], [ -116.416528359279525, 33.271882750265206 ], [ -116.416539180272778, 33.271884679706325 ], [ -116.416549706369779, 33.271887516693923 ], [ -116.416559827113488, 33.27189123145763 ], [ -116.416569436300577, 33.271895785016163 ], [ -116.417943561769633, 33.272626785591882 ], [ -116.419879872067241, 33.27218697871421 ], [ -116.419889792672905, 33.272185136371611 ], [ -116.419899878250888, 33.272184075090479 ], [ -116.419910039513724, 33.272183804266348 ], [ -116.419920186504029, 33.272184326296724 ], [ -116.419930229390758, 33.272185636560195 ], [ -116.419940079264393, 33.272187723456902 ], [ -116.419949648924231, 33.272190568511732 ], [ -116.419958853650257, 33.272194146537323 ], [ -116.419967611953126, 33.272198425857574 ], [ -116.419975846295685, 33.272203368587697 ], [ -116.419983483779362, 33.272208930969775 ], [ -116.420237063632442, 33.272411911646472 ], [ -116.420508654230801, 33.272436064565106 ], [ -116.420879681896167, 33.272283738543663 ], [ -116.420889895289363, 33.27228007550228 ], [ -116.420900509024605, 33.272277302694107 ], [ -116.420911410518343, 33.272275449531342 ], [ -116.420922484134707, 33.272274535671002 ], [ -116.420933612412156, 33.272274570806879 ], [ -116.420944677309222, 33.272275554566122 ], [ -116.420955561456822, 33.272277476513743 ], [ -116.420966149403085, 33.272280316262957 ], [ -116.420976328838037, 33.27228404369157 ], [ -116.420985991784846, 33.272288619261467 ], [ -116.421371809385079, 33.272493845616182 ], [ -116.421379752579895, 33.272498502169881 ], [ -116.421387158295289, 33.272503732105051 ], [ -116.421393966492374, 33.272509493022085 ], [ -116.421400121976404, 33.27251573821669 ], [ -116.421405574844101, 33.272522417058553 ], [ -116.421410280888438, 33.272529475401726 ], [ -116.421570566223778, 33.27279773954487 ], [ -116.421804840966971, 33.272755353694144 ], [ -116.421815564853219, 33.272753877443101 ], [ -116.421826413411026, 33.272753301871759 ], [ -116.421837276833344, 33.272753632806037 ], [ -116.421848045162562, 33.272754866896214 ], [ -116.421858609403699, 33.27275699165105 ], [ -116.421868862627363, 33.272759985564178 ], [ -116.421878701052265, 33.272763818331747 ], [ -116.42188802509564, 33.272768451159195 ], [ -116.421896740381015, 33.272773837153764 ], [ -116.421904758693742, 33.272779921799504 ], [ -116.421911998873696, 33.272786643508518 ], [ -116.422021732739097, 33.272899464931797 ], [ -116.422484319604436, 33.27281576971604 ], [ -116.422495043486151, 33.272814293401588 ], [ -116.422505892047312, 33.272813717766049 ], [ -116.422516755480828, 33.272814048635837 ], [ -116.422527523828961, 33.27281528266213 ], [ -116.422538088096502, 33.272817407354154 ], [ -116.422548341353874, 33.272820401206275 ], [ -116.422558179819376, 33.272824233915195 ], [ -116.42256750390986, 33.272828866686943 ], [ -116.42257621924837, 33.272834252629416 ], [ -116.422584237619745, 33.272840337227045 ], [ -116.422591477863207, 33.272847058892587 ], [ -116.422706231949931, 33.27296503995214 ], [ -116.423620904031949, 33.272885710910664 ], [ -116.423631298892388, 33.272885227375902 ], [ -116.423641701639298, 33.272885575373159 ], [ -116.423652015692454, 33.272886751671493 ], [ -116.423662145295026, 33.272888745350116 ], [ -116.423671996402646, 33.272891537899433 ], [ -116.423681477556485, 33.272895103393068 ], [ -116.423690500732405, 33.272899408728627 ], [ -116.424076328369623, 33.273104625799043 ], [ -116.424085143064616, 33.273109849289838 ], [ -116.424093282321437, 33.273115778321596 ], [ -116.42410066429062, 33.273122353271191 ], [ -116.424107214737859, 33.273129508020098 ], [ -116.424112867790896, 33.273137170619144 ], [ -116.424117566601524, 33.273145264012371 ], [ -116.424121263917613, 33.273153706811328 ], [ -116.424503358929769, 33.274184688290454 ], [ -116.424505959607202, 33.274193157128003 ], [ -116.424507552270441, 33.27420179573771 ], [ -116.424508121757839, 33.274210521884555 ], [ -116.424507662647827, 33.274219252499961 ], [ -116.424506179310526, 33.274227904473072 ], [ -116.424350786820668, 33.274897757728432 ], [ -116.424348396134192, 33.274905958807039 ], [ -116.424345085108783, 33.274913937037248 ], [ -116.424340883124074, 33.274921621625552 ], [ -116.424335827465498, 33.274928944383788 ], [ -116.424329962993411, 33.274935840334621 ], [ -116.423837282826923, 33.275460800860245 ], [ -116.423889991298083, 33.276058101943661 ], [ -116.423890259887798, 33.276066329834137 ], [ -116.423889616115829, 33.276074543420101 ], [ -116.42388806541851, 33.276082673338223 ], [ -116.423885620891099, 33.276090650931856 ], [ -116.423882303177251, 33.276098408830606 ], [ -116.423878140294619, 33.276105881519456 ], [ -116.423873167398369, 33.276113005891851 ], [ -116.423625589091955, 33.276432829674619 ], [ -116.423619431379421, 33.276439985595928 ], [ -116.423612457125017, 33.27644660677084 ], [ -116.423604733494571, 33.276452629433798 ], [ -116.423596334870894, 33.276457995583094 ], [ -116.423587342137395, 33.276462653539603 ], [ -116.423577841899188, 33.276466558444675 ], [ -116.423567925648953, 33.276469672691718 ], [ -116.423557688885879, 33.276471966288831 ], [ -116.423392988339089, 33.276501765645236 ], [ -116.422532132297206, 33.277727898005857 ], [ -116.422525906036725, 33.277735780765546 ], [ -116.422518715200709, 33.277743077777039 ], [ -116.422510639360766, 33.277749708293648 ], [ -116.422501767881826, 33.277755598943735 ], [ -116.422492198933199, 33.277760684543004 ], [ -116.422482038402293, 33.277764908815413 ], [ -116.422023000874006, 33.277931317394646 ], [ -116.421716912391901, 33.278774712364275 ], [ -116.421713583922909, 33.278782546618586 ], [ -116.421709394213309, 33.278790091624984 ], [ -116.421704379292166, 33.27879728250025 ], [ -116.421315892165353, 33.279299087785937 ], [ -116.42146390595245, 33.279861188319231 ], [ -116.421979056428995, 33.28057895872265 ], [ -116.421984137649162, 33.280586925040431 ], [ -116.421988227405947, 33.280595274217028 ], [ -116.421991284303189, 33.280603921743499 ], [ -116.421993277399082, 33.280612780090884 ], [ -116.421994186519512, 33.280621759596343 ], [ -116.421994002462085, 33.280630769370852 ], [ -116.42199272708946, 33.280639718218652 ], [ -116.421990373310365, 33.280648515560891 ], [ -116.421986964949127, 33.280657072352149 ], [ -116.421982536504288, 33.280665301981735 ], [ -116.421977132799697, 33.280673121150507 ], [ -116.421671172209557, 33.281068320341333 ], [ -116.421753800752313, 33.281382099962933 ], [ -116.421755551020055, 33.281390769064984 ], [ -116.421756267661934, 33.281399538614771 ], [ -116.421755943775921, 33.281408324156672 ], [ -116.421754582480887, 33.281417041081177 ], [ -116.421752196886501, 33.281425605439424 ], [ -116.421748809967028, 33.281433934752023 ], [ -116.421744454340086, 33.281441948802957 ], [ -116.42173917195251, 33.281449570412434 ], [ -116.421594127063031, 33.281636917640554 ], [ -116.421669544293152, 33.282325463013855 ], [ -116.421669983268472, 33.28233429193817 ], [ -116.421669370450644, 33.282343113746151 ], [ -116.421667711804076, 33.282351842572083 ], [ -116.421665023472627, 33.282360393455242 ], [ -116.421412608504099, 33.283026640707824 ], [ -116.421475619789646, 33.283265921073195 ], [ -116.421477400886801, 33.283274810365981 ], [ -116.421478095289274, 33.283283802998959 ], [ -116.421477695968036, 33.283292807950048 ], [ -116.421476206964584, 33.283301734072438 ], [ -116.421473643350041, 33.283310491017325 ], [ -116.421470031072587, 33.283318990148025 ], [ -116.42146540669485, 33.28332714543771 ], [ -116.421459817023873, 33.283334874339474 ], [ -116.421453318637234, 33.283342098622548 ], [ -116.421445977310611, 33.283348745163622 ], [ -116.421437867351713, 33.283354746687252 ], [ -116.421288443810155, 33.283454594671035 ], [ -116.421276532892463, 33.283782542541132 ], [ -116.421275726622028, 33.283791093334379 ], [ -116.421273937226147, 33.283799541004562 ], [ -116.421271181113255, 33.283807808086678 ], [ -116.421267483556548, 33.283815818771579 ], [ -116.421262878462372, 33.283823499601333 ], [ -116.421257408059205, 33.283830780142786 ], [ -116.421251122510384, 33.283837593633287 ], [ -116.42124407945424, 33.283843877593164 ], [ -116.421236343475471, 33.283849574398474 ], [ -116.420526705927017, 33.284323759784705 ], [ -116.420556646439465, 33.284822342781638 ], [ -116.420556624575397, 33.284831597527663 ], [ -116.420555450546146, 33.284840800997834 ], [ -116.420553136886227, 33.284849854928055 ], [ -116.420549708297898, 33.284858662650514 ], [ -116.420545201387412, 33.284867130126443 ], [ -116.420539664274116, 33.284875166949732 ], [ -116.420316220324466, 33.285163755850682 ], [ -116.420480227807275, 33.285786573653375 ], [ -116.421184049836782, 33.286090148003559 ], [ -116.42119348911892, 33.286094737011958 ], [ -116.421202320025529, 33.286100093665226 ], [ -116.421210452002754, 33.286106163035321 ], [ -116.42121780166373, 33.286112882885803 ], [ -116.421224293643505, 33.286120184310128 ], [ -116.42122986137187, 33.286127992438082 ], [ -116.421234447756078, 33.28613622720377 ], [ -116.421238005766114, 33.286144804166227 ], [ -116.421240498917129, 33.286153635375705 ], [ -116.421771786714388, 33.28858453322394 ], [ -116.422246727375992, 33.288837103252703 ], [ -116.422255361746764, 33.288842207352324 ], [ -116.422263350873223, 33.288847988256798 ], [ -116.422270617815727, 33.288854390292968 ], [ -116.42227709258961, 33.288861351805778 ], [ -116.422282712839248, 33.288868805752237 ], [ -116.422287424438352, 33.288876680346853 ], [ -116.422291182011449, 33.288884899753093 ], [ -116.42229394937084, 33.288893384813676 ], [ -116.422330495854212, 33.289032149683678 ], [ -116.42264104654906, 33.289197295544476 ], [ -116.42280848628441, 33.28916700717491 ], [ -116.422819212386457, 33.289165530865183 ], [ -116.422830063197523, 33.289164955212634 ], [ -116.422840928887751, 33.28916528604389 ], [ -116.42285169947661, 33.289166520010376 ], [ -116.422862265946151, 33.289168644621988 ], [ -116.422872521344502, 33.289171638373929 ], [ -116.422882361868375, 33.289175470963926 ], [ -116.42289168791369, 33.289180103599179 ], [ -116.422900405083794, 33.289185489388949 ], [ -116.422908425144882, 33.289191573819224 ], [ -116.422915666919167, 33.289198295304473 ], [ -116.423203018202884, 33.289493655800186 ], [ -116.423671308799214, 33.2896709818082 ], [ -116.423681180762031, 33.289675242176294 ], [ -116.423690471640001, 33.28968032139904 ], [ -116.423699082890835, 33.289686165604479 ], [ -116.423706923180461, 33.289692712806918 ], [ -116.423713909351889, 33.289699893564411 ], [ -116.423719967307093, 33.289707631715466 ], [ -116.42372503279303, 33.289715845186358 ], [ -116.423729052082976, 33.289724446862202 ], [ -116.423731982546627, 33.289733345510463 ], [ -116.423909758655412, 33.290408289035405 ], [ -116.424600442348293, 33.290994442978381 ], [ -116.4246074838195, 33.291001038369984 ], [ -116.42461370969778, 33.291008174944068 ], [ -116.424619059794921, 33.291015783708509 ], [ -116.424623482389094, 33.29102379110634 ], [ -116.424846953052054, 33.291487363008379 ], [ -116.425027841924518, 33.291525436423164 ], [ -116.425037576949805, 33.291527895136348 ], [ -116.425046989747031, 33.291531101790298 ], [ -116.425055996852393, 33.291535027951447 ], [ -116.425064518399324, 33.29153963880627 ], [ -116.425072478826749, 33.291544893470054 ], [ -116.425079807548926, 33.291550745349376 ], [ -116.425086439581534, 33.291557142555249 ], [ -116.425092316117713, 33.291564028363254 ], [ -116.425097385049696, 33.291571341716526 ], [ -116.425101601430654, 33.291579017766999 ], [ -116.425308558730791, 33.292008324597504 ], [ -116.426457426783998, 33.291715817777117 ], [ -116.426467571220982, 33.291713674471893 ], [ -116.426477918294324, 33.291712354596164 ], [ -116.426488370918975, 33.291711870534193 ], [ -116.426498831019586, 33.291712226827791 ], [ -116.426509200450582, 33.291713420133924 ], [ -116.426519381917174, 33.291715439256009 ], [ -116.4265292798882, 33.291718265248981 ], [ -116.426538801492384, 33.291721871596778 ], [ -116.426547857389934, 33.291726224461712 ], [ -116.426556362610569, 33.291731283001468 ], [ -116.426564237350988, 33.291736999752395 ], [ -116.426814514912223, 33.291937253984173 ], [ -116.427663578953499, 33.291958390475905 ], [ -116.427674076870318, 33.291959077110789 ], [ -116.427684444321088, 33.291960607140318 ], [ -116.427694582881486, 33.291962966039094 ], [ -116.427704396300129, 33.291966131412657 ], [ -116.427713791412486, 33.291970073210216 ], [ -116.427722679025052, 33.291974754009942 ], [ -116.427730974762369, 33.291980129374245 ], [ -116.428120650368967, 33.29225901150761 ], [ -116.428544626475102, 33.29234823545341 ], [ -116.429708940557063, 33.292227671583191 ], [ -116.429719632818447, 33.2922270085351 ], [ -116.429730351740531, 33.292227226722197 ], [ -116.429740991826435, 33.292228323997016 ], [ -116.429751448355248, 33.292230289560031 ], [ -116.429761618412627, 33.292233104065943 ], [ -116.429771401903579, 33.292236739814093 ], [ -116.42978070253784, 33.292241161020968 ], [ -116.430681228276967, 33.292719937449483 ], [ -116.4306894008227, 33.292724739611351 ], [ -116.430697001678894, 33.292730148262365 ], [ -116.430703965534462, 33.292736116928175 ], [ -116.430710232551718, 33.292742594322569 ], [ -116.430715748880644, 33.292749524787965 ], [ -116.431065272744462, 33.293236329110037 ], [ -116.431070654884721, 33.293244831528675 ], [ -116.431074907823771, 33.293253762530419 ], [ -116.431077982688308, 33.293263019484158 ], [ -116.431294307573438, 33.294083969784644 ], [ -116.431463807037218, 33.294119634516399 ], [ -116.431474165100752, 33.294122278597449 ], [ -116.431484151522895, 33.294125769065126 ], [ -116.431493665878975, 33.294130070818973 ], [ -116.4315026124914, 33.294135140599877 ], [ -116.431510901391846, 33.294140927425566 ], [ -116.431518449225933, 33.294147373102952 ], [ -116.431525180091484, 33.29415441281354 ], [ -116.431980366542518, 33.294682904123796 ], [ -116.432644728082124, 33.29482268676135 ], [ -116.432655119535454, 33.294825340766018 ], [ -116.432665136592121, 33.294828846588508 ], [ -116.432674677861257, 33.29483316874348 ], [ -116.432683646767785, 33.294838263482951 ], [ -116.432691952529908, 33.2948440792388 ], [ -116.432699511077985, 33.294850557144969 ], [ -116.43270624590555, 33.294857631633214 ], [ -116.432712088843601, 33.294865231096665 ], [ -116.432716980750584, 33.294873278614965 ], [ -116.432720872111204, 33.294881692732339 ], [ -116.432723723537379, 33.294890388282518 ], [ -116.432780561336259, 33.29510606594134 ], [ -116.43308959478523, 33.295206276208383 ], [ -116.433098910074619, 33.295209725394294 ], [ -116.433107791377708, 33.295213887101333 ], [ -116.433116159550764, 33.295218724243327 ], [ -116.433123940022625, 33.295224193715327 ], [ -116.433131063459271, 33.295230246777201 ], [ -116.433137466381623, 33.295236829488587 ], [ -116.433143091731338, 33.295243883189023 ], [ -116.433317866160777, 33.295487280946169 ], [ -116.433323248698045, 33.29549578323131 ], [ -116.433327502014123, 33.295504714120412 ], [ -116.433330577231331, 33.295513970983443 ], [ -116.433413267385745, 33.295827735618296 ], [ -116.43372386811761, 33.295992849835436 ], [ -116.433891318037936, 33.295962545582121 ], [ -116.433901689497375, 33.295961102570516 ], [ -116.433912181097412, 33.295960501651365 ], [ -116.43392269350862, 33.295960748513906 ], [ -116.433933127204511, 33.295961840820958 ], [ -116.433943383403829, 33.295963768231069 ], [ -116.433953365005763, 33.295966512496449 ], [ -116.433962977509182, 33.295970047635635 ], [ -116.43397212990746, 33.295974340179725 ], [ -116.433980735549909, 33.295979349488796 ], [ -116.434610528481699, 33.296385253873858 ], [ -116.436171712229608, 33.296191760784325 ], [ -116.436182754147524, 33.296190869243809 ], [ -116.436193848184743, 33.296190920363607 ], [ -116.436204877455154, 33.296191913604972 ], [ -116.436215725755048, 33.296193838503356 ], [ -116.436226278787444, 33.296196674777974 ], [ -116.436236425366175, 33.29620039254614 ], [ -116.436246058587443, 33.296204952637552 ], [ -116.437403988218307, 33.296820452153504 ], [ -116.437413551863415, 33.296826168936413 ], [ -116.437422307025813, 33.296832715040161 ], [ -116.437430149489472, 33.296840012544102 ], [ -116.437436985902593, 33.296847974583471 ], [ -116.4381130909955, 33.297734033959422 ], [ -116.438117774188967, 33.297740808009337 ], [ -116.438121727706232, 33.297747894265498 ], [ -116.438124921509328, 33.297755238888271 ], [ -116.438127331332282, 33.297762786075054 ], [ -116.438435275691987, 33.298930935447864 ], [ -116.439386655575731, 33.299093329534202 ], [ -116.439997827900953, 33.298982694541358 ], [ -116.440008289277216, 33.298981242229779 ], [ -116.44001887207034, 33.298980646582038 ], [ -116.440029474362575, 33.29898091333456 ], [ -116.440039994048433, 33.298982039918378 ], [ -116.440050329817922, 33.298984015483946 ], [ -116.440060382132216, 33.298986821005499 ], [ -116.440070054182328, 33.298990429464446 ], [ -116.440079252821334, 33.298994806109427 ], [ -116.440087889461523, 33.298999908791032 ], [ -116.440095880927444, 33.299005688367785 ], [ -116.440103150256917, 33.299012089179435 ], [ -116.440109627442325, 33.299019049582611 ], [ -116.440115250104753, 33.299026502545111 ], [ -116.44011996409472, 33.299034376290848 ], [ -116.440123724013716, 33.299042594991491 ], [ -116.440126493651448, 33.299051079496557 ], [ -116.440188011248495, 33.299284414196293 ], [ -116.440569809426918, 33.299557558037002 ], [ -116.440577021653212, 33.299563217366263 ], [ -116.440583576455836, 33.299569401410878 ], [ -116.440589418479803, 33.299576057947078 ], [ -116.440594498389444, 33.299583130760851 ], [ -116.44059877328516, 33.299590560122823 ], [ -116.440602207065453, 33.299598283292518 ], [ -116.440604770732065, 33.299606235048358 ], [ -116.440737307284095, 33.300108924919527 ], [ -116.441606616868583, 33.300939473567986 ], [ -116.441613271027094, 33.300946512068087 ], [ -116.441619045111253, 33.300954065228801 ], [ -116.441623881578678, 33.300962057778506 ], [ -116.44162773223087, 33.300970410066711 ], [ -116.441630558693475, 33.300979038857989 ], [ -116.441780970025533, 33.301549483760525 ], [ -116.442354697816299, 33.301784799714468 ], [ -116.442363487804656, 33.301788836879467 ], [ -116.442371787276542, 33.301793533048823 ], [ -116.442379524484664, 33.3017988476252 ], [ -116.44238663254248, 33.301804734665126 ], [ -116.442393050002238, 33.301811143276538 ], [ -116.442398721386155, 33.301818018058263 ], [ -116.442403597666186, 33.301825299579299 ], [ -116.442579413123497, 33.302119270602674 ], [ -116.442765499084757, 33.30215840137739 ], [ -116.442775004657975, 33.302160790400869 ], [ -116.442784205416118, 33.302163892369407 ], [ -116.442793023659519, 33.302167681087305 ], [ -116.442801384918781, 33.302172124559021 ], [ -116.442809218583719, 33.302177185259879 ], [ -116.442816458499493, 33.302182820452579 ], [ -116.442823043525536, 33.302188982548394 ], [ -116.443392628908015, 33.302774082270474 ], [ -116.4444125311352, 33.30267607804965 ], [ -116.444423757606899, 33.302675487482134 ], [ -116.444434997359011, 33.3026758668613 ], [ -116.44444612866107, 33.302677212078322 ], [ -116.444457030957224, 33.302679508564076 ], [ -116.444467586171712, 33.302682731446794 ], [ -116.445297019128787, 33.302977451194813 ], [ -116.446137649426646, 33.302914040226334 ], [ -116.446148304443, 33.302913674130167 ], [ -116.446158951142209, 33.302914179760592 ], [ -116.446169485896618, 33.302915552196147 ], [ -116.446179806168132, 33.302917778078516 ], [ -116.446992871695386, 33.303129127142427 ], [ -116.449600284264264, 33.303020968130568 ], [ -116.449610578158016, 33.303020947651916 ], [ -116.449620827724303, 33.303021738611818 ], [ -116.449630940008177, 33.303023333836997 ], [ -116.449640823299717, 33.30302571886007 ], [ -116.449650387965733, 33.303028872050852 ], [ -116.449659547262712, 33.303032764812578 ], [ -116.449668218123421, 33.303037361841177 ], [ -116.449676321910303, 33.303042621445329 ], [ -116.450061539030813, 33.303318140959853 ], [ -116.450944328199142, 33.303423889677084 ], [ -116.450954253781617, 33.303425474290712 ], [ -116.450963957322685, 33.303427820196355 ], [ -116.450973353967967, 33.303430906879832 ], [ -116.450982361546721, 33.303434707349133 ], [ -116.450990901290496, 33.303439188370263 ], [ -116.450998898521846, 33.303444310758088 ], [ -116.451006283307365, 33.303450029718974 ], [ -116.451012991069277, 33.303456295242349 ], [ -116.451122809363241, 33.303569083782158 ], [ -116.451776408653373, 33.303450705905469 ], [ -116.452206991163479, 33.303208863124617 ], [ -116.452256317928402, 33.30304774787389 ], [ -116.452259518815652, 33.30303913626075 ], [ -116.452263747811557, 33.303030834722918 ], [ -116.452268962110566, 33.303022927287152 ], [ -116.452275108934145, 33.30301549399119 ], [ -116.452282126064944, 33.303008610073654 ], [ -116.452289942476511, 33.303002345212427 ], [ -116.452298479052359, 33.302996762819269 ], [ -116.452307649386611, 33.302991919398202 ], [ -116.452317360658725, 33.302987863973563 ], [ -116.452327514572801, 33.302984637593568 ], [ -116.452338008352811, 33.30298227291506 ], [ -116.452654805536611, 33.302924892110255 ], [ -116.452665267203074, 33.302923438652449 ], [ -116.452675850430168, 33.3029228418402 ], [ -116.45268645329601, 33.30292310742113 ], [ -116.452696973689527, 33.302924232837555 ], [ -116.452707310293903, 33.30292620725114 ], [ -116.452717363562329, 33.302929011647272 ], [ -116.452727036676578, 33.302932619018144 ], [ -116.452736236479524, 33.302936994622911 ], [ -116.453728017983991, 33.303463927701515 ], [ -116.454001075429048, 33.303414466310286 ], [ -116.454011537135699, 33.303413012730694 ], [ -116.454022120418401, 33.303412415794625 ], [ -116.4540327233547, 33.303412681250862 ], [ -116.454043243832842, 33.303413806543041 ], [ -116.454053580535245, 33.303415780833909 ], [ -116.454063633914103, 33.30341858511003 ], [ -116.454073307150196, 33.303422192364806 ], [ -116.454082507085133, 33.30342656785848 ], [ -116.454091145118767, 33.30343166945277 ], [ -116.454099138062162, 33.303437448016645 ], [ -116.454106408938983, 33.30344384789948 ], [ -116.454112887726666, 33.303450807467094 ], [ -116.454118512030888, 33.303458259695105 ], [ -116.454123227686338, 33.303466132814634 ], [ -116.454126989278521, 33.303474351003324 ], [ -116.454129760580926, 33.303482835115659 ], [ -116.454337535663001, 33.304270308863309 ], [ -116.454339290026624, 33.304278977179557 ], [ -116.454340010505547, 33.304287746233904 ], [ -116.454339690160793, 33.304296531575545 ], [ -116.454338332077171, 33.304305248596847 ], [ -116.454335949333384, 33.304313813348124 ], [ -116.454332564876239, 33.304322143345999 ], [ -116.454328211299668, 33.304330158368046 ], [ -116.454322930530765, 33.304337781225129 ], [ -116.454099555180207, 33.304626427791248 ], [ -116.45415829104563, 33.304849036933703 ], [ -116.454518657670988, 33.305819861811948 ], [ -116.454787677465205, 33.30584369347423 ], [ -116.454798671322806, 33.305845145051649 ], [ -116.454809426689238, 33.305847525790831 ], [ -116.454819829489452, 33.305850810440653 ], [ -116.454829769387828, 33.30585496416321 ], [ -116.454839140958299, 33.305859942902558 ], [ -116.454847844802742, 33.305865693852581 ], [ -116.454855788604988, 33.30587215601664 ], [ -116.454862888110199, 33.305879260854795 ], [ -116.454869068018269, 33.305886933010697 ], [ -116.455043933224786, 33.306130293897709 ], [ -116.455049318835435, 33.306138795031814 ], [ -116.455053575190504, 33.306147724977166 ], [ -116.455056653377454, 33.306156981114682 ], [ -116.455102828886851, 33.306331974340196 ], [ -116.455104614301888, 33.306340862812654 ], [ -116.455105312748103, 33.306349854940521 ], [ -116.455104917155552, 33.306358859706833 ], [ -116.455103431527974, 33.306367785966778 ], [ -116.455100870902328, 33.306376543369893 ], [ -116.455097261196528, 33.306385043275071 ], [ -116.455092638947221, 33.306393199647495 ], [ -116.455087050939838, 33.306400929929509 ], [ -116.455080553735201, 33.306408155876092 ], [ -116.455073213096895, 33.306414804347341 ], [ -116.455065103325794, 33.306420808048173 ], [ -116.454928979426782, 33.306511805135095 ], [ -116.454946616848815, 33.306578646592172 ], [ -116.455116153917174, 33.306614275718729 ], [ -116.455126223873847, 33.306616830479278 ], [ -116.455135945991117, 33.306620185004476 ], [ -116.455145227989732, 33.30662430745415 ], [ -116.455153981767893, 33.306629158699472 ], [ -116.455162124237447, 33.306634692693869 ], [ -116.455169578112489, 33.306640856910469 ], [ -116.455176272643044, 33.306647592840399 ], [ -116.455182144286539, 33.306654836548368 ], [ -116.455187137310944, 33.306662519279264 ], [ -116.455191204323697, 33.306670568111052 ], [ -116.455194306721737, 33.306678906646631 ], [ -116.455196415057671, 33.306687455739151 ], [ -116.455452798423991, 33.308066581891168 ], [ -116.455926509950956, 33.308318232521103 ], [ -116.455934458802702, 33.308322886438333 ], [ -116.455941870182173, 33.308328113869145 ], [ -116.455948684004511, 33.308333872434268 ], [ -116.455954845029368, 33.30834011544848 ], [ -116.455960303308601, 33.308346792299155 ], [ -116.455965014591243, 33.308353848856356 ], [ -116.456323455637559, 33.308952904757874 ], [ -116.456452213142811, 33.308929580581463 ], [ -116.456462675536997, 33.308928126789887 ], [ -116.45647325954242, 33.308927529632427 ], [ -116.456483863229664, 33.308927794859997 ], [ -116.456494384479768, 33.308928919918294 ], [ -116.456504721967647, 33.308930893972537 ], [ -116.456514776138008, 33.308933698011387 ], [ -116.456524450163926, 33.308937305030682 ], [ -116.456533650879507, 33.308941680292776 ], [ -116.457048437758374, 33.309215141053116 ], [ -116.457056613624033, 33.309219941220945 ], [ -116.457064217883541, 33.309225347994882 ], [ -116.457071185196497, 33.30923131491673 ], [ -116.457077455695554, 33.309237790715095 ], [ -116.457082975500754, 33.30924471974626 ], [ -116.457413760964613, 33.309705027897685 ], [ -116.457742221135661, 33.309811434302731 ], [ -116.457751909950915, 33.309815037078806 ], [ -116.457761125329213, 33.309819410108155 ], [ -116.457769778332562, 33.30982451118637 ], [ -116.457777785450389, 33.309830291082875 ], [ -116.45778506940556, 33.309836694015516 ], [ -116.457791559900087, 33.309843658189465 ], [ -116.457797194293775, 33.309851116393006 ], [ -116.457801918208546, 33.309858996646803 ], [ -116.457805686053405, 33.309867222898042 ], [ -116.457808461464353, 33.309875715754771 ], [ -116.458055483120759, 33.310811674958217 ], [ -116.458263394780488, 33.310977875992329 ], [ -116.458875619595347, 33.310788590278506 ], [ -116.459163597725265, 33.310306374063039 ], [ -116.459168843208118, 33.310298590866225 ], [ -116.459174996582078, 33.310291278234487 ], [ -116.459181996888759, 33.310284508610088 ], [ -116.459189774779773, 33.310278349056041 ], [ -116.459198253203596, 33.31027286059166 ], [ -116.459207348169087, 33.31026809758815 ], [ -116.459216969577326, 33.310264107229948 ], [ -116.459227022114305, 33.31026092904731 ], [ -116.459237406195101, 33.310258594524846 ], [ -116.459248018950362, 33.310257126789253 ], [ -116.460288734689357, 33.310156987258054 ], [ -116.460532489444518, 33.309947673359716 ], [ -116.460539674216889, 33.309942043459664 ], [ -116.460547449909157, 33.30993698109117 ], [ -116.460555751449391, 33.309932528619235 ], [ -116.460564509365042, 33.309928723304914 ], [ -116.460573650364353, 33.309925596993587 ], [ -116.460583097949765, 33.309923175848049 ], [ -116.460592773057968, 33.309921480129994 ], [ -116.462622383248075, 33.309645407428135 ], [ -116.462633482528915, 33.30964438192828 ], [ -116.462644650282201, 33.30964431065668 ], [ -116.462655767313748, 33.309645194374006 ], [ -116.462666714970638, 33.309647023648253 ], [ -116.462677376407711, 33.309649778955517 ], [ -116.46268763783462, 33.30965343088809 ], [ -116.462697389730295, 33.309657940468647 ], [ -116.462706528011921, 33.309663259566094 ], [ -116.462714955145756, 33.309669331409282 ], [ -116.462953822664346, 33.309860262283713 ], [ -116.463530938098131, 33.309755684069302 ], [ -116.463541400471371, 33.309754229633789 ], [ -116.463551984534121, 33.309753631823881 ], [ -116.463562588356424, 33.309753896396749 ], [ -116.463573109818029, 33.309755020804445 ], [ -116.463583447591859, 33.309756994218297 ], [ -116.46359350211975, 33.309759797633362 ], [ -116.463603176571453, 33.309763404051274 ], [ -116.463612377776911, 33.309767778740323 ], [ -116.463869785762057, 33.309904493374503 ], [ -116.463878425140464, 33.309909594183772 ], [ -116.463886419459755, 33.309915372011368 ], [ -116.463893691730263, 33.309921771213759 ], [ -116.463900171916094, 33.3099287301632 ], [ -116.463905797609357, 33.309936181841344 ], [ -116.463910514631451, 33.309944054484653 ], [ -116.463914277554636, 33.309952272275268 ], [ -116.463917050139656, 33.30996075607144 ], [ -116.464471432884736, 33.312060616253696 ], [ -116.464473189858921, 33.312069293621406 ], [ -116.464473910643633, 33.312078071942416 ], [ -116.464473588282118, 33.312086866496692 ], [ -116.464472225885189, 33.312095592407189 ], [ -116.464469836601111, 33.312104165459822 ], [ -116.464466443488689, 33.312112502915355 ], [ -116.464462079294776, 33.312120524308327 ], [ -116.464456786138257, 33.312128152223799 ], [ -116.464450615103573, 33.312135313044109 ], [ -116.464443625747592, 33.312141937659568 ], [ -116.464194426984605, 33.312355937328093 ], [ -116.463931166180018, 33.313372766304447 ], [ -116.464204002987955, 33.314804505612052 ], [ -116.46436922748218, 33.314839210199757 ], [ -116.464379922819134, 33.314841952149656 ], [ -116.464390218506765, 33.314845595754072 ], [ -116.46440000412791, 33.314850101936798 ], [ -116.464409174735536, 33.314855422370705 ], [ -116.464417631978478, 33.314861499996319 ], [ -116.464425285155883, 33.314868269633521 ], [ -116.464432052190276, 33.314875658680521 ], [ -116.464437860507587, 33.314883587892659 ], [ -116.46480133300156, 33.315443203441539 ], [ -116.465195463918093, 33.315724958221594 ], [ -116.465203187075232, 33.315731055261885 ], [ -116.46521014725802, 33.315737753212701 ], [ -116.465216276690143, 33.315744986851243 ], [ -116.465221515684689, 33.315752685738538 ], [ -116.465225813225672, 33.315760774905087 ], [ -116.465229127464596, 33.315769175580932 ], [ -116.465231426128, 33.315777805962675 ], [ -116.465232686831868, 33.315786582010126 ], [ -116.465232897299444, 33.315795418264671 ], [ -116.465219691403533, 33.316164529910452 ], [ -116.465218889574103, 33.316173080610476 ], [ -116.465217104157361, 33.316181528569047 ], [ -116.465214351525319, 33.31618979631849 ], [ -116.465210656919268, 33.316197808043633 ], [ -116.465206054218442, 33.316205490276886 ], [ -116.46520058562939, 33.316212772572271 ], [ -116.465194301298823, 33.316219588151064 ], [ -116.465187258853902, 33.316225874514444 ], [ -116.465179522873726, 33.316231574016335 ], [ -116.465043393702928, 33.31632258181493 ], [ -116.465303496710007, 33.317307656020844 ], [ -116.465480299133958, 33.317603033620905 ], [ -116.466327872367543, 33.317980500447128 ], [ -116.466336647460523, 33.31798486400713 ], [ -116.466344885149496, 33.317989895401752 ], [ -116.466352511611419, 33.317995549541557 ], [ -116.466359458500861, 33.31800177575635 ], [ -116.466365663562314, 33.318008518249222 ], [ -116.466371071188249, 33.318015716596634 ], [ -116.466375632917433, 33.318023306289639 ], [ -116.466379307869076, 33.318031219312452 ], [ -116.466382063109478, 33.318039384751572 ], [ -116.466383873946896, 33.318047729431349 ], [ -116.466384724152974, 33.318056178569968 ], [ -116.466384606108193, 33.318064656449351 ], [ -116.46638352087011, 33.318073087093914 ], [ -116.466381478163896, 33.318081394951328 ], [ -116.466268932739936, 33.318449150436969 ], [ -116.466378998109207, 33.318865960084928 ], [ -116.466380754123932, 33.318874628033988 ], [ -116.466381476077657, 33.318883396827466 ], [ -116.466381157017267, 33.318892182017258 ], [ -116.466379800015133, 33.318900898997043 ], [ -116.466377418139615, 33.318909463817597 ], [ -116.466374034329149, 33.318917793994899 ], [ -116.466369681171386, 33.31892580930468 ], [ -116.466364400589399, 33.318933432555156 ], [ -116.465984867390446, 33.319423900860983 ], [ -116.466155706710623, 33.319709302469512 ], [ -116.466160178847844, 33.319717867988537 ], [ -116.466163550738685, 33.319726772508524 ], [ -116.466165785771864, 33.31973591934694 ], [ -116.466166859679618, 33.319745209190046 ], [ -116.466166760801386, 33.319754541171655 ], [ -116.466165490210358, 33.319763813967803 ], [ -116.466069773257203, 33.320239555225307 ], [ -116.46606743127839, 33.320248406924016 ], [ -116.466064021509595, 33.320257017271331 ], [ -116.466059578857511, 33.320265298120148 ], [ -116.466054148802783, 33.320273164696566 ], [ -116.465641571346922, 33.320806321581429 ], [ -116.465635413983208, 33.320813479298181 ], [ -116.465628439332079, 33.320820102602241 ], [ -116.465620714563173, 33.320826127707512 ], [ -116.465612314070299, 33.320831496588745 ], [ -116.46560331875483, 33.320836157540555 ], [ -116.465593815246734, 33.320840065675434 ], [ -116.465583895070225, 33.320843183355585 ], [ -116.465573653762263, 33.320845480556144 ], [ -116.465186380512961, 33.320915654324814 ], [ -116.464885053777749, 33.32120491542522 ], [ -116.464915878200458, 33.321713171291421 ], [ -116.464915861540874, 33.321722425550377 ], [ -116.464914692147374, 33.321731628981965 ], [ -116.464912382505076, 33.32174068332241 ], [ -116.464908957273266, 33.321749491899695 ], [ -116.464904453022385, 33.321757960665714 ], [ -116.464898917843414, 33.321765999200672 ], [ -116.464568843807498, 33.322192520616966 ], [ -116.464562686237812, 33.322199678261825 ], [ -116.46455571137362, 33.322206301487462 ], [ -116.46454798638662, 33.322212326508428 ], [ -116.464539585672625, 33.322217695300338 ], [ -116.464530590135254, 33.322222356158754 ], [ -116.464521086406563, 33.322226264196871 ], [ -116.464511166012869, 33.322229381778087 ], [ -116.464500924493294, 33.322231678878303 ], [ -116.463910941737055, 33.322338575083315 ], [ -116.462944855962022, 33.323586895255133 ], [ -116.462938698135616, 33.323594052798406 ], [ -116.462931723011238, 33.323600675911919 ], [ -116.462923997763099, 33.323606700811411 ], [ -116.462915596789571, 33.32361206947364 ], [ -116.462906600996689, 33.323616730195347 ], [ -116.462897097019038, 33.323620638091079 ], [ -116.462887176385337, 33.323623755525588 ], [ -116.462876934636938, 33.323626052476193 ], [ -116.462709437038697, 33.323656397836032 ], [ -116.462510208219044, 33.323913821923533 ], [ -116.462546841846233, 33.324052566929836 ], [ -116.462548657678184, 33.324061667102605 ], [ -116.462549333953874, 33.32407087371471 ], [ -116.462548863500089, 33.324080089117523 ], [ -116.462547251306191, 33.324089215569018 ], [ -116.462544514471347, 33.324098156270587 ], [ -116.462540682023089, 33.324106816393858 ], [ -116.462535794609479, 33.324115104086168 ], [ -116.462529904067964, 33.324122931445132 ], [ -116.462523072875683, 33.32413021545068 ], [ -116.462196864029721, 33.324443330222415 ], [ -116.462206003301006, 33.324865717189383 ], [ -116.462205674166142, 33.324874486446383 ], [ -116.462204310766566, 33.324883186951361 ], [ -116.462201926185728, 33.324891735210862 ], [ -116.46219854330667, 33.32490004919223 ], [ -116.46219419459257, 33.324908049111102 ], [ -116.462188921775208, 33.324915658196929 ], [ -116.461941345665863, 33.325235542070857 ], [ -116.461935187619261, 33.325242699543253 ], [ -116.461928212264368, 33.325249322580014 ], [ -116.461920486777601, 33.325255347397622 ], [ -116.461912085559675, 33.325260715973585 ], [ -116.46190308951897, 33.325265376605493 ], [ -116.461893585292458, 33.325269284408783 ], [ -116.461883664411232, 33.32527240174911 ], [ -116.461873422419046, 33.325274698604666 ], [ -116.461727449825716, 33.325301142362918 ], [ -116.461684449175507, 33.325441609286521 ], [ -116.461681248408382, 33.325450220883759 ], [ -116.461677019201204, 33.325458522499773 ], [ -116.46167180436116, 33.325466430106722 ], [ -116.461665656671798, 33.325473863664953 ], [ -116.461658638359026, 33.325480747932936 ], [ -116.461650820461088, 33.325487013229093 ], [ -116.461642282109565, 33.325492596136769 ], [ -116.461633109728481, 33.325497440146535 ], [ -116.461623396159425, 33.325501496227993 ], [ -116.461613239721942, 33.325504723325921 ], [ -116.461602743218236, 33.325507088775993 ], [ -116.460796798908035, 33.325653085106971 ], [ -116.460236864516489, 33.326267163654833 ], [ -116.460111551914494, 33.326985640037897 ], [ -116.460222860939808, 33.327407239240223 ], [ -116.460224616467144, 33.327415907176601 ], [ -116.460225337813441, 33.327424675900787 ], [ -116.46022501803138, 33.327433460965104 ], [ -116.460223660200285, 33.327442177764581 ], [ -116.460221277396499, 33.327450742351715 ], [ -116.460217892567385, 33.327459072244721 ], [ -116.460213538310413, 33.327467087222104 ], [ -116.460208256559284, 33.32747471009521 ], [ -116.459825634126048, 33.32796904034096 ], [ -116.460293432106951, 33.328937893562411 ], [ -116.460296789747332, 33.328945936234092 ], [ -116.460299210628662, 33.328954206553455 ], [ -116.460300672893538, 33.328962629851191 ], [ -116.460301163339494, 33.328971130076923 ], [ -116.460300677538143, 33.328979630485492 ], [ -116.460299219875282, 33.328988054330203 ], [ -116.460296803511241, 33.328996325555593 ], [ -116.460293450262142, 33.329004369484061 ], [ -116.460289190402818, 33.329012113490187 ], [ -116.460284062393583, 33.329019487656453 ], [ -116.460143171272122, 33.329201509633556 ], [ -116.460641817415038, 33.331090104531562 ], [ -116.460643633248239, 33.331099205076498 ], [ -116.460644309312215, 33.331108412046206 ], [ -116.46064383843526, 33.331117627779072 ], [ -116.460642225611778, 33.331126754520291 ], [ -116.460639487949209, 33.331135695459039 ], [ -116.460635654486623, 33.331144355755377 ], [ -116.460630765886663, 33.331152643546211 ], [ -116.460624874004267, 33.331160470919663 ], [ -116.460618041336716, 33.331167754847868 ], [ -116.460610340360546, 33.331174418067171 ], [ -116.460151467169155, 33.331532562228531 ], [ -116.460142004266558, 33.331539144281329 ], [ -116.460131696466377, 33.331544789140239 ], [ -116.460120678385593, 33.331549423084972 ], [ -116.459140510869005, 33.331904859460735 ], [ -116.458745496474791, 33.332415154807833 ], [ -116.458739546221935, 33.332422092442023 ], [ -116.45873282781308, 33.332428531011793 ], [ -116.458725401905994, 33.332434412385822 ], [ -116.458717335546183, 33.332439683463512 ], [ -116.45870870156152, 33.332444296654344 ], [ -116.458699577904952, 33.33244821030754 ], [ -116.45869004695038, 33.332451389088241 ], [ -116.458680194749107, 33.332453804296513 ], [ -116.458670110252953, 33.332455434126274 ], [ -116.458659884510979, 33.332456263862454 ], [ -116.45736275061374, 33.332510158455086 ], [ -116.455945689926438, 33.332948118427389 ], [ -116.455936561570937, 33.332950563357656 ], [ -116.455927207494668, 33.332952328555315 ], [ -116.455917701328531, 33.332953400125682 ], [ -116.455125686911998, 33.333013186723925 ], [ -116.455085049192945, 33.333145881683542 ], [ -116.455082025679729, 33.333154084200451 ], [ -116.455078068738871, 33.333162009585187 ], [ -116.455073214655272, 33.333169585161947 ], [ -116.455067507940583, 33.333176741462658 ], [ -116.455061000925227, 33.333183412864152 ], [ -116.455053753278364, 33.333189538189572 ], [ -116.455045831460794, 33.333195061269628 ], [ -116.45503730811555, 33.333199931457678 ], [ -116.455028261401694, 33.333204104094001 ], [ -116.454628800053499, 33.333368110315767 ], [ -116.454619768839763, 33.333371402077418 ], [ -116.454610412937512, 33.333373998318422 ], [ -116.452982590647807, 33.33375824670631 ], [ -116.452674471710907, 33.33415622055962 ], [ -116.452668323804943, 33.334163365187528 ], [ -116.452661361346784, 33.334169977333445 ], [ -116.452653651150953, 33.334175993544321 ], [ -116.452645267207586, 33.334181356086141 ], [ -116.45263628997246, 33.334186013497657 ], [ -116.452626805594889, 33.334189921084317 ], [ -116.452121692959764, 33.334373044483421 ], [ -116.452111413950092, 33.33437626606495 ], [ -116.452100793201041, 33.334378606883249 ], [ -116.452089940421757, 33.334380042758312 ], [ -116.452078967718194, 33.334380558858001 ], [ -116.452067988435118, 33.334380149851143 ], [ -116.448923342625918, 33.33412986444678 ], [ -116.447617864757675, 33.334454800997499 ], [ -116.447177494204652, 33.334798394131674 ], [ -116.447170113824555, 33.334803653772212 ], [ -116.44716219213386, 33.334808342283694 ], [ -116.447153793354602, 33.33481242165567 ], [ -116.447144985576756, 33.334815858816235 ], [ -116.447135840206059, 33.334818625899871 ], [ -116.447126431385243, 33.334820700473458 ], [ -116.446809501794007, 33.334878063364961 ], [ -116.446799035772173, 33.334879516221584 ], [ -116.446788448203648, 33.334880112464063 ], [ -116.446777841052807, 33.334879846350177 ], [ -116.446767316472716, 33.334878720442774 ], [ -116.44675697582116, 33.334876745585028 ], [ -116.446746918684539, 33.334873940795894 ], [ -116.446737241918868, 33.334870333087146 ], [ -116.446728038716941, 33.334865957203043 ], [ -116.44611820985287, 33.33454204869448 ], [ -116.443280903309059, 33.334876059144982 ], [ -116.442711830666852, 33.335156571428229 ], [ -116.442702820060973, 33.335160548402634 ], [ -116.442693396728984, 33.335163803814496 ], [ -116.44268364468094, 33.33516630864154 ], [ -116.4426736508575, 33.33516804055288 ], [ -116.442663504354812, 33.335168984108357 ], [ -116.442653295630151, 33.335169130896027 ], [ -116.442268833335262, 33.3351596170384 ], [ -116.441971635430775, 33.335543382279397 ], [ -116.441965474761815, 33.335550538573436 ], [ -116.441958496813172, 33.335557160297583 ], [ -116.441950768786214, 33.335563183680812 ], [ -116.441942365106073, 33.335568550714619 ], [ -116.441933366704944, 33.335573209711349 ], [ -116.441923860242412, 33.335577115802245 ], [ -116.441913937271181, 33.335580231369413 ], [ -116.441903693355144, 33.335582526408054 ], [ -116.440952882575161, 33.33575456897718 ], [ -116.440943086899694, 33.335755954309093 ], [ -116.44093317903274, 33.335756589044856 ], [ -116.440923242645965, 33.335756467824083 ], [ -116.440913361651852, 33.335755591670406 ], [ -116.440903619495074, 33.335753967983074 ], [ -116.44089409844787, 33.335751610473963 ], [ -116.440884878915142, 33.33574853905219 ], [ -116.440417040264066, 33.335571584455046 ], [ -116.438472510242875, 33.33565205869921 ], [ -116.438461336522735, 33.335652042323794 ], [ -116.43845022449328, 33.335651071099051 ], [ -116.43843929279646, 33.335649155394634 ], [ -116.438428658148823, 33.33564631566432 ], [ -116.438418434095354, 33.335642582227685 ], [ -116.438408729797132, 33.335637994946097 ], [ -116.437287923105231, 33.33504256946496 ], [ -116.436697807386196, 33.335149323748077 ], [ -116.436687341141706, 33.335150775681804 ], [ -116.436676753460148, 33.335151370991071 ], [ -116.436666146307005, 33.335151103942508 ], [ -116.436655621835342, 33.335149977108109 ], [ -116.436645281401923, 33.335148001339867 ], [ -116.436635224591015, 33.335145195665589 ], [ -116.436625548255563, 33.335141587105554 ], [ -116.436616345584142, 33.335137210412171 ], [ -116.436267882739187, 33.334952083679759 ], [ -116.435466473771982, 33.335097053661997 ], [ -116.435455741647971, 33.335098531056595 ], [ -116.435444884596976, 33.335099107865481 ], [ -116.435434012512829, 33.335098778250405 ], [ -116.435423235441476, 33.335097545547704 ], [ -116.435412662467186, 33.335095422234502 ], [ -116.435402400608368, 33.335092429802856 ], [ -116.435392553734303, 33.335088598541766 ], [ -116.435383221513774, 33.33508396723073 ], [ -116.435374498406347, 33.335078582747329 ], [ -116.43536647270605, 33.335072499592641 ], [ -116.435359225647915, 33.335065779339601 ], [ -116.435242999350606, 33.334946422135218 ], [ -116.434536908661343, 33.334989265316352 ], [ -116.434526974959496, 33.334989488852102 ], [ -116.434517058425556, 33.334988956195239 ], [ -116.434507242804372, 33.334987671844026 ], [ -116.434497610988586, 33.334985646644768 ], [ -116.43448824431853, 33.334982897700208 ], [ -116.43447922189543, 33.334979448225063 ], [ -116.434470619913313, 33.33497532735008 ], [ -116.434339462180489, 33.334905644214878 ], [ -116.434316880416162, 33.334979311262003 ], [ -116.43431366020414, 33.334987958479303 ], [ -116.434309402822393, 33.334996292424094 ], [ -116.434304151735233, 33.335004228013204 ], [ -116.434297960551945, 33.335011684230551 ], [ -116.434290892479424, 33.335018584953673 ], [ -116.434283019677153, 33.335024859731639 ], [ -116.434274422520218, 33.335030444503708 ], [ -116.434265188778951, 33.335035282253621 ], [ -116.434255412722763, 33.335039323591566 ], [ -116.433798705628746, 33.33520480908016 ], [ -116.433752218353945, 33.33535645712363 ], [ -116.433749105412588, 33.33536485943911 ], [ -116.433745013052857, 33.335372968592353 ], [ -116.433739980686127, 33.335380706487634 ], [ -116.433734056776686, 33.335387998604709 ], [ -116.433727298374876, 33.335394774716427 ], [ -116.43371977056772, 33.335400969564937 ], [ -116.433711545852162, 33.335406523490363 ], [ -116.433702703436737, 33.335411383005273 ], [ -116.433136901172603, 33.335690217172015 ], [ -116.43292063633416, 33.335969414622852 ], [ -116.432939482090575, 33.336855490993656 ], [ -116.432939122358462, 33.336864535222183 ], [ -116.432937662453199, 33.33687350321938 ], [ -116.432935117278817, 33.336882303428837 ], [ -116.43293151281928, 33.336890846007329 ], [ -116.432926885872945, 33.336899043741745 ], [ -116.432921283677089, 33.33690681293966 ], [ -116.432914763425487, 33.33691407428342 ], [ -116.432907391684722, 33.336920753640314 ], [ -116.432899243714445, 33.336926782819262 ], [ -116.4327430210448, 33.337031120773581 ], [ -116.432653854594733, 33.337473237167849 ], [ -116.43265156605068, 33.337481912355784 ], [ -116.432648251431345, 33.337490357211209 ], [ -116.432643943321636, 33.337498488714836 ], [ -116.432638684073297, 33.33750622692768 ], [ -116.432632525388513, 33.337513495777124 ], [ -116.432625527811737, 33.337520223804844 ], [ -116.43261776013432, 33.337526344869069 ], [ -116.432609298718504, 33.337531798794977 ], [ -116.43260022674643, 33.337536531966194 ], [ -116.432590633402626, 33.337540497851933 ], [ -116.432580612997114, 33.337543657464487 ], [ -116.432570264038375, 33.337545979742359 ], [ -116.432435111807223, 33.337570422926689 ], [ -116.43226123792391, 33.338914233982166 ], [ -116.432259622708898, 33.338922788714385 ], [ -116.432257017512924, 33.338931174289478 ], [ -116.432253446687085, 33.338939312325294 ], [ -116.432248943608613, 33.338947126753375 ], [ -116.43179844466195, 33.33964051791046 ], [ -116.432120503183214, 33.34045995805446 ], [ -116.432123002041308, 33.34046738947076 ], [ -116.432124719405323, 33.340474971402912 ], [ -116.432125642533464, 33.340482647598577 ], [ -116.432125764576526, 33.340490361105871 ], [ -116.432099033835087, 33.341228550243343 ], [ -116.432098194919945, 33.341237315952149 ], [ -116.432096322039129, 33.34124597128087 ], [ -116.432093433246934, 33.34125443279212 ], [ -116.432089556390963, 33.341262618916645 ], [ -116.432084728843961, 33.341270450740225 ], [ -116.432078997143236, 33.341277852763945 ], [ -116.432072416542326, 33.341284753632031 ], [ -116.432065050478101, 33.34129108682 ], [ -116.432056969959504, 33.341296791275738 ], [ -116.432048252882808, 33.341301812008211 ], [ -116.432038983280847, 33.341306100617366 ], [ -116.432029250512741, 33.341309615760842 ], [ -116.432019148402702, 33.3413123235526 ], [ -116.432008774335429, 33.341314197889425 ], [ -116.431998228317255, 33.341315220702576 ], [ -116.431987612012236, 33.341315382132258 ], [ -116.431977027761903, 33.341314680622112 ], [ -116.431966577598885, 33.341313122934835 ], [ -116.43195636226308, 33.341310724086497 ], [ -116.431387251230532, 33.341151697761809 ], [ -116.430725521627664, 33.341271361061338 ], [ -116.430276648278124, 33.341962200931519 ], [ -116.43027131012839, 33.34196954994654 ], [ -116.430265147626429, 33.341976442429079 ], [ -116.43025821728223, 33.341982815175108 ], [ -116.430250582646892, 33.341988609746487 ], [ -116.430242313729934, 33.341993773006934 ], [ -116.430233486357338, 33.341998257609369 ], [ -116.43022418147612, 33.34200202242981 ], [ -116.430214484412105, 33.342005032945011 ], [ -116.430204484087525, 33.342007261548332 ], [ -116.429521430722971, 33.342130771971441 ], [ -116.429400418597183, 33.342386838887656 ], [ -116.429396065364742, 33.342394864640532 ], [ -116.429390782193266, 33.342402497937321 ], [ -116.429384620070834, 33.342409665108619 ], [ -116.429377638468296, 33.34241629698343 ], [ -116.429369904765579, 33.342422329556996 ], [ -116.429361493601093, 33.342427704608426 ], [ -116.429352486151586, 33.342432370262664 ], [ -116.429342969348752, 33.342436281491032 ], [ -116.429333035040017, 33.342439400545956 ], [ -116.429322779102293, 33.342441697325128 ], [ -116.428583174127482, 33.342575426493639 ], [ -116.428573251676568, 33.342576823567192 ], [ -116.428563215359276, 33.342577450695877 ], [ -116.428553152103788, 33.342577302447914 ], [ -116.42854314907153, 33.342576380107296 ], [ -116.428533292902358, 33.342574691662755 ], [ -116.428523668964104, 33.342572251738602 ], [ -116.42767504551982, 33.342320775627364 ], [ -116.427644798038955, 33.34241941066626 ], [ -116.427641744675725, 33.342427673751935 ], [ -116.427637743879714, 33.342435654683186 ], [ -116.427632832897615, 33.342443279158481 ], [ -116.427627057449897, 33.342450476194806 ], [ -116.427620471305119, 33.342457178788564 ], [ -116.427613135779424, 33.342463324539182 ], [ -116.427605119165591, 33.342468856230511 ], [ -116.427596496097422, 33.342473722362996 ], [ -116.427587346854693, 33.342477877633478 ], [ -116.427577756615889, 33.342481283356761 ], [ -116.426923843519134, 33.342683164192671 ], [ -116.426894511447259, 33.342909724621364 ], [ -116.426892727458338, 33.342918941132403 ], [ -116.426889794770176, 33.342927953819256 ], [ -116.426885745239261, 33.342936664779984 ], [ -116.426880622853986, 33.342944979390168 ], [ -116.426874483256924, 33.342952807330853 ], [ -116.426867393140355, 33.342960063569457 ], [ -116.426859429521784, 33.34296666928374 ], [ -116.426236392426233, 33.343432208195708 ], [ -116.426125399013159, 33.343794120416796 ], [ -116.426122372072584, 33.343802322044546 ], [ -116.426118411680136, 33.34381024630872 ], [ -116.426113554152295, 33.343817820543919 ], [ -116.426107844032359, 33.343824975294368 ], [ -116.426101333681899, 33.343831644950988 ], [ -116.426094082800716, 33.343837768353069 ], [ -116.426086157879254, 33.343843289348833 ], [ -116.426077631588996, 33.343848157310845 ], [ -116.426068582116045, 33.343852327599819 ], [ -116.425669006385903, 33.344016230482374 ], [ -116.425659002832063, 33.344019825753207 ], [ -116.425648612911871, 33.344022568506581 ], [ -116.425637942264288, 33.344024430855761 ], [ -116.425627099382609, 33.344025393865387 ], [ -116.425616194511335, 33.344025447744201 ], [ -116.425605338525216, 33.344024591944269 ], [ -116.425594641802036, 33.344022835166918 ], [ -116.425584213100194, 33.344020195274148 ], [ -116.42557415845296, 33.344016699106866 ], [ -116.425564580090423, 33.344012382212213 ], [ -116.42555557540004, 33.344007288481997 ], [ -116.425547235936378, 33.344001469706399 ], [ -116.425539646490364, 33.343994985047445 ], [ -116.425532884226996, 33.343987900437639 ], [ -116.425527017901061, 33.343980287909254 ], [ -116.425522107157704, 33.343972224862135 ], [ -116.425518201926309, 33.343963793276892 ], [ -116.425515341912771, 33.343955078880917 ], [ -116.425363435615637, 33.343378836727389 ], [ -116.424648982187051, 33.34299921458296 ], [ -116.42357126917689, 33.342879034046334 ], [ -116.423584468410198, 33.342929109335643 ], [ -116.423586220248339, 33.34293777763817 ], [ -116.423586937654633, 33.342946546395957 ], [ -116.423586613719664, 33.342955331161072 ], [ -116.423585251562827, 33.342964047331463 ], [ -116.423582864302048, 33.342972610965546 ], [ -116.423579474927635, 33.342980939590895 ], [ -116.423575116080883, 33.342988952998077 ], [ -116.42356982973962, 33.342996574013576 ], [ -116.423074247845875, 33.343636157693105 ], [ -116.423068084825118, 33.343643312889064 ], [ -116.423061104568987, 33.343649933386722 ], [ -116.423053374301134, 33.343655955427039 ], [ -116.423044968468247, 33.343661321014281 ], [ -116.423035968023186, 33.343665978474718 ], [ -116.423026459645357, 33.343669882954437 ], [ -116.423016534905784, 33.343672996851069 ], [ -116.423006289385427, 33.343675290175959 ], [ -116.4227949675562, 33.343713487299759 ], [ -116.42281803043474, 33.343800985667556 ], [ -116.422819813053493, 33.343809874161487 ], [ -116.422820508143474, 33.343818865999296 ], [ -116.422820108668674, 33.343827870166926 ], [ -116.422818618672167, 33.343836795525618 ], [ -116.42281605323511, 33.343845551734113 ], [ -116.422812438324101, 33.343854050163294 ], [ -116.422807810528496, 33.343862204793361 ], [ -116.42280221668986, 33.34386993308415 ], [ -116.42279571342803, 33.343877156811004 ], [ -116.422788366567957, 33.34388380285634 ], [ -116.422780250473394, 33.343889803949665 ], [ -116.422638394893099, 33.343984516465248 ], [ -116.422742768452423, 33.344731258965496 ], [ -116.422837337544919, 33.344714165631387 ], [ -116.422848071217047, 33.344712689437522 ], [ -116.422858929686583, 33.344712113828407 ], [ -116.422869803046069, 33.344712444630417 ], [ -116.422880581237379, 33.344713678495111 ], [ -116.422891155165672, 33.344715802933571 ], [ -116.422901417803516, 33.344718796442635 ], [ -116.422911265274365, 33.344722628722522 ], [ -116.422920597903826, 33.344727260983596 ], [ -116.422929321228608, 33.344732646338933 ], [ -116.422937346952608, 33.344738730278863 ], [ -116.422944593840697, 33.344745451222828 ], [ -116.423096383099931, 33.344901348962772 ], [ -116.423102506923769, 33.344908296608125 ], [ -116.423107797633705, 33.344915698692006 ], [ -116.423112206426211, 33.344923486935166 ], [ -116.423115692632862, 33.344931589496213 ], [ -116.42311822409539, 33.344939931634279 ], [ -116.423119777462389, 33.344948436398553 ], [ -116.423120338404772, 33.344957025338331 ], [ -116.423119901747839, 33.344965619225995 ], [ -116.423118471519189, 33.344974138788622 ], [ -116.423116060911397, 33.344982505438658 ], [ -116.423112692160529, 33.344990641999225 ], [ -116.423108396340808, 33.344998473415643 ], [ -116.423103213078221, 33.345005927448135 ], [ -116.4218642021238, 33.346604871873254 ], [ -116.421858038760533, 33.346612026973702 ], [ -116.421851058139268, 33.346618647369525 ], [ -116.421843327487181, 33.346624669302564 ], [ -116.4218349212547, 33.346630034778244 ], [ -116.421825920398504, 33.346634692123942 ], [ -116.42181641160191, 33.346638596486706 ], [ -116.421806486440062, 33.346641710265438 ], [ -116.42179624049794, 33.346644003472505 ], [ -116.418344485130362, 33.347267801777889 ], [ -116.418014559398756, 33.347584083205952 ], [ -116.41800772371289, 33.347590057660518 ], [ -116.418000254557029, 33.34759548727083 ], [ -116.417992215007772, 33.347600326184228 ], [ -116.417983672958755, 33.347604533536092 ], [ -116.417974700547205, 33.347608073795577 ], [ -116.417965373544803, 33.347610917065325 ], [ -116.417955770717754, 33.347613039333943 ], [ -116.417744435862957, 33.34765122694143 ], [ -116.417767494279857, 33.347738725828734 ], [ -116.417769276417374, 33.347747614350787 ], [ -116.41776997096504, 33.347756606168268 ], [ -116.417769570892361, 33.347765610267338 ], [ -116.417768080248464, 33.347774535509878 ], [ -116.417765514121072, 33.347783291555871 ], [ -116.417761898483761, 33.34779178977788 ], [ -116.417757269933219, 33.347799944158062 ], [ -116.417751675318669, 33.347807672158922 ], [ -116.417745171267825, 33.34781489555867 ], [ -116.417737823613578, 33.34782154124305 ], [ -116.417729706727755, 33.347827541945229 ], [ -116.41737551217669, 33.348063986854847 ], [ -116.417243820613052, 33.348342523548553 ], [ -116.417239653949551, 33.34835024171398 ], [ -116.417234626942729, 33.348357600154188 ], [ -116.417228784389579, 33.348364533295864 ], [ -116.417222178354663, 33.348370979355607 ], [ -116.417214867706264, 33.348376880890633 ], [ -116.417206917591756, 33.348382185310449 ], [ -116.417198398856996, 33.348386845345701 ], [ -116.416338494407796, 33.348810369485911 ], [ -116.415866087117251, 33.349419892803056 ], [ -116.415757583052027, 33.34977349643659 ], [ -116.415959653283323, 33.350540331364684 ], [ -116.415961404450982, 33.350548999688755 ], [ -116.415962121077001, 33.350557768398275 ], [ -116.415961796259495, 33.350566553045688 ], [ -116.415960433126344, 33.350575269030223 ], [ -116.415958044804867, 33.350583832411985 ], [ -116.415954654295632, 33.350592160720929 ], [ -116.41595029425082, 33.350600173750806 ], [ -116.41594500665984, 33.350607794331694 ], [ -116.415721359218196, 33.350896346874691 ], [ -116.415827094660045, 33.351297597949809 ], [ -116.41582879799715, 33.351305933668726 ], [ -116.415829544473723, 33.351314365238551 ], [ -116.415829327437322, 33.351322817522977 ], [ -116.415828148821774, 33.351331215201341 ], [ -116.415826019129739, 33.351339483439361 ], [ -116.41582295733923, 33.351347548556298 ], [ -116.41581899073455, 33.351355338681408 ], [ -116.415306902853402, 33.352241658383974 ], [ -116.415801256182021, 33.353304945519369 ], [ -116.415804708537721, 33.35331368483137 ], [ -116.415807060452792, 33.353322671181871 ], [ -116.415808287134553, 33.353331809842771 ], [ -116.41580837565175, 33.353341004480384 ], [ -116.415807325070872, 33.353350158171061 ], [ -116.415805146466084, 33.353359174422508 ], [ -116.415566904917938, 33.354135529335949 ], [ -116.415563847804563, 33.354143796626296 ], [ -116.41555984209316, 33.354151781300168 ], [ -116.415554925118997, 33.354159408935949 ], [ -116.415549142710773, 33.354166608439833 ], [ -116.415542548763554, 33.354173312708291 ], [ -116.415535204736571, 33.354179459253778 ], [ -116.415527179080101, 33.354184990786962 ], [ -116.415518546597781, 33.354189855750867 ], [ -116.415509387749225, 33.35419400880118 ], [ -116.41549978790006, 33.354197411229038 ], [ -116.415489836526419, 33.354200031321973 ], [ -116.415479626380872, 33.354201844659102 ], [ -116.415469252627872, 33.354202834339155 ], [ -116.415458811956825, 33.354202991137704 ], [ -116.415099772815466, 33.354194023685004 ], [ -116.415061578039172, 33.354318484333064 ], [ -116.415058593261094, 33.354326584504975 ], [ -116.415054697748474, 33.354334415024489 ], [ -116.415049926335385, 33.354341905869738 ], [ -116.415044321688356, 33.354348990056373 ], [ -116.415037933924879, 33.354355604236304 ], [ -116.415030820165256, 33.354361689264579 ], [ -116.415023044021808, 33.354367190727686 ], [ -116.415014675030051, 33.354372059430595 ], [ -116.415005788026875, 33.354376251836541 ], [ -116.414996462481469, 33.354379730456323 ], [ -116.414986781784449, 33.354382464183388 ], [ -116.413441119864089, 33.354752380966829 ], [ -116.413000829316601, 33.354999279143435 ], [ -116.412870886326104, 33.355274053279466 ], [ -116.412866666109139, 33.355281857591343 ], [ -116.412861566180851, 33.355289293085278 ], [ -116.41285563303353, 33.355296291977091 ], [ -116.412848920755366, 33.35530279046263 ], [ -116.41284149053746, 33.355308729299637 ], [ -116.412833410115852, 33.3553140543479 ], [ -116.412824753154112, 33.355318717062566 ], [ -116.412815598571839, 33.355322674936787 ], [ -116.411945173344591, 33.355656219280824 ], [ -116.411654638621982, 33.356141797312269 ], [ -116.411649516600747, 33.356149403910678 ], [ -116.411643526453318, 33.356156562634304 ], [ -116.4116367248252, 33.3561632057868 ], [ -116.411629176035703, 33.356169270547255 ], [ -116.411620951469729, 33.356174699564306 ], [ -116.411612128902689, 33.356179441498604 ], [ -116.411602791765048, 33.356183451507995 ], [ -116.411593028353323, 33.356186691671944 ], [ -116.411582930995181, 33.356189131349744 ], [ -116.411572595176224, 33.356190747470613 ], [ -116.410224968914818, 33.356345715022726 ], [ -116.409756067564331, 33.356950564762897 ], [ -116.409749902289661, 33.356957719106695 ], [ -116.409742919731869, 33.356964338667666 ], [ -116.40973518713669, 33.356970359695573 ], [ -116.409726778973308, 33.356975724204617 ], [ -116.409717776217022, 33.356980380531489 ], [ -116.409708265569449, 33.356984283833057 ], [ -116.409698338623485, 33.356987396518313 ], [ -116.409688090981362, 33.356989688610284 ], [ -116.408780726229665, 33.35715355360135 ], [ -116.408639665610295, 33.357335504944835 ], [ -116.408633511895488, 33.357342646974686 ], [ -116.408626543686637, 33.357349256227678 ], [ -116.408618827853417, 33.357355269278642 ], [ -116.408610438440078, 33.357360628423798 ], [ -116.40860145595488, 33.357365282234582 ], [ -116.408591966597498, 33.35736918605096 ], [ -116.408086602734045, 33.357552109490037 ], [ -116.408076625778321, 33.357555245081976 ], [ -116.40806632419411, 33.357557551457873 ], [ -116.4057872082508, 33.357969095002524 ], [ -116.404677342626997, 33.359515286576361 ], [ -116.404671442407476, 33.35952265247748 ], [ -116.404664693941896, 33.359529500992686 ], [ -116.404657162960731, 33.359535765416801 ], [ -116.40464892281625, 33.359541384733824 ], [ -116.404640053768176, 33.359546304210916 ], [ -116.404630642201852, 33.359550475932011 ], [ -116.404620779786811, 33.359553859264075 ], [ -116.404610562583969, 33.359556421253053 ], [ -116.404600090109923, 33.359558136945026 ], [ -116.404589464367689, 33.359558989628944 ], [ -116.404578788853158, 33.359558970999451 ], [ -116.404568167546941, 33.359558081238191 ], [ -116.404557703901773, 33.359556329011411 ] ] ] } }
]
}
