{
  "type": "FeatureCollection",
  "name": "deanza_country_club_boundary",
  "crs": {
    "type": "name",
    "properties": {
      "name": "urn:ogc:def:crs:OGC:1.3:CRS84"
    }
  },
  "features": [
    {
      "type": "Feature",
      "properties": {
        "name": "De Anza Country Club",
        "source": "OpenStreetMap way 44500984"
      },
      "geometry": {
        "type": "Polygon",
        "coordinates": [
          [
            [
              -116.3816285,
              33.2894011
            ],
            [
              -116.381415,
              33.28874
            ],
            [
              -116.3813833,
              33.2878343
            ],
            [
              -116.3824866,
              33.2878376
            ],
            [
              -116.3844639,
              33.287893
            ],
            [
              -116.3847603,
              33.2878773
            ],
            [
              -116.3849928,
              33.2877849
            ],
            [
              -116.3851692,
              33.2875677
            ],
            [
              -116.3855327,
              33.2872161
            ],
            [
              -116.3859141,
              33.2868081
            ],
            [
              -116.3864527,
              33.2862609
            ],
            [
              -116.3868323,
              33.2858808
            ],
            [
              -116.3872217,
              33.2857
            ],
            [
              -116.3883441,
              33.2854199
            ],
            [
              -116.3893037,
              33.2852878
            ],
            [
              -116.3892498,
              33.2851226
            ],
            [
              -116.3892645,
              33.2849717
            ],
            [
              -116.3893563,
              33.2848933
            ],
            [
              -116.3895795,
              33.2848047
            ],
            [
              -116.3898225,
              33.2846685
            ],
            [
              -116.3899881,
              33.2844879
            ],
            [
              -116.3901345,
              33.2842584
            ],
            [
              -116.390392,
              33.2840223
            ],
            [
              -116.3907011,
              33.2839202
            ],
            [
              -116.390792,
              33.2842027
            ],
            [
              -116.3908697,
              33.2842916
            ],
            [
              -116.3915775,
              33.2841222
            ],
            [
              -116.3929141,
              33.2840131
            ],
            [
              -116.3935665,
              33.2838809
            ],
            [
              -116.3940213,
              33.2839371
            ],
            [
              -116.3956434,
              33.2834423
            ],
            [
              -116.3957724,
              33.2841355
            ],
            [
              -116.3959477,
              33.2842235
            ],
            [
              -116.3963624,
              33.2843514
            ],
            [
              -116.3980352,
              33.2844119
            ],
            [
              -116.3982862,
              33.2844936
            ],
            [
              -116.3988196,
              33.2846166
            ],
            [
              -116.3992908,
              33.2846467
            ],
            [
              -116.399237,
              33.2849155
            ],
            [
              -116.3992528,
              33.2852064
            ],
            [
              -116.3997106,
              33.2853717
            ],
            [
              -116.3997618,
              33.2854241
            ],
            [
              -116.4000653,
              33.2857016
            ],
            [
              -116.4001776,
              33.2868825
            ],
            [
              -116.4001616,
              33.2874993
            ],
            [
              -116.3998618,
              33.2884392
            ],
            [
              -116.3993775,
              33.2885726
            ],
            [
              -116.399186,
              33.2884576
            ],
            [
              -116.3990659,
              33.28821
            ],
            [
              -116.3989412,
              33.2878861
            ],
            [
              -116.3988496,
              33.2875644
            ],
            [
              -116.398624,
              33.2869342
            ],
            [
              -116.3982081,
              33.2867328
            ],
            [
              -116.3974061,
              33.2863667
            ],
            [
              -116.3972226,
              33.2862782
            ],
            [
              -116.3964729,
              33.2861055
            ],
            [
              -116.3955318,
              33.2858378
            ],
            [
              -116.395275,
              33.286015
            ],
            [
              -116.3950438,
              33.2862158
            ],
            [
              -116.3950509,
              33.286627
            ],
            [
              -116.3949848,
              33.2871207
            ],
            [
              -116.3948408,
              33.2876863
            ],
            [
              -116.394017,
              33.287886
            ],
            [
              -116.3916947,
              33.2883459
            ],
            [
              -116.3910065,
              33.2884389
            ],
            [
              -116.390317,
              33.288513
            ],
            [
              -116.3901545,
              33.2884882
            ],
            [
              -116.3899709,
              33.2895106
            ],
            [
              -116.3898883,
              33.2902103
            ],
            [
              -116.3898018,
              33.2908903
            ],
            [
              -116.3896726,
              33.2915827
            ],
            [
              -116.3897574,
              33.2925573
            ],
            [
              -116.3897681,
              33.2929931
            ],
            [
              -116.3898266,
              33.293739
            ],
            [
              -116.3897829,
              33.2940064
            ],
            [
              -116.3898473,
              33.2943666
            ],
            [
              -116.3898672,
              33.2947925
            ],
            [
              -116.3899249,
              33.2954952
            ],
            [
              -116.3898328,
              33.2957342
            ],
            [
              -116.3898448,
              33.2958727
            ],
            [
              -116.3897968,
              33.295971
            ],
            [
              -116.3899168,
              33.2963603
            ],
            [
              -116.3896623,
              33.2964345
            ],
            [
              -116.3894991,
              33.2963984
            ],
            [
              -116.389365,
              33.2962166
            ],
            [
              -116.3892278,
              33.2962399
            ],
            [
              -116.3889349,
              33.2962319
            ],
            [
              -116.3887885,
              33.296284
            ],
            [
              -116.3885892,
              33.2962519
            ],
            [
              -116.3884158,
              33.2962057
            ],
            [
              -116.3879016,
              33.2960224
            ],
            [
              -116.3873939,
              33.2957959
            ],
            [
              -116.3869835,
              33.2956717
            ],
            [
              -116.3867478,
              33.2955703
            ],
            [
              -116.3866379,
              33.2954787
            ],
            [
              -116.3866087,
              33.2954092
            ],
            [
              -116.3864836,
              33.2951675
            ],
            [
              -116.386426,
              33.2948727
            ],
            [
              -116.3863133,
              33.2943141
            ],
            [
              -116.3862491,
              33.2939184
            ],
            [
              -116.3862225,
              33.2934314
            ],
            [
              -116.3862819,
              33.2929487
            ],
            [
              -116.3863393,
              33.2925596
            ],
            [
              -116.3863711,
              33.292118
            ],
            [
              -116.3863578,
              33.2918107
            ],
            [
              -116.3863759,
              33.2914801
            ],
            [
              -116.3864328,
              33.2913031
            ],
            [
              -116.3865428,
              33.2910927
            ],
            [
              -116.3866046,
              33.290833
            ],
            [
              -116.3866128,
              33.2899945
            ],
            [
              -116.3864422,
              33.2898445
            ],
            [
              -116.3864565,
              33.2894963
            ],
            [
              -116.3865315,
              33.2894168
            ],
            [
              -116.386491,
              33.2890482
            ],
            [
              -116.3863366,
              33.2889397
            ],
            [
              -116.3861916,
              33.2889104
            ],
            [
              -116.3860393,
              33.2888544
            ],
            [
              -116.3859734,
              33.2887773
            ],
            [
              -116.3859407,
              33.2886763
            ],
            [
              -116.385688,
              33.2888649
            ],
            [
              -116.3854325,
              33.2890342
            ],
            [
              -116.3850292,
              33.2891102
            ],
            [
              -116.3843846,
              33.2892358
            ],
            [
              -116.3824075,
              33.2900589
            ],
            [
              -116.3816285,
              33.2894011
            ]
          ]
        ]
      }
    }
  ]
}