{"type": "FeatureCollection", "features": [{"id": "0", "type": "Feature", "properties": {"index": 0, "apn": "1403300302", "apn_8": "14033003", "parcelid": 609348, "situs_address": 1682, "situs_street": "MONTEZUMA", "situs_suffix": "CT", "situs_post_dir": "", "situs_pre_dir": "", "subname": "DE ANZA VILLAS", "submap": "007135     ", "situs_community": "BORREGO SPRINGS", "situs_zip": "92004-4336", "name": "De Anza Villas complex boundary", "source": "SanGIS parcel polygons, dissolved from subname LIKE 'DE ANZA VILLAS%'", "parcel_count": 67, "apns": "1402641002, 1402641003, 1402641004, 1402641005, 1402641006, 1402641007, 1402641008, 1402641009, 1402641010, 1402641011, 1402641012, 1402641013, 1402641014, 1402641015, 1402641016, 1402641017, 1402641018, 1402641019, 1402641020, 1402641021, 1402641022, 1402641023, 1402641024, 1402641025, 1402641026, 1402641027, 1402641028, 1402641029, 1402641030, 1402641031, 1402641032, 1403300100, 1403300301, 1403300302, 1403300303, 1403300304, 1403300305, 1403300306, 1403300307, 1403300308, 1403300309, 1403300310, 1403300311, 1403300312, 1403300501, 1403300502, 1403300503, 1403300504, 1403300505, 1403300506, 1403300507, 1403300508, 1403300509, 1403300510, 1403300511, 1403300512, 1403300601, 1403300602, 1403300603, 1403300604, 1403300605, 1403300606, 1403300607, 1403300608, 1403300609, 1403300610, 1403300611"}, "geometry": {"type": "MultiPolygon", "coordinates": [[[[-116.40021761717615, 33.28686355405532], [-116.40021715558483, 33.28684981575344], [-116.40021662099879, 33.286836082949904], [-116.4002160155561, 33.286822350232136], [-116.4002153338934, 33.286808620311476], [-116.40021458030664, 33.286794894084615], [-116.40021374835128, 33.28678116975587], [-116.40021284769111, 33.28676744821522], [-116.40021187189093, 33.28675373307726], [-116.40021082094299, 33.28674001983352], [-116.40020969807114, 33.286726310283434], [-116.40020850327703, 33.286712605328766], [-116.40020723333835, 33.28669890407166], [-116.4002058871893, 33.28668521102181], [-116.40020447340775, 33.28667151985716], [-116.400202980192, 33.28665783510024], [-116.4002014161293, 33.28664415583909], [-116.40019977907863, 33.28663048568295], [-116.4001980668806, 33.286616817421034], [-116.40019628384023, 33.286603157359885], [-116.40019442781207, 33.28658950640378], [-116.40019249663655, 33.28657585734187], [-116.40019049355605, 33.286562222793705], [-116.4001884153299, 33.286548591041495], [-116.4001862641145, 33.286534967492514], [-116.40018404528244, 33.28652135484546], [-116.40018174487248, 33.28650775041215], [-116.40017937791183, 33.286494152370956], [-116.4001769336708, 33.28648056434167], [-116.40017441644683, 33.28646698812236], [-116.40017183159716, 33.28645341739487], [-116.40016917054696, 33.28643986028463], [-116.40016643436064, 33.28642631138032], [-116.40016362948583, 33.28641277428075], [-116.4001607494796, 33.28639924809216], [-116.40015779755652, 33.286385729203815], [-116.40015477372899, 33.28637222482924], [-116.40015167799706, 33.28635873496833], [-116.40014850712762, 33.28634525241162], [-116.4001452643492, 33.286331781663606], [-116.40014195288569, 33.28631832452368], [-116.4001385684427, 33.28630488099708], [-116.40013510994217, 33.286291448380084], [-116.40013158276273, 33.286278032977854], [-116.40012797937712, 33.2862646275861], [-116.40012430409193, 33.28625123941303], [-116.40012056118765, 33.286237860338346], [-116.40011674208654, 33.286224496684234], [-116.40011284786522, 33.286211150252655], [-116.40010889247415, 33.28619781742011], [-116.40010486088316, 33.28618449820466], [-116.40010075739289, 33.28617119620785], [-116.40009658199709, 33.28615790782298], [-116.40009233470508, 33.28614463846016], [-116.40008801873303, 33.286131385410314], [-116.40008363086179, 33.2861181495791], [-116.40007917430128, 33.28610492465093], [-116.40007463940785, 33.28609172145744], [-116.40007003905679, 33.28607853547484], [-116.40006536572993, 33.28606536490876], [-116.40006062479988, 33.28605221245775], [-116.40005581197696, 33.286039080831976], [-116.40005092402963, 33.28602596372367], [-116.40004597277974, 33.286012868331945], [-116.40004094748366, 33.285999790161306], [-116.40003585244203, 33.28598673281333], [-116.40003068979586, 33.28597369267871], [-116.40002545525537, 33.28596067246763], [-116.40002015097092, 33.28594767398088], [-116.40001477908508, 33.28593469451076], [-116.40000933423461, 33.285921736768806], [-116.40000382178437, 33.285908798945215], [-116.39999823958709, 33.28589588104251], [-116.39999258871808, 33.28588298396111], [-116.39998686703787, 33.28587011221192], [-116.39998107561078, 33.28585726038361], [-116.39997521980631, 33.285844429371416], [-116.39996929104043, 33.285831621890615], [-116.39996329360287, 33.28581883523108], [-116.39995723179113, 33.28580607119094], [-116.39995109701965, 33.2857933315839], [-116.39994489358429, 33.28578061730643], [-116.39993862577316, 33.285767924746644], [-116.39993228822006, 33.285755254812656], [-116.3999258820016, 33.285742609306574], [-116.39991940819604, 33.28572999093209], [-116.39991286786928, 33.28571739517952], [-116.39990625887717, 33.285704823854815], [-116.39989958229502, 33.28569227785831], [-116.3998928391994, 33.28567975899204], [-116.39988602743546, 33.285667262750216], [-116.39987915130996, 33.28565479634107], [-116.39987220543644, 33.285642348950994], [-116.3998651952122, 33.285629937705245], [-116.39985811846226, 33.285617546376365], [-116.39985097413006, 33.285605184883934], [-116.39984376328462, 33.28559285052172], [-116.39983648806991, 33.285580541483704], [-116.39982914312593, 33.285568262284755], [-116.39982173703346, 33.285556008406125], [-116.39981426228687, 33.28554378526693], [-116.39980672424622, 33.28553158835231], [-116.39979911862658, 33.285519423077474], [-116.39979144756579, 33.28550728402976], [-116.39978371429392, 33.28549517661531], [-116.39977591236185, 33.28548309633359], [-116.39976805143624, 33.28547104587784], [-116.39976012185667, 33.285459026161405], [-116.39975212684222, 33.28544703627881], [-116.39974406639445, 33.28543507713157], [-116.39973594373421, 33.28542314871592], [-116.39972775886447, 33.285411252835125], [-116.39971950855536, 33.28539938408305], [-116.39971119711188, 33.285387548766174], [-116.3997028191617, 33.28537574418598], [-116.39969438007567, 33.28536397213932], [-116.39968587448759, 33.28535223353432], [-116.39968037685853, 33.28534603391507], [-116.40013435657494, 33.28484254340923], [-116.40082511539771, 33.28502584135586], [-116.40080899087992, 33.285163279340395], [-116.40081089206511, 33.2851769311371], [-116.40081244116219, 33.28519060770676], [-116.4008136263664, 33.2852043117687], [-116.40081446484221, 33.28521803608879], [-116.40081493617616, 33.285231771674944], [-116.40081505539338, 33.28524551580397], [-116.4008148138772, 33.28525925225609], [-116.4008142159248, 33.285272982829404], [-116.4008132604516, 33.285286701213565], [-116.40081194958748, 33.28530039748744], [-116.40081028118671, 33.28531407255532], [-116.40080825628388, 33.285327703874], [-116.40080587704148, 33.28534130045767], [-116.40080314558007, 33.285354846975125], [-116.40080006297151, 33.28536834252344], [-116.40079662812508, 33.285381777185314], [-116.4007928453286, 33.285395147348986], [-116.40078871241768, 33.28540844309848], [-116.400784235826, 33.285421659917624], [-116.40078326252006, 33.28542440129833], [-116.40077863126554, 33.28543757953289], [-116.4007742234074, 33.28545081249832], [-116.40077004538705, 33.285464100186765], [-116.40076609182277, 33.28547743448975], [-116.4007623680811, 33.28549081449899], [-116.40075887093977, 33.28550423931683], [-116.40075560468537, 33.28551770442965], [-116.40075256931497, 33.285531208034115], [-116.40074976481783, 33.28554474381859], [-116.40074719012655, 33.28555831539099], [-116.40074485059526, 33.285571914629806], [-116.40074274085931, 33.28558554334487], [-116.40074086305192, 33.28559919341853], [-116.40073922146902, 33.28561286574725], [-116.40073781180564, 33.28562655402456], [-116.40073663406652, 33.28564026095544], [-116.40073569253363, 33.28565397932126], [-116.40073498613201, 33.285667708221744], [-116.40073451271451, 33.28568144765943], [-116.40073427440521, 33.28569518410658], [-116.40073426907102, 33.28570892568091], [-116.40073450207053, 33.28572266696584], [-116.4007347028212, 33.285729523079134], [-116.40073526646826, 33.28574325584751], [-116.40073604267421, 33.28575698294763], [-116.40073702606198, 33.285770698976066], [-116.40073821770368, 33.2857844030298], [-116.40073961867455, 33.28579809600918], [-116.40074122896068, 33.28581176979913], [-116.4007430453461, 33.28582542710865], [-116.40074507211911, 33.28583906432567], [-116.40074730389937, 33.285852674243394], [-116.4007497460673, 33.28586626406868], [-116.40075239323814, 33.285879823889594], [-116.40075462131354, 33.28589439860671], [-116.40075830687977, 33.28590685170969], [-116.4007615733524, 33.28592032061049], [-116.40076504158571, 33.285933746887366], [-116.40076779553964, 33.28594385225105], [-116.40080072643741, 33.28606473804656], [-116.40080335430233, 33.286078300594504], [-116.40080596606902, 33.28609186586694], [-116.40080856173743, 33.28610543386388], [-116.40081114345483, 33.28611900458273], [-116.40081370906924, 33.286132575321076], [-116.4008162553647, 33.28614614878783], [-116.40081878878419, 33.286159725876836], [-116.40082130931994, 33.28617330207973], [-116.40082380946774, 33.28618688371747], [-116.40082629351257, 33.28620046537458], [-116.40082876467214, 33.28621404524396], [-116.40083121974578, 33.2862276350513], [-116.40083365763982, 33.286241223076054], [-116.40083607943396, 33.286254812923595], [-116.4008384883505, 33.28626840549183], [-116.40084036292862, 33.2862790592402], [-116.40084326879716, 33.2862925826769], [-116.40084595570859, 33.28630613703668], [-116.4008484268819, 33.286319721413804], [-116.40085068230933, 33.28633333130007], [-116.4008527176948, 33.28634696579887], [-116.40085453518229, 33.2863606231043], [-116.4008561326184, 33.28637429961234], [-116.40085750999364, 33.28638798991292], [-116.40085866945975, 33.286401696708346], [-116.40085960993525, 33.286415415491746], [-116.400860252263, 33.28642744399195], [-116.40086100809647, 33.286441171114724], [-116.40086174245704, 33.28645489736188], [-116.40086245642581, 33.2864686272405], [-116.40086315107035, 33.28648235714254], [-116.40086382209626, 33.286496087073274], [-116.40086447486672, 33.286509814321185], [-116.40086510295893, 33.286523549714076], [-116.40086571279107, 33.28653727971909], [-116.4008662990076, 33.286551011556156], [-116.40086686590601, 33.28656474702334], [-116.40086741025459, 33.28657847981285], [-116.4008679342099, 33.28659221533217], [-116.40086843884077, 33.286605950874964], [-116.40086892092654, 33.2866196864451], [-116.40086938261427, 33.28663342204], [-116.40086982283044, 33.28664715766093], [-116.4008702383589, 33.28666089601691], [-116.4008706388526, 33.28667463168609], [-116.40087101573219, 33.286688370088974], [-116.40087137006648, 33.286702108519194], [-116.4008717040028, 33.28671584697419], [-116.40087201647214, 33.28672958816031], [-116.40087230853867, 33.286743326666134], [-116.40087258020716, 33.28675706519672], [-116.4008728304086, 33.286770806458414], [-116.40087306020735, 33.28678454503982], [-116.40087326639181, 33.286798286354966], [-116.40087345432526, 33.286812027692214], [-116.40087361863995, 33.28682576905817], [-116.4008737668554, 33.28683951314865], [-116.40087388822192, 33.286853251861686], [-116.40087399026385, 33.2868669905982], [-116.40087406976507, 33.2868807320671], [-116.40087412994167, 33.28689447355948], [-116.40087416649936, 33.28690821508052], [-116.4008744717389, 33.28692212128201], [-116.40087471764674, 33.286935862548575], [-116.40087389644356, 33.28694713451549], [-116.40087504305146, 33.286963342578815], [-116.40087512255296, 33.28697708404754], [-116.40087514622775, 33.286990825584084], [-116.40087511407575, 33.28700456718842], [-116.40087502717527, 33.28701831156428], [-116.4008748833651, 33.287032050599215], [-116.40087468480635, 33.28704579240572], [-116.40087442719529, 33.287059531578876], [-116.40087411697819, 33.287073270816016], [-116.40087375415028, 33.287087007411934], [-116.40087333657839, 33.28710074948449], [-116.40087285886652, 33.28711448081], [-116.4008723264059, 33.28712821490697], [-116.4008717413391, 33.28714194906786], [-116.40087109721983, 33.28715568059543], [-116.40087039834087, 33.28716940858284], [-116.40086964577891, 33.287183134832105], [-116.40086883524268, 33.28719686115176], [-116.40086814149103, 33.28720795713629], [-116.40086676403463, 33.2872216480777], [-116.40086492594378, 33.28723530351175], [-116.40086263255519, 33.28724890539833], [-116.40085988064943, 33.287262454643084], [-116.40085667770262, 33.28727592869489], [-116.4008530194124, 33.287289323050565], [-116.40084891541768, 33.287302624173165], [-116.40084436677782, 33.28731582394636], [-116.40083937991254, 33.28732890973873], [-116.40083395051471, 33.28734187434212], [-116.40082809144106, 33.287354702412195], [-116.40082180160843, 33.28736738854031], [-116.40081509173093, 33.28737992008979], [-116.40080796286644, 33.28739228804251], [-116.40080041821545, 33.28740448067274], [-116.40079246743086, 33.28741649255867], [-116.40078412122374, 33.28742830926023], [-116.40077537743899, 33.287439926271674], [-116.400766251082, 33.287451329147885], [-116.4007567410698, 33.28746251247994], [-116.40075078764711, 33.28746918941721], [-116.40074207608504, 33.287480819912254], [-116.40073344512113, 33.28749249719607], [-116.40072490763391, 33.28750421854797], [-116.40071645610678, 33.28751598307541], [-116.40070809269302, 33.28752779438255], [-116.40069981416727, 33.28753964976822], [-116.40069163126549, 33.287551549219465], [-116.40068353646642, 33.28756348913865], [-116.40067553299698, 33.2875754731287], [-116.400667614411, 33.28758749849234], [-116.40065978822828, 33.28759956792547], [-116.40065205014834, 33.287611677826696], [-116.40064440768323, 33.28762382638353], [-116.4006341589854, 33.287637498330234], [-116.40062572355114, 33.28764927094678], [-116.40061777272037, 33.287661282821055], [-116.40061032041443, 33.28767351319763], [-116.40060337413622, 33.28768595485403], [-116.4005969402996, 33.2876985915525], [-116.40059102638584, 33.28771140344701], [-116.40058563881195, 33.28772437610308], [-116.40058434230595, 33.28772773371895], [-116.40057794832187, 33.28772796148347], [-116.40056169772501, 33.287729514043754], [-116.40054572436092, 33.2877324575541], [-116.40053019136352, 33.28773676115959], [-116.40051526505495, 33.28774237506661], [-116.40050110530649, 33.287749244079144], [-116.40048785263089, 33.287757293187966], [-116.40047565289804, 33.28776644106562], [-116.40046462940454, 33.287776590181764], [-116.40045490005761, 33.28778763038918], [-116.40044657203161, 33.28779945335707], [-116.40043972884163, 33.28781192733956], [-116.40043444005383, 33.287824925116084], [-116.40043076447986, 33.28783830865895], [-116.40042873623413, 33.287851937265266], [-116.4004283840645, 33.287865671140324], [-116.40043080702495, 33.28788182536165], [-116.40006745858553, 33.2878135572749], [-116.40007223968927, 33.28779997764417], [-116.40007680780322, 33.287786782385226], [-116.40008130395356, 33.28777356917952], [-116.40008572922027, 33.28776034163256], [-116.40009008466912, 33.287747095234515], [-116.40009436815612, 33.28773383179143], [-116.40009857968741, 33.287720554910024], [-116.40010272247459, 33.28770725917632], [-116.4001067900853, 33.28769395000822], [-116.40011078895974, 33.287680626496176], [-116.40011471587393, 33.28766728684082], [-116.40011857082801, 33.28765393104214], [-116.4001223506042, 33.287640560907356], [-116.40012606486812, 33.287627178228156], [-116.40012970610142, 33.28761378121033], [-116.40013327323206, 33.287600370756756], [-116.40013676840587, 33.287586945963284], [-116.4001401905507, 33.28757350773284], [-116.40014354181997, 33.28756005966952], [-116.40014682327347, 33.28754659365703], [-116.40015003063537, 33.2875331205205], [-116.40015316174765, 33.28751963395103], [-116.40015622412861, 33.2875061357427], [-116.40015921455439, 33.28749262409616], [-116.40016213410334, 33.28747910171509], [-116.40016497741209, 33.28746557131111], [-116.4001677487642, 33.287452026567166], [-116.40017044817063, 33.287438473795106], [-116.40017307455463, 33.287424911192815], [-116.400175626838, 33.287411336056564], [-116.40017810717728, 33.2873977537939], [-116.40018051557095, 33.28738416350308], [-116.40018285093927, 33.28737056157864], [-116.4001851122164, 33.28735695253041], [-116.40018730047284, 33.287343334553675], [-116.40018941463664, 33.2873297085514], [-116.40019145578142, 33.2873160745223], [-116.40019342498074, 33.28730243246502], [-116.4001953222378, 33.287288784183026], [-116.40019714433029, 33.28727512877852], [-116.40019889447585, 33.28726146444416], [-116.40020056946005, 33.28724779479068], [-116.40020217250522, 33.28723412071577], [-116.40020370038279, 33.287220437714964], [-116.40020515632447, 33.28720675209613], [-116.4002065392459, 33.2871930575488], [-116.40020784808586, 33.28717936128773], [-116.4002090839117, 33.28716565970484], [-116.40021024564848, 33.28715195189988], [-116.40021133115208, 33.28713823967866], [-116.40021234793926, 33.28712452393393], [-116.40021328635066, 33.28711080648055], [-116.40021415282496, 33.28709708550747], [-116.40021494735902, 33.28708335921141], [-116.40021566673825, 33.28706963120282], [-116.40021631418045, 33.28705589967454], [-116.400216886471, 33.28704216823721], [-116.40021738574322, 33.28702842877304], [-116.40021781094684, 33.28701469480859], [-116.40021816098958, 33.28700095552493], [-116.40021843802806, 33.2869872163296], [-116.40021864313582, 33.286973477221295], [-116.4002187698668, 33.28695973550274], [-116.40021882896148, 33.286945993866], [-116.4002188118313, 33.28693225232146], [-116.40021876725903, 33.28692567012955], [-116.4002187195498, 33.28691851086782], [-116.4002185553377, 33.2869047695012], [-116.40021831919987, 33.28689103092661], [-116.40021800361177, 33.28687728974305], [-116.40021761717615, 33.28686355405532]]], [[[-116.40076319018277, 33.28779676819218], [-116.40076899021025, 33.28778391855744], [-116.40077506738483, 33.28777116145862], [-116.40078142063446, 33.28775849779863], [-116.40078804137953, 33.287745932997915], [-116.40079493391747, 33.287733468854555], [-116.40080208967171, 33.287721112592344], [-116.40080951293828, 33.28770886510773], [-116.40081336410375, 33.28770272090803], [-116.40082124292904, 33.28769067935336], [-116.40082923563756, 33.28767868635048], [-116.40083733687368, 33.287666749119154], [-116.400845546625, 33.287654860446], [-116.40085386383498, 33.28764303025077], [-116.4008622927855, 33.287631251314785], [-116.40087082704281, 33.28761952815419], [-116.40087946875089, 33.2876078589631], [-116.40088822221188, 33.28759624824457], [-116.40089707668204, 33.28758469150328], [-116.40090603861377, 33.28757319504313], [-116.40091456485357, 33.287562433077326], [-116.40092383197783, 33.28755110756355], [-116.40093282722299, 33.28753963360279], [-116.4009415645459, 33.287528011178196], [-116.40095002893499, 33.28751625112817], [-116.40095822254514, 33.28750435795855], [-116.40096614001477, 33.28749233528256], [-116.4009737867135, 33.28748018399544], [-116.40098114117873, 33.28746790953338], [-116.40098821737979, 33.28745551909295], [-116.40099500566218, 33.287443017194235], [-116.40100150603378, 33.28743040834567], [-116.40100771742568, 33.28741769525363], [-116.40101363448102, 33.28740488423651], [-116.40101925075973, 33.28739197620376], [-116.40102457165179, 33.287378983772356], [-116.40102959500551, 33.28736590423994], [-116.40103431439636, 33.28735274753288], [-116.40103873197796, 33.28733951725519], [-116.4010428423872, 33.28732621611851], [-116.4010466477853, 33.2873128522353], [-116.40105014173398, 33.28729942741685], [-116.40105332961376, 33.28728594887003], [-116.40105620499101, 33.28727242111103], [-116.40105877002242, 33.28725884954737], [-116.40106102364382, 33.2872452395904], [-116.40106296049358, 33.28723159485341], [-116.40106449927863, 33.28721871161653], [-116.40106531300985, 33.287204987996724], [-116.40106607519903, 33.28719125902957], [-116.40106678800262, 33.28717753012241], [-116.40106745142224, 33.287163802177055], [-116.40106806222941, 33.28715007068897], [-116.40106862149925, 33.287136336558525], [-116.40106912707996, 33.28712259708331], [-116.40106959187798, 33.287108865772765], [-116.40106999976148, 33.2870951264164], [-116.40107035504353, 33.287081389829], [-116.40107066200909, 33.28706765059537], [-116.40107091958468, 33.28705390871673], [-116.40107112563248, 33.28704016960584], [-116.40107127799592, 33.28702642785516], [-116.40107138204779, 33.287012686163294], [-116.40107143349354, 33.28699894453541], [-116.40107143662776, 33.2869852029663], [-116.4010713893032, 33.28697146145856], [-116.4010712872349, 33.28695772542746], [-116.40107113898817, 33.286943981337394], [-116.40107093921387, 33.28693024001505], [-116.40107068683365, 33.2869164987567], [-116.40107050816138, 33.286908144030164], [-116.4010704780144, 33.286894402501346], [-116.40107043176364, 33.286880660992104], [-116.40107035545238, 33.286866919519404], [-116.4010702598165, 33.28685317807021], [-116.40107014807684, 33.28683943664054], [-116.40107000949749, 33.28682569524351], [-116.40106985481438, 33.28681195386613], [-116.40106967436513, 33.28679821251999], [-116.4010694767432, 33.28678447389978], [-116.40106925657136, 33.28677073260194], [-116.40106901385883, 33.28675699403652], [-116.40106875181716, 33.286743252789584], [-116.40106846938207, 33.286729514272494], [-116.40106816440174, 33.28671577578275], [-116.40106783902331, 33.286702037317816], [-116.40106749109498, 33.28668829617526], [-116.40106712385156, 33.28667456046626], [-116.40106673405823, 33.28666082207964], [-116.4010663238669, 33.28664708371779], [-116.4010658943558, 33.286633348084465], [-116.4010654422948, 33.2866196097735], [-116.4010649666198, 33.28660587419628], [-116.4010644726939, 33.28659213864123], [-116.40106395730109, 33.28657840581733], [-116.40106342043217, 33.28656467031449], [-116.40106286316986, 33.286550937541485], [-116.40106228336245, 33.28653720479587], [-116.40106168315864, 33.286523472976704], [-116.40106106470259, 33.28650974027807], [-116.40106042263244, 33.28649601031315], [-116.4010597569437, 33.28648228037694], [-116.40105907193059, 33.28646855046422], [-116.40105836759317, 33.28645482057493], [-116.40105764071696, 33.2864410943198], [-116.40105689451018, 33.286427364481426], [-116.40105657985576, 33.28642170864076], [-116.4010559410031, 33.286407975966725], [-116.40105513254304, 33.28639425431906], [-116.40105415661041, 33.286380536481936], [-116.4010530132162, 33.28636682876697], [-116.40105170343249, 33.28635313027117], [-116.40105022726708, 33.286339445502946], [-116.4010485804212, 33.286325771762414], [-116.4010467704192, 33.2863121144506], [-116.40104479296848, 33.286298474474336], [-116.40104264914096, 33.2862848509306], [-116.40104033894166, 33.286271246524464], [-116.4010378645238, 33.286257664859946], [-116.40103665227015, 33.28625133745962], [-116.40103454386711, 33.28623771026583], [-116.40103234100665, 33.28622409310539], [-116.40103004047272, 33.28621048868715], [-116.40102764118873, 33.286196895209144], [-116.40102514745051, 33.28618331356777], [-116.4010225581877, 33.28616974556768], [-116.40101986803242, 33.2861561912154], [-116.40101708664847, 33.286142651400844], [-116.40101420651777, 33.28612912432978], [-116.40101122764341, 33.28611561180561], [-116.40100815861256, 33.28610211291618], [-116.40100499084286, 33.28608863127858], [-116.40100172755346, 33.28607516598728], [-116.40099836659734, 33.286061717044866], [-116.4009949111999, 33.28604828715241], [-116.40099136027823, 33.286034870901204], [-116.4009904612941, 33.28603152767217], [-116.4009575254094, 33.285907893618685], [-116.4009546291966, 33.28589436927039], [-116.40095188002906, 33.28588082400465], [-116.40094928112434, 33.28586725601417], [-116.40094682926629, 33.28585366800792], [-116.40094452875697, 33.285840064489044], [-116.40094237851956, 33.2858264436555], [-116.40094037532864, 33.28581280280626], [-116.40093852563798, 33.28579914914682], [-116.40093682300768, 33.28578548358668], [-116.40093527494957, 33.28577180431353], [-116.40093387394857, 33.28575811133623], [-116.40093262968072, 33.28574441275832], [-116.40093152602678, 33.28573069958262], [-116.40093102993109, 33.28572378792465], [-116.40093095042195, 33.285710046453445], [-116.40093114575284, 33.28569630735315], [-116.40093161270275, 33.285682570627586], [-116.40093234913535, 33.28566884259115], [-116.40093335935101, 33.28565512684534], [-116.40093464443098, 33.285641427897176], [-116.4009361947207, 33.28562775026684], [-116.40093801666156, 33.285614093946414], [-116.40094011348492, 33.285600465243725], [-116.40094247553327, 33.285586866875576], [-116.40094510926028, 33.285573306047475], [-116.40094800822129, 33.28555978096391], [-116.4009511788701, 33.28554629883045], [-116.40095461155217, 33.285532864167166], [-116.40095831164146, 33.28551948057422], [-116.40096227806585, 33.285506148954624], [-116.40096650546359, 33.28549287292154], [-116.40097099814437, 33.285479661486434], [-116.40097313491351, 33.285473640189245], [-116.4009774707839, 33.28546039017245], [-116.40098155426561, 33.285447083656656], [-116.40098538321469, 33.285433722448], [-116.4009889554934, 33.28542031195909], [-116.40099227325834, 33.28540685759734], [-116.40099533651431, 33.28539336206788], [-116.4009981431065, 33.285379820864904], [-116.40100068876094, 33.285366245715494], [-116.40100297885029, 33.28535263931809], [-116.40100501015553, 33.28533900257841], [-116.40100677946998, 33.28532534361535], [-116.40100829108502, 33.28531166062046], [-116.40100953964684, 33.28529796171518], [-116.4010105305172, 33.285284243286505], [-116.40101125942374, 33.28527051796295], [-116.40101173065314, 33.285256781231034], [-116.40101193562772, 33.28524303941289], [-116.40101187865595, 33.2852293006184], [-116.40101156724367, 33.28521555942828], [-116.40101099067381, 33.285201826675845], [-116.40101015217205, 33.2851881050621], [-116.40100905495437, 33.28517439187814], [-116.40100769689411, 33.28516069884825], [-116.40100607584263, 33.2851470250735], [-116.40100528720828, 33.28514105422099], [-116.40101499491519, 33.28507783119482], [-116.4017443509021, 33.285142565953656], [-116.40176561435678, 33.2879186772047], [-116.40071911503608, 33.287943060255465], [-116.40072222996508, 33.287929570085275], [-116.40072538140655, 33.28791608618239], [-116.40072857150442, 33.28790260674077], [-116.40073180026651, 33.287889136268966], [-116.4007350698338, 33.28787567115751], [-116.40073837376934, 33.28786221411936], [-116.4007427720872, 33.28784897846659], [-116.40074745502615, 33.28783581099554], [-116.40075242044806, 33.287822717118786], [-116.40075766621656, 33.28780970315071], [-116.40076319018277, 33.28779676819218]]], [[[-116.39532723818844, 33.283124845416324], [-116.39534356255551, 33.28312421586942], [-116.3953597758994, 33.28312590376269], [-116.39537542296402, 33.283129864545394], [-116.39539071142202, 33.28313638560984], [-116.39540452620413, 33.283143734335475], [-116.39541918592172, 33.283149821524034], [-116.39543453049504, 33.28315457432689], [-116.39545038269877, 33.28315793885072], [-116.39546657393193, 33.28315988283251], [-116.39548291520194, 33.28316037763985], [-116.39549922936885, 33.28315942077537], [-116.39551533072954, 33.28315702508008], [-116.39553104111694, 33.28315321601004], [-116.39554618561007, 33.28314803434595], [-116.39556059468285, 33.28314153709246], [-116.39557410957762, 33.28313380107872], [-116.39558657477262, 33.28312491214663], [-116.39559785086286, 33.283114964234684], [-116.3956078156594, 33.283104074704475], [-116.39561635985727, 33.28309236180448], [-116.39562338061408, 33.283079956398886], [-116.39562880408971, 33.283066999236304], [-116.39563347799383, 33.28305196368341], [-116.3956356217617, 33.28303834583122], [-116.3956358801963, 33.28302461477593], [-116.3956342407129, 33.28301094906449], [-116.39563073046273, 33.282997536214125], [-116.39562539483082, 33.28298455380191], [-116.39561555094426, 33.28296807546193], [-116.39737927371286, 33.2829824840446], [-116.3973761125551, 33.28304844734595], [-116.39841458590921, 33.28375352879465], [-116.39837279250824, 33.284193309921406], [-116.39793155493727, 33.28449615192678], [-116.39746675158709, 33.2844087579659], [-116.3963705087815, 33.28437982384661], [-116.39568933059104, 33.28404533079603], [-116.39565227142286, 33.28340501797974], [-116.39527946837758, 33.28352916772502], [-116.39513086054944, 33.28318683197183], [-116.39529612735726, 33.283132928405934], [-116.39531127513227, 33.2831277774237], [-116.39532723818844, 33.283124845416324]]]]}}]}