{
  "type": "FeatureCollection",
  "name": "deanza_villas_boundary",
  "crs": {
    "type": "name",
    "properties": {
      "name": "urn:ogc:def:crs:OGC:1.3:CRS84"
    }
  },
  "features": [
    {
      "type": "Feature",
      "properties": {
        "name": "De Anza Villas complex boundary",
        "source": "SanGIS Parcels_East, subname LIKE 'DE ANZA VILLAS%', excluding Vista Villas (APN 14026410xx). Two blocks merged across Monroe St ROW with morphological close.",
        "parcel_count": 36,
        "excluded_count": 31
      },
      "geometry": {
        "type": "Polygon",
        "coordinates": [
          [
            [
              -116.40174416835137,
              33.28514270278378
            ],
            [
              -116.40174437590726,
              33.285145830693196
            ],
            [
              -116.40176558944512,
              33.28791542491336
            ],
            [
              -116.40176543172055,
              33.28791853097137
            ],
            [
              -116.40176169153706,
              33.28791876862284
            ],
            [
              -116.4007231399026,
              33.28794296649591
            ],
            [
              -116.40071928608576,
              33.28794289760917
            ],
            [
              -116.40071922172515,
              33.287942564086094
            ],
            [
              -116.40071588106453,
              33.2879294723006
            ],
            [
              -116.40071098553524,
              33.287916720868175
            ],
            [
              -116.400704583704,
              33.287904436289026
            ],
            [
              -116.4006967390806,
              33.2878927404319
            ],
            [
              -116.40068752948791,
              33.28788174932506
            ],
            [
              -116.40067704628986,
              33.28787157200543
            ],
            [
              -116.40066539348499,
              33.28786230943654
            ],
            [
              -116.40065268667468,
              33.28785405350729
            ],
            [
              -116.40063905191647,
              33.287846886120164
            ],
            [
              -116.40062462447342,
              33.287840878378965
            ],
            [
              -116.40060954747224,
              33.287836089883
            ],
            [
              -116.40059397048348,
              33.287832568136366
            ],
            [
              -116.40057804803767,
              33.28783034807631
            ],
            [
              -116.40056193809248,
              33.287829451726765
            ],
            [
              -116.40054580046547,
              33.28782988798004
            ],
            [
              -116.40052979524891,
              33.2878316525081
            ],
            [
              -116.40051408122153,
              33.287834727806256
            ],
            [
              -116.40049881427336,
              33.28783908336607
            ],
            [
              -116.40048414585924,
              33.287844675978526
            ],
            [
              -116.4004702214964,
              33.28785145016245
            ],
            [
              -116.40045717932088,
              33.28785933871484
            ],
            [
              -116.40044514871713,
              33.287868263377746
            ],
            [
              -116.40043424903443,
              33.28787813561457
            ],
            [
              -116.40043073267697,
              33.28788165775181
            ],
            [
              -116.40042701712044,
              33.287881113298255
            ],
            [
              -116.40007125306371,
              33.287814270210866
            ],
            [
              -116.40006768219956,
              33.28781344819934
            ],
            [
              -116.40006854842245,
              33.287810461842966
            ],
            [
              -116.40007213750506,
              33.28780026787505
            ],
            [
              -116.4000723402961,
              33.28779968703551
            ],
            [
              -116.40007670640257,
              33.28778707528685
            ],
            [
              -116.40007690759965,
              33.28778648910529
            ],
            [
              -116.40008120709857,
              33.28777385381521
            ],
            [
              -116.40008139929564,
              33.2877732841929
            ],
            [
              -116.40008563332583,
              33.2877606282703
            ],
            [
              -116.40008582358216,
              33.287760054646064
            ],
            [
              -116.40008998840914,
              33.28774738799389
            ],
            [
              -116.40009017933244,
              33.287746802117816
            ],
            [
              -116.40009427491417,
              33.28773412050699
            ],
            [
              -116.40009445984711,
              33.287733542734934
            ],
            [
              -116.40009848980442,
              33.287720838266765
            ],
            [
              -116.40009866807848,
              33.287720271230526
            ],
            [
              -116.40010262847352,
              33.287707560860504
            ],
            [
              -116.40010281478617,
              33.28770695713408
            ],
            [
              -116.40010670493399,
              33.28769422862222
            ],
            [
              -116.40010687379734,
              33.2876936710951
            ],
            [
              -116.40011070094297,
              33.28768091975186
            ],
            [
              -116.40011087538393,
              33.287680332914825
            ],
            [
              -116.40011462946939,
              33.28766758035548
            ],
            [
              -116.40011480068468,
              33.28766699300722
            ],
            [
              -116.40011848304096,
              33.28765423518751
            ],
            [
              -116.40011865690565,
              33.28765362656137
            ],
            [
              -116.40012227557546,
              33.28764082630532
            ],
            [
              -116.40012242433278,
              33.287640295259656
            ],
            [
              -116.40012598257576,
              33.28762747473174
            ],
            [
              -116.40012614553926,
              33.287626881418646
            ],
            [
              -116.40012962456518,
              33.28761408120274
            ],
            [
              -116.40012978597979,
              33.28761348091154
            ],
            [
              -116.40013319531906,
              33.28760066366695
            ],
            [
              -116.40013334956619,
              33.28760007756115
            ],
            [
              -116.4001366912377,
              33.2875872423625
            ],
            [
              -116.4001368439588,
              33.287586649278715
            ],
            [
              -116.40014011802312,
              33.28757379253744
            ],
            [
              -116.40014026158865,
              33.28757322266994
            ],
            [
              -116.40014346986824,
              33.287560348399495
            ],
            [
              -116.40014361224188,
              33.287559770681185
            ],
            [
              -116.40014675130196,
              33.28754688900466
            ],
            [
              -116.40014689364592,
              33.287546298044134
            ],
            [
              -116.40014995684331,
              33.2875334304983
            ],
            [
              -116.40015010266733,
              33.287532810258874
            ],
            [
              -116.40015309692612,
              33.287519913155435
            ],
            [
              -116.40015322514262,
              33.287519354521905
            ],
            [
              -116.40015615752243,
              33.28750642932601
            ],
            [
              -116.4001562891588,
              33.28750584191671
            ],
            [
              -116.40015915099067,
              33.28749291129625
            ],
            [
              -116.40015927661129,
              33.28749233666928
            ],
            [
              -116.40016206798101,
              33.28747940797181
            ],
            [
              -116.40016219851334,
              33.28747879520842
            ],
            [
              -116.40016491544974,
              33.28746586617027
            ],
            [
              -116.40016503778861,
              33.28746527622605
            ],
            [
              -116.40016768944682,
              33.287452316475786
            ],
            [
              -116.4001678065499,
              33.28745173644545
            ],
            [
              -116.4001703892486,
              33.28743876962199
            ],
            [
              -116.40017050549889,
              33.287438177753046
            ],
            [
              -116.40017301601254,
              33.287425213503134
            ],
            [
              -116.40017313143345,
              33.28742460866466
            ],
            [
              -116.40017557232292,
              33.28741162601258
            ],
            [
              -116.40017567982409,
              33.28741104590648
            ],
            [
              -116.40017805405986,
              33.2873980446633
            ],
            [
              -116.40017815875721,
              33.28739746273431
            ],
            [
              -116.40018046279046,
              33.287384461337446
            ],
            [
              -116.40018056674047,
              33.28738386547553
            ],
            [
              -116.4001827995761,
              33.28737086073417
            ],
            [
              -116.40018290067825,
              33.2873702622346
            ],
            [
              -116.40018506298402,
              33.287357248825735
            ],
            [
              -116.40018515985646,
              33.2873566560564
            ],
            [
              -116.40018725224219,
              33.2873436347032
            ],
            [
              -116.40018734707043,
              33.28734303422741
            ],
            [
              -116.40018936870416,
              33.28733000459087
            ],
            [
              -116.40018945898149,
              33.287329412345635
            ],
            [
              -116.40019141208147,
              33.287316366420505
            ],
            [
              -116.4001914979387,
              33.287315782468475
            ],
            [
              -116.40019338297543,
              33.28730272346598
            ],
            [
              -116.40019346545384,
              33.28730214131411
            ],
            [
              -116.40019527990196,
              33.287289088734205
            ],
            [
              -116.40019536289617,
              33.287288479475066
            ],
            [
              -116.40019710526913,
              33.287275421516654
            ],
            [
              -116.40019718184234,
              33.287274835901606
            ],
            [
              -116.40019885555506,
              33.28726176831973
            ],
            [
              -116.40019893172828,
              33.28726116042468
            ],
            [
              -116.40020053383823,
              33.287248085502895
            ],
            [
              -116.4002006035557,
              33.28724750395277
            ],
            [
              -116.40020213664573,
              33.287234426599454
            ],
            [
              -116.40020220667571,
              33.28723381469991
            ],
            [
              -116.40020366797877,
              33.287220727911205
            ],
            [
              -116.40020373126744,
              33.28722014740448
            ],
            [
              -116.40020512469115,
              33.28720704944427
            ],
            [
              -116.40020518636311,
              33.28720645463489
            ],
            [
              -116.40020650907303,
              33.287193356339586
            ],
            [
              -116.4002065678093,
              33.28719275864945
            ],
            [
              -116.40020781979509,
              33.28717965733458
            ],
            [
              -116.40020787479715,
              33.28717906514012
            ],
            [
              -116.40020905678502,
              33.28716596045821
            ],
            [
              -116.40020910940889,
              33.28716535885336
            ],
            [
              -116.40021021947456,
              33.28715226073672
            ],
            [
              -116.40021027010472,
              33.287151642965775
            ],
            [
              -116.40021130911896,
              33.28713851800414
            ],
            [
              -116.40021135179057,
              33.28713796127992
            ],
            [
              -116.40021232444703,
              33.287124840827566
            ],
            [
              -116.400212369624,
              33.28712420695206
            ],
            [
              -116.40021326640777,
              33.28711109800072
            ],
            [
              -116.4002133047644,
              33.28711051489171
            ],
            [
              -116.40021413438487,
              33.28709737751375
            ],
            [
              -116.40021416973121,
              33.28709679343671
            ],
            [
              -116.40021492975096,
              33.28708366340646
            ],
            [
              -116.4002149633028,
              33.28708305495392
            ],
            [
              -116.40021565145612,
              33.28706992283355
            ],
            [
              -116.40021568049112,
              33.287069339519775
            ],
            [
              -116.40021629984552,
              33.28705620370278
            ],
            [
              -116.40021632685367,
              33.28705559559527
            ],
            [
              -116.4002168741038,
              33.28704246497343
            ],
            [
              -116.40021689725549,
              33.28704187145865
            ],
            [
              -116.40021737487562,
              33.28702872783839
            ],
            [
              -116.40021739500345,
              33.287028129670006
            ],
            [
              -116.40021780150546,
              33.287014999762796
            ],
            [
              -116.40021781871712,
              33.287014389822446
            ],
            [
              -116.4002181534575,
              33.28700125116165
            ],
            [
              -116.40021816695132,
              33.287000659863956
            ],
            [
              -116.40021843215307,
              33.28698750768905
            ],
            [
              -116.40021844237799,
              33.28698692495105
            ],
            [
              -116.400218638394,
              33.28697379485222
            ],
            [
              -116.40021864606527,
              33.28697315957552
            ],
            [
              -116.4002187673399,
              33.28696000950124
            ],
            [
              -116.40021877104513,
              33.28695946149871
            ],
            [
              -116.40021882763347,
              33.28694630267724
            ],
            [
              -116.40021882857651,
              33.28694568505301
            ],
            [
              -116.40021881221472,
              33.28693255990871
            ],
            [
              -116.40021880974844,
              33.28693194473832
            ],
            [
              -116.40021876729962,
              33.286925676122664
            ],
            [
              -116.40021872151074,
              33.28691880513014
            ],
            [
              -116.4002187160333,
              33.28691821660475
            ],
            [
              -116.40021855882166,
              33.28690506104098
            ],
            [
              -116.40021855032698,
              33.28690447797647
            ],
            [
              -116.40021832472732,
              33.28689135251513
            ],
            [
              -116.40021831181467,
              33.286890709364
            ],
            [
              -116.40021801021427,
              33.28687757722643
            ],
            [
              -116.40021799552453,
              33.28687700228562
            ],
            [
              -116.40021762572816,
              33.28686385803239
            ],
            [
              -116.40021760696406,
              33.28686325011345
            ],
            [
              -116.40021716553966,
              33.2868501120383
            ],
            [
              -116.40021714405269,
              33.28684951950862
            ],
            [
              -116.40021663216234,
              33.28683636972688
            ],
            [
              -116.40021660835728,
              33.28683579621414
            ],
            [
              -116.40021602917416,
              33.286822659118535
            ],
            [
              -116.40021600022328,
              33.28682204140159
            ],
            [
              -116.40021534837406,
              33.28680891197837
            ],
            [
              -116.40021531788351,
              33.28680832869892
            ],
            [
              -116.40021459772501,
              33.28679521135192
            ],
            [
              -116.40021456107857,
              33.2867945768891
            ],
            [
              -116.40021376522327,
              33.28678144808432
            ],
            [
              -116.40021373008621,
              33.28678089148802
            ],
            [
              -116.40021286772927,
              33.28676775349616
            ],
            [
              -116.40021282597671,
              33.28676714301324
            ],
            [
              -116.40021189351692,
              33.28675403703653
            ],
            [
              -116.40021184860271,
              33.28675342920191
            ],
            [
              -116.40021084327326,
              33.286740311208895
            ],
            [
              -116.4002107970849,
              33.286739728541285
            ],
            [
              -116.40020972195344,
              33.28672660187111
            ],
            [
              -116.40020967265833,
              33.28672601878455
            ],
            [
              -116.40020852979359,
              33.286712909488514
            ],
            [
              -116.40020847509471,
              33.286712301272374
            ],
            [
              -116.40020726207938,
              33.28669921415618
            ],
            [
              -116.40020720286546,
              33.286698594100926
            ],
            [
              -116.40020591402313,
              33.28668548397613
            ],
            [
              -116.400205859013,
              33.28668493816051
            ],
            [
              -116.4002045066754,
              33.28667184202341
            ],
            [
              -116.40020443826937,
              33.2866711978271
            ],
            [
              -116.40020301152279,
              33.28665812223501
            ],
            [
              -116.40020294737457,
              33.28665754807955
            ],
            [
              -116.40020145012741,
              33.28664445318572
            ],
            [
              -116.40020138053632,
              33.28664385862063
            ],
            [
              -116.40019981529116,
              33.28663078807482
            ],
            [
              -116.40019974121596,
              33.28663018343012
            ],
            [
              -116.40019810297143,
              33.28661710552956
            ],
            [
              -116.4001980292911,
              33.28661652944393
            ],
            [
              -116.4001963226252,
              33.286603454495726
            ],
            [
              -116.40019624346048,
              33.286602860369904
            ],
            [
              -116.40019446882486,
              33.286589808050124
            ],
            [
              -116.40019438515499,
              33.28658920491427
            ],
            [
              -116.400192538476,
              33.28657615305274
            ],
            [
              -116.40019245321605,
              33.28657556178764
            ],
            [
              -116.40019053787543,
              33.286562524466476
            ],
            [
              -116.40019044759035,
              33.28656192128989
            ],
            [
              -116.40018846047064,
              33.286548887134245
            ],
            [
              -116.40018836860226,
              33.286548295117484
            ],
            [
              -116.40018630774287,
              33.28653524378911
            ],
            [
              -116.40018621910372,
              33.28653469134918
            ],
            [
              -116.40018409907393,
              33.286521684858954
            ],
            [
              -116.40018398951753,
              33.28652102505634
            ],
            [
              -116.40018179032177,
              33.28650801919543
            ],
            [
              -116.40018169811337,
              33.28650748178398
            ],
            [
              -116.40017943251794,
              33.286494466079766
            ],
            [
              -116.4001793215203,
              33.28649383887904
            ],
            [
              -116.40017698724117,
              33.28648086215025
            ],
            [
              -116.40017687849029,
              33.28648026673506
            ],
            [
              -116.40017446683285,
              33.286467259870754
            ],
            [
              -116.40017436471923,
              33.28646671654721
            ],
            [
              -116.40017189095069,
              33.28645372900713
            ],
            [
              -116.40017177047845,
              33.28645310601672
            ],
            [
              -116.40016923002383,
              33.28644016329845
            ],
            [
              -116.4001691093998,
              33.286439557499435
            ],
            [
              -116.40016649095293,
              33.28642659161105
            ],
            [
              -116.40016637633867,
              33.28642603135028
            ],
            [
              -116.40016369262206,
              33.2864130789937
            ],
            [
              -116.40016356465806,
              33.286412469811836
            ],
            [
              -116.40016081095898,
              33.2863995368353
            ],
            [
              -116.40016068648026,
              33.28639895957494
            ],
            [
              -116.40015786189625,
              33.28638602385983
            ],
            [
              -116.40015773163246,
              33.286385434787874
            ],
            [
              -116.4001548396855,
              33.28637251939024
            ],
            [
              -116.40015470618798,
              33.286371930514825
            ],
            [
              -116.40015174694855,
              33.28635903542925
            ],
            [
              -116.40015160739571,
              33.28635843477106
            ],
            [
              -116.40014857571369,
              33.28634554404002
            ],
            [
              -116.40014843698592,
              33.28634496103768
            ],
            [
              -116.40014533188278,
              33.2863320622033
            ],
            [
              -116.40014519537455,
              33.28633150136412
            ],
            [
              -116.40014202599052,
              33.28631862160749
            ],
            [
              -116.40014187816372,
              33.2863180277167
            ],
            [
              -116.4001386435485,
              33.28630517932892
            ],
            [
              -116.4001384917046,
              33.28630458295072
            ],
            [
              -116.40013518294646,
              33.28629173192461
            ],
            [
              -116.40013503546207,
              33.286291165099854
            ],
            [
              -116.40013166297993,
              33.286278338078965
            ],
            [
              -116.40013150083495,
              33.286277728188395
            ],
            [
              -116.40012805884429,
              33.286264923221616
            ],
            [
              -116.40012789830256,
              33.286264332251186
            ],
            [
              -116.40012437827926,
              33.28625150965953
            ],
            [
              -116.40012422855982,
              33.28625096942225
            ],
            [
              -116.40012064783818,
              33.28623817007214
            ],
            [
              -116.40012047276915,
              33.28623755094773
            ],
            [
              -116.40011682990726,
              33.286224803983245
            ],
            [
              -116.40011665252375,
              33.28622418973108
            ],
            [
              -116.40011292067537,
              33.286211399790524
            ],
            [
              -116.40011277390485,
              33.286210900947076
            ],
            [
              -116.40010898348352,
              33.286198124194605
            ],
            [
              -116.4001087997249,
              33.28619751100334
            ],
            [
              -116.40010494992565,
              33.28618479237541
            ],
            [
              -116.4001047702392,
              33.28618420437052
            ],
            [
              -116.4001008467403,
              33.286171485839105
            ],
            [
              -116.40010066649101,
              33.28617090690861
            ],
            [
              -116.40009667492674,
              33.286158203575795
            ],
            [
              -116.40009648744513,
              33.28615761242438
            ],
            [
              -116.4000924243343,
              33.286144918479316
            ],
            [
              -116.40009224361928,
              33.28614435876317
            ],
            [
              -116.40008811415858,
              33.2861316784334
            ],
            [
              -116.40008792171106,
              33.28613109274753
            ],
            [
              -116.4000837212288,
              33.28611842216752
            ],
            [
              -116.4000835391115,
              33.286117877308484
            ],
            [
              -116.40007928289583,
              33.28610524690736
            ],
            [
              -116.40007906377154,
              33.28610460284731
            ],
            [
              -116.40007473138216,
              33.28609198923768
            ],
            [
              -116.400074546095,
              33.28609145399502
            ],
            [
              -116.40007014136492,
              33.28607882872065
            ],
            [
              -116.40006993514201,
              33.28607824261788
            ],
            [
              -116.40006546379142,
              33.28606564126981
            ],
            [
              -116.40006526623921,
              33.2860650888982
            ],
            [
              -116.40006073139101,
              33.28605250816663
            ],
            [
              -116.40006051657055,
              33.28605191715768
            ],
            [
              -116.40005592144526,
              33.286039379512644
            ],
            [
              -116.4000557008353,
              33.28603878257657
            ],
            [
              -116.40005102256467,
              33.28602622814855
            ],
            [
              -116.40005082418094,
              33.286025699637285
            ],
            [
              -116.40004608528093,
              33.28601316588257
            ],
            [
              -116.40004585861342,
              33.286012571217846
            ],
            [
              -116.40004105752264,
              33.286000076534286
            ],
            [
              -116.4000408358996,
              33.285999504198635
            ],
            [
              -116.40003595894925,
              33.28598700576539
            ],
            [
              -116.40003574452953,
              33.28598646024122
            ],
            [
              -116.4000308054781,
              33.285973984876236
            ],
            [
              -116.40003057250081,
              33.2859734009232
            ],
            [
              -116.40002557047684,
              33.2859609590655
            ],
            [
              -116.40002533847994,
              33.28596038630208
            ],
            [
              -116.4000202629396,
              33.2859479483673
            ],
            [
              -116.4000200375756,
              33.28594739999687
            ],
            [
              -116.4000149022309,
              33.28593499205388
            ],
            [
              -116.40001465425932,
              33.28593439744853
            ],
            [
              -116.40000944975567,
              33.285922011687695
            ],
            [
              -116.40000921727733,
              33.285921462267986
            ],
            [
              -116.40000394204098,
              33.285909081189835
            ],
            [
              -116.40000370001138,
              33.28590851714738
            ],
            [
              -116.39999836029085,
              33.285896160366136
            ],
            [
              -116.39999811739588,
              33.28589560216333
            ],
            [
              -116.39999271741078,
              33.28588327767888
            ],
            [
              -116.39999245837842,
              33.285882690743186
            ],
            [
              -116.39998699188715,
              33.28587039307861
            ],
            [
              -116.39998674067941,
              33.28586983180839
            ],
            [
              -116.39998119399228,
              33.285857523085454
            ],
            [
              -116.39998095590717,
              33.285856998093756
            ],
            [
              -116.39997535543782,
              33.28584472656194
            ],
            [
              -116.3999750824802,
              33.285844132715894
            ],
            [
              -116.39996941928129,
              33.28583189892
            ],
            [
              -116.39996916132449,
              33.285831345333634
            ],
            [
              -116.39996341761166,
              33.28581909962044
            ],
            [
              -116.39996316824801,
              33.28581857127794
            ],
            [
              -116.39995737293194,
              33.285806368383845
            ],
            [
              -116.39995708894693,
              33.28580577455746
            ],
            [
              -116.3999512333763,
              33.2857936147453
            ],
            [
              -116.39995095911397,
              33.28579304893874
            ],
            [
              -116.39994502121351,
              33.285780878889476
            ],
            [
              -116.39994476463043,
              33.285780356169916
            ],
            [
              -116.39993876470002,
              33.28576820607891
            ],
            [
              -116.39993848531142,
              33.28576764393785
            ],
            [
              -116.39993242837343,
              33.28575553500508
            ],
            [
              -116.39993214654176,
              33.28575497514788
            ],
            [
              -116.39992602422919,
              33.28574289005572
            ],
            [
              -116.39992573824017,
              33.28574232909502
            ],
            [
              -116.39991954602014,
              33.285730259571025
            ],
            [
              -116.39991926896472,
              33.285729722792134
            ],
            [
              -116.39991301257118,
              33.28571767385512
            ],
            [
              -116.39991272164981,
              33.28571711704755
            ],
            [
              -116.39990640402212,
              33.285705099942966
            ],
            [
              -116.3999061122406,
              33.28570454830942
            ],
            [
              -116.39989972875276,
              33.28569255306774
            ],
            [
              -116.39989943435185,
              33.285692003195095
            ],
            [
              -116.39989298664358,
              33.285680032728926
            ],
            [
              -116.39989269028248,
              33.285679485802675
            ],
            [
              -116.3998861756844,
              33.28566753471426
            ],
            [
              -116.39988587773031,
              33.28566699133499
            ],
            [
              -116.3998792999254,
              33.285655065780716
            ],
            [
              -116.39987900126236,
              33.285654527447484
            ],
            [
              -116.39987236328824,
              33.28564263183026
            ],
            [
              -116.39987204600251,
              33.28564206668134
            ],
            [
              -116.39986534154912,
              33.28563019678736
            ],
            [
              -116.39986504754562,
              33.28562967914236
            ],
            [
              -116.39985827883974,
              33.285617827196
            ],
            [
              -116.39985795651928,
              33.28561726617431
            ],
            [
              -116.39985113108456,
              33.2856054564548
            ],
            [
              -116.39985081570794,
              33.28560491389828
            ],
            [
              -116.39984391555225,
              33.28559311097999
            ],
            [
              -116.3998436096647,
              33.28559259061002
            ],
            [
              -116.39983665724277,
              33.28558082770972
            ],
            [
              -116.39983631726051,
              33.285580255926426
            ],
            [
              -116.3998292919422,
              33.28556851107424
            ],
            [
              -116.39982899306995,
              33.28556801400711
            ],
            [
              -116.399821908273,
              33.28555629173351
            ],
            [
              -116.39982156418294,
              33.285555725750946
            ],
            [
              -116.39981441910228,
              33.28554404170067
            ],
            [
              -116.39981410414903,
              33.28554352939229
            ],
            [
              -116.39980689758991,
              33.285531868830816
            ],
            [
              -116.39980654931666,
              33.28553130855054
            ],
            [
              -116.39979928250753,
              33.28551968520697
            ],
            [
              -116.39979895335732,
              33.28551916154764
            ],
            [
              -116.39979161323664,
              33.28550754619518
            ],
            [
              -116.39979128050268,
              33.28550702247138
            ],
            [
              -116.39978388861753,
              33.285495449541
            ],
            [
              -116.39978353845856,
              33.28549490435711
            ],
            [
              -116.3997760720279,
              33.28548334355581
            ],
            [
              -116.39977575145176,
              33.285482849665456
            ],
            [
              -116.3997682334213,
              33.28547132485301
            ],
            [
              -116.39976786786424,
              33.285470767618065
            ],
            [
              -116.39976029754898,
              33.28545929247722
            ],
            [
              -116.39975994471398,
              33.28545876050586
            ],
            [
              -116.39975230523682,
              33.28544730381186
            ],
            [
              -116.39975194698069,
              33.2854467694214
            ],
            [
              -116.3997442395526,
              33.285435334043356
            ],
            [
              -116.39974389188004,
              33.285434820850966
            ],
            [
              -116.39973612087702,
              33.28542340885648
            ],
            [
              -116.39973576519739,
              33.285422889230716
            ],
            [
              -116.39972793636004,
              33.28541151080702
            ],
            [
              -116.39972757999458,
              33.28541099551605
            ],
            [
              -116.39971968759389,
              33.28539964164484
            ],
            [
              -116.39971932814323,
              33.285399127180085
            ],
            [
              -116.39971138496855,
              33.285387816270074
            ],
            [
              -116.39971100777018,
              33.285387281982715
            ],
            [
              -116.39970299973582,
              33.28537599861599
            ],
            [
              -116.3997026372406,
              33.28537549041635
            ],
            [
              -116.39969457499545,
              33.28536424404138
            ],
            [
              -116.39969418361348,
              33.28536370100089
            ],
            [
              -116.39968975750375,
              33.285357592505086
            ],
            [
              -116.3996848493456,
              33.285351481477356
            ],
            [
              -116.39968492750724,
              33.285351438596024
            ],
            [
              -116.3996806113822,
              33.285346034689915
            ],
            [
              -116.39968275765756,
              33.28534339348979
            ],
            [
              -116.40013204427159,
              33.284845107912986
            ],
            [
              -116.40013442323392,
              33.28484271612539
            ],
            [
              -116.4001380354028,
              33.28484351962675
            ],
            [
              -116.40082137124622,
              33.285024847831295
            ],
            [
              -116.4008249951083,
              33.285025972682426
            ],
            [
              -116.40082921188664,
              33.285030760909486
            ],
            [
              -116.4008391558571,
              33.28504096623054
            ],
            [
              -116.40085025326107,
              33.28505031918282
            ],
            [
              -116.40086239830502,
              33.285058730602685
            ],
            [
              -116.40087547520798,
              33.28506612030227
            ],
            [
              -116.40088935930527,
              33.28507241783411
            ],
            [
              -116.40090391823689,
              33.28507756316236
            ],
            [
              -116.40091901320946,
              33.28508150723558
            ],
            [
              -116.40093450031931,
              33.285084212453995
            ],
            [
              -116.40095023192434,
              33.285085653028204
            ],
            [
              -116.40096605805171,
              33.2850858152249
            ],
            [
              -116.40098182782731,
              33.28508469749781
            ],
            [
              -116.40099739091438,
              33.285082310502496
            ],
            [
              -116.40101259894651,
              33.285078676994694
            ],
            [
              -116.40101502114626,
              33.285077990487615
            ],
            [
              -116.40101890155412,
              33.28507817794535
            ],
            [
              -116.40174043406041,
              33.285142218322925
            ],
            [
              -116.40174416835137,
              33.28514270278378
            ]
          ]
        ]
      }
    }
  ]
}