{
"type": "FeatureCollection",
"name": "parcel_contributing_area",
"crs": { "type": "name", "properties": { "name": "urn:ogc:def:crs:OGC:1.3:CRS84" } },
"features": [
{ "type": "Feature", "properties": { "area_km2": 39.91, "cells": 399127, "resolution_m": 10.0, "trace_type": "boolean_dinf" }, "geometry": { "type": "Polygon", "coordinates": [ [ [ -116.417413997723017, 33.348077596738797 ], [ -116.417096993098156, 33.348134876468499 ], [ -116.417086002771171, 33.34813637618123 ], [ -116.417074884451822, 33.348136931939976 ], [ -116.417063756065474, 33.34813653785011 ], [ -116.417052735644361, 33.348135198091462 ], [ -116.417041940075492, 33.348132926874158 ], [ -116.417031483861038, 33.348129748287491 ], [ -116.417021477903816, 33.348125696044946 ], [ -116.41701202833093, 33.348120813126187 ], [ -116.417003235368213, 33.348115151321373 ], [ -116.416634924510262, 33.347851705461004 ], [ -116.414363050292721, 33.348262175448397 ], [ -116.414352954940242, 33.348263588579513 ], [ -116.41434274344978, 33.348264204907721 ], [ -116.414332507333199, 33.348264018909774 ], [ -116.414322338323061, 33.348263032252532 ], [ -116.414312327550576, 33.348261253777999 ], [ -116.414302564728899, 33.348258699424342 ], [ -116.414293137349006, 33.348255392082756 ], [ -116.41428412989579, 33.348251361392471 ], [ -116.414275623090916, 33.34824664347515 ], [ -116.414267693169279, 33.348241280611148 ], [ -116.414260411195983, 33.348235320860532 ], [ -116.41425384242936, 33.348228817632446 ], [ -116.414248045736187, 33.348221829206643 ], [ -116.414243073064199, 33.348214418210738 ], [ -116.414072906022767, 33.34792986386806 ], [ -116.413349456647452, 33.347891776444165 ], [ -116.413338330566305, 33.347890709446041 ], [ -116.413327397410953, 33.347888695349972 ], [ -116.413316774435927, 33.347885755756394 ], [ -116.413306575568981, 33.347881922191476 ], [ -116.413296910189501, 33.347877235768941 ], [ -116.413287881955299, 33.347871746748979 ], [ -116.413279587691036, 33.347865513999608 ], [ -116.413272116349646, 33.34785860436476 ], [ -116.413162290506037, 33.347745786801575 ], [ -116.412910591067501, 33.347791257027069 ], [ -116.412899856789096, 33.347792732284994 ], [ -116.412888997821739, 33.347793306949221 ], [ -116.412878124078574, 33.347792975203035 ], [ -116.412867345622374, 33.347791740404418 ], [ -116.412856771551461, 33.347789615051767 ], [ -116.412846508895285, 33.347786620657665 ], [ -116.412836661531202, 33.347782787531074 ], [ -116.412827329133023, 33.347778154470348 ], [ -116.412818606162034, 33.347772768370767 ], [ -116.412810580910943, 33.347766683749775 ], [ -116.412803334610174, 33.347759962195063 ], [ -116.412699583151237, 33.347653383273332 ], [ -116.411949446050613, 33.347872512996886 ], [ -116.411938869374993, 33.347875108618247 ], [ -116.411928028412689, 33.347876798603281 ], [ -116.41191703594626, 33.347877565370396 ], [ -116.41190600633449, 33.347877400942686 ], [ -116.411895054322571, 33.347876307030674 ], [ -116.411884293848445, 33.347874295014847 ], [ -116.411873836857325, 33.347871385826863 ], [ -116.411863792137197, 33.347867609732113 ], [ -116.411854264186942, 33.34786300601472 ], [ -116.411845352129291, 33.347857622568853 ], [ -116.411347796055836, 33.34752358228053 ], [ -116.41034189222168, 33.347705281966441 ], [ -116.410331157906853, 33.34770675698428 ], [ -116.410320298932604, 33.347707331405545 ], [ -116.410309425212134, 33.347706999415962 ], [ -116.41029864680803, 33.347705764375917 ], [ -116.410288072818034, 33.347703638786363 ], [ -116.410277810270813, 33.347700644162209 ], [ -116.410267963042614, 33.347696810814703 ], [ -116.410258630805856, 33.347692177544502 ], [ -116.410249908020219, 33.347686791249025 ], [ -116.410241882976507, 33.347680706447626 ], [ -116.41023463690307, 33.347673984729944 ], [ -116.410116063416908, 33.347552172927806 ], [ -116.409153902117055, 33.347566011598538 ], [ -116.40901481933679, 33.348164415802088 ], [ -116.409012397678495, 33.348172692474456 ], [ -116.409009037578542, 33.348180741260727 ], [ -116.409004769419553, 33.348188489381663 ], [ -116.408999631795069, 33.348195866776784 ], [ -116.408503898742211, 33.348835382747581 ], [ -116.408497733989506, 33.348842537107501 ], [ -116.408490752046447, 33.348849156669374 ], [ -116.408483020152929, 33.348855177683156 ], [ -116.4084746127713, 33.348860542162974 ], [ -116.408465610869342, 33.34886519844585 ], [ -116.40845610114043, 33.348869101689111 ], [ -116.40844617516872, 33.348872214302332 ], [ -116.408435928546922, 33.348874506309279 ], [ -116.405582782620925, 33.349389768400535 ], [ -116.40557179189932, 33.349391267007974 ], [ -116.405560673321432, 33.349391821650215 ], [ -116.405549544815372, 33.349391426444598 ], [ -116.405538524414609, 33.349390085582755 ], [ -116.40552772900601, 33.349387813286434 ], [ -116.405517273089998, 33.349384633656513 ], [ -116.405507267566207, 33.349380580417453 ], [ -116.405497818557166, 33.349375696559463 ], [ -116.405489026282766, 33.349370033882735 ], [ -116.405105393122099, 33.349095565857084 ], [ -116.404816373940093, 33.34906985159239 ], [ -116.403459775252983, 33.349314809915654 ], [ -116.403449561938245, 33.34931623377593 ], [ -116.403439230975394, 33.349316842190376 ], [ -116.403428877099458, 33.349316629579882 ], [ -116.403418595255729, 33.349315597894098 ], [ -116.403408479728839, 33.349313756593503 ], [ -116.403398623278377, 33.349311122562959 ], [ -116.403389116288054, 33.349307719956464 ], [ -116.403380045937126, 33.349303579975995 ], [ -116.403371495400734, 33.349298740585269 ], [ -116.402604916321948, 33.348818715656122 ], [ -116.401643829706046, 33.348815544467882 ], [ -116.401633516901413, 33.348815102175394 ], [ -116.401623302045536, 33.348813847485133 ], [ -116.401613278260399, 33.348811791835317 ], [ -116.401603536926046, 33.348808953966014 ], [ -116.401594166847602, 33.348805359748049 ], [ -116.401585253445703, 33.348801041947439 ], [ -116.401576877977703, 33.348796039926697 ], [ -116.401569116796921, 33.348790399285832 ], [ -116.401288649515976, 33.348566050468506 ], [ -116.4012815214288, 33.348559772198733 ], [ -116.401275155024805, 33.348552955727349 ], [ -116.401269609244252, 33.348545664161591 ], [ -116.401264935429978, 33.348537965007097 ], [ -116.401261176852131, 33.348529929542934 ], [ -116.401258368307438, 33.348521632161827 ], [ -116.401256535797273, 33.348513149681068 ], [ -116.401255696286711, 33.348504560631959 ], [ -116.401255857547682, 33.348495944532033 ], [ -116.401302505515503, 33.34788965436794 ], [ -116.400933967642402, 33.347625957234897 ], [ -116.400926753862706, 33.347620295805832 ], [ -116.400920198174546, 33.347614109924308 ], [ -116.400914355940287, 33.34760745182961 ], [ -116.400909276497188, 33.347600377749245 ], [ -116.4009050027407, 33.347592947423436 ], [ -116.400901570762258, 33.347585223600873 ], [ -116.400899009544489, 33.347577271508911 ], [ -116.400829890858589, 33.347314764576048 ], [ -116.400828110644255, 33.347305875785558 ], [ -116.400827418036414, 33.34729688385984 ], [ -116.400827820045208, 33.347287879813905 ], [ -116.400829312601203, 33.347278954785288 ], [ -116.40083188059657, 33.34727019911179 ], [ -116.400835498038148, 33.347261701416897 ], [ -116.400840128310449, 33.347253547713002 ], [ -116.400845724546272, 33.347245820530496 ], [ -116.400852230101222, 33.347238598082697 ], [ -116.400859579126902, 33.347231953473923 ], [ -116.400867697237587, 33.34722595395985 ], [ -116.401005158426472, 33.347134222674661 ], [ -116.400026546750752, 33.343005995971112 ], [ -116.392495976854704, 33.339076735687271 ], [ -116.392487195323, 33.33907163230689 ], [ -116.392479067566683, 33.339065833475196 ], [ -116.392471673571976, 33.339059396259287 ], [ -116.392465086103996, 33.339052384008703 ], [ -116.392459369990689, 33.339044865731822 ], [ -116.392454581484856, 33.339036915417132 ], [ -116.392450767710514, 33.339028611304663 ], [ -116.3924479661992, 33.339020035116214 ], [ -116.392401910826422, 33.338845024963533 ], [ -116.392400131755537, 33.338836135934066 ], [ -116.392399440185159, 33.338827143847944 ], [ -116.392399843114902, 33.338818139721894 ], [ -116.392401336466008, 33.338809214694201 ], [ -116.392403905122634, 33.338800459102671 ], [ -116.392407523084898, 33.33879196156996 ], [ -116.39241215373201, 33.33878380810679 ], [ -116.392417750193061, 33.338776081241143 ], [ -116.392424255821282, 33.338768859183133 ], [ -116.392431604767623, 33.338762215033128 ], [ -116.392439722647097, 33.33875621604215 ], [ -116.39257597453215, 33.338665297368301 ], [ -116.38920627729631, 33.325858265311105 ], [ -116.388671836949982, 33.324240656535004 ], [ -116.388412821075192, 33.324033338740961 ], [ -116.388405573937192, 33.324026940489411 ], [ -116.388399117339944, 33.324019985576079 ], [ -116.388393513243486, 33.324012540743084 ], [ -116.388388815426822, 33.324004677434203 ], [ -116.388385068971843, 33.323996471109069 ], [ -116.388382309830803, 33.323988000518803 ], [ -116.388106087667055, 33.322937906121837 ], [ -116.388104280467218, 33.322928804758867 ], [ -116.388103612908125, 33.322919597695531 ], [ -116.388104092069753, 33.322910382585391 ], [ -116.388105712869574, 33.32290125716731 ], [ -116.388108458116363, 33.322892318228718 ], [ -116.38811229869269, 33.322883660579365 ], [ -116.388117193863664, 33.322875376045282 ], [ -116.388123091709019, 33.322867552495268 ], [ -116.38812992967388, 33.322860272908649 ], [ -116.3884583371009, 33.322545537005304 ], [ -116.388470735741748, 33.322208220865988 ], [ -116.388471545968699, 33.322199670779717 ], [ -116.388473339757184, 33.32219122409176 ], [ -116.388476100657854, 33.322182958258125 ], [ -116.38847980335305, 33.322174949076235 ], [ -116.388484413888833, 33.322167269990146 ], [ -116.388489889986488, 33.322159991416861 ], [ -116.388496181430099, 33.322153180100742 ], [ -116.388503230527164, 33.32214689850138 ], [ -116.388510972637491, 33.322141204220692 ], [ -116.388835461786911, 33.321924644668975 ], [ -116.388803650745601, 33.321803711652315 ], [ -116.388801903207991, 33.321795042555379 ], [ -116.388801189869326, 33.321786273313421 ], [ -116.388801517599049, 33.321777488379055 ], [ -116.388802883240601, 33.321768772356059 ], [ -116.388805273641822, 33.321760209184397 ], [ -116.38880866578144, 33.321751881332048 ], [ -116.38881302699113, 33.321743869000656 ], [ -116.388818315269731, 33.321736249353407 ], [ -116.388824479688125, 33.321729095771396 ], [ -116.388831460879416, 33.321722477147539 ], [ -116.388839191610913, 33.321716457222578 ], [ -116.388847597431479, 33.321711093971615 ], [ -116.388856597388511, 33.321706439045528 ], [ -116.388866104807676, 33.321702537273652 ], [ -116.388876028127569, 33.3216994262322 ], [ -116.388886271781402, 33.321697135882033 ], [ -116.389203190456158, 33.321639931899128 ], [ -116.388834892260803, 33.320239803423988 ], [ -116.38883303525391, 33.320230326580429 ], [ -116.388832413531162, 33.320220739521076 ], [ -116.388833034236669, 33.320211152416292 ], [ -116.388869617107574, 33.319929560036442 ], [ -116.388871142742047, 33.319921385997965 ], [ -116.388873572174546, 33.319913363407537 ], [ -116.388876884684635, 33.319905560688412 ], [ -116.388881052020182, 33.319898044388871 ], [ -116.388886038638432, 33.319890878613997 ], [ -116.388891802009184, 33.319884124479515 ], [ -116.389375669719911, 33.319369268589689 ], [ -116.389033885415941, 33.318470583310017 ], [ -116.389031216248881, 33.318462154018121 ], [ -116.389029548623228, 33.318453549736326 ], [ -116.389028898327027, 33.318444851926174 ], [ -116.38902927151662, 33.318436142934601 ], [ -116.389030664658492, 33.318427505214515 ], [ -116.389033064562668, 33.318419020543949 ], [ -116.389036448507639, 33.318410769251919 ], [ -116.389040784455418, 33.318402829457952 ], [ -116.389046031355008, 33.318395276332289 ], [ -116.389267519515784, 33.318109554789103 ], [ -116.388337305821779, 33.315398710994309 ], [ -116.38768887069736, 33.314548140972832 ], [ -116.387358972479348, 33.314441043529932 ], [ -116.387349373085129, 33.314437471464252 ], [ -116.387340238378883, 33.314433143131247 ], [ -116.387331654912998, 33.314428099542248 ], [ -116.387323704016751, 33.314422388486001 ], [ -116.387316461025705, 33.314416064075331 ], [ -116.387309994567872, 33.314409186234798 ], [ -116.387304365913522, 33.31440182013278 ], [ -116.387299628394473, 33.314394035563822 ], [ -116.387295826899063, 33.31438590628764 ], [ -116.387292997446522, 33.314377509329944 ], [ -116.387291166845912, 33.314368924252797 ], [ -116.387290352442037, 33.314360232400752 ], [ -116.38729056195109, 33.314351516129882 ], [ -116.387291793387675, 33.314342858027686 ], [ -116.387384414110741, 33.3138848094463 ], [ -116.38558071823104, 33.307445561186604 ], [ -116.385578818357843, 33.3074368372015 ], [ -116.385577968709555, 33.307428000338 ], [ -116.385578177609617, 33.307419137169248 ], [ -116.385579443011181, 33.307410334526047 ], [ -116.385581752516941, 33.307401678646322 ], [ -116.385585083500814, 33.307393254329952 ], [ -116.385589403329448, 33.307385144108395 ], [ -116.385594669682035, 33.307377427435966 ], [ -116.385600830964947, 33.307370179911224 ], [ -116.385607826817065, 33.307363472536871 ], [ -116.385615588701256, 33.307357371023571 ], [ -116.385624040575848, 33.307351935146706 ], [ -116.385633099639421, 33.307347218160281 ], [ -116.385642677142158, 33.307343266275801 ], [ -116.38565267925523, 33.307340118208934 ], [ -116.385663007990104, 33.307337804800582 ], [ -116.385768629114494, 33.307318739476408 ], [ -116.38574561809753, 33.307231229063547 ], [ -116.385743869908168, 33.307222550432186 ], [ -116.385743157945655, 33.307213771557826 ], [ -116.385743489080838, 33.307204977165895 ], [ -116.385744860117612, 33.307196252131639 ], [ -116.38574725782361, 33.30718768066086 ], [ -116.385750659058161, 33.307179345477401 ], [ -116.385755030995412, 33.307171327024442 ], [ -116.385760331441318, 33.30716370268857 ], [ -116.385766509240781, 33.307156546052589 ], [ -116.385773504771322, 33.307149926185517 ], [ -116.38601323000357, 33.306944386499879 ], [ -116.386004561044189, 33.306524861605872 ], [ -116.386004898589093, 33.306516092337738 ], [ -116.386006270090277, 33.306507392510099 ], [ -116.38600866238599, 33.30649884560993 ], [ -116.386012052518439, 33.306490533656735 ], [ -116.386016407954259, 33.306482536415153 ], [ -116.386021686896797, 33.306474930629939 ], [ -116.386239452094784, 33.306193984047084 ], [ -116.386029221353766, 33.305757453523839 ], [ -116.385801109974807, 33.305636073316791 ], [ -116.385792601263475, 33.30563104845745 ], [ -116.385784717839414, 33.305625366410233 ], [ -116.385777533362031, 33.305619080265906 ], [ -116.38577111495988, 33.305612248759559 ], [ -116.385765522603691, 33.305604935721931 ], [ -116.385760808545896, 33.305597209483103 ], [ -116.385757016832386, 33.30558914223375 ], [ -116.385754182891048, 33.305580809350772 ], [ -116.385752333200742, 33.30557228869317 ], [ -116.385751485043826, 33.305563659874281 ], [ -116.385751646344843, 33.305555003518116 ], [ -116.385797755491893, 33.304956890234237 ], [ -116.385594016763932, 33.304848477175561 ], [ -116.38558526158279, 33.304843290758654 ], [ -116.385577172269308, 33.304837408669044 ], [ -116.385569829016887, 33.304830889218984 ], [ -116.385563304622892, 33.30482379703907 ], [ -116.385557663766775, 33.304816202437912 ], [ -116.38555296236899, 33.304808180704576 ], [ -116.385549247036607, 33.304799811362635 ], [ -116.385546554601319, 33.304791177381702 ], [ -116.385544911754266, 33.304782364354757 ], [ -116.385544334781443, 33.304773459649759 ], [ -116.385544829402335, 33.304764551543599 ], [ -116.385546390713117, 33.304755728346677 ], [ -116.38554900323544, 33.304747077527715 ], [ -116.385552641069708, 33.304738684846626 ], [ -116.385557268151985, 33.304730633504015 ], [ -116.385562838611477, 33.304723003316923 ], [ -116.385569297225246, 33.304715869926966 ], [ -116.385576579965743, 33.304709304051002 ], [ -116.385584614635505, 33.304703370779535 ], [ -116.385720815510027, 33.304612455775903 ], [ -116.38566696323872, 33.304407648055985 ], [ -116.385304364272812, 33.303428264879791 ], [ -116.385128995009822, 33.303391294787993 ], [ -116.38511860402923, 33.303388636510235 ], [ -116.385108588001799, 33.303385126578625 ], [ -116.385099048308476, 33.30338080052038 ], [ -116.385090081508793, 33.303375702123169 ], [ -116.385081778363556, 33.303369882992477 ], [ -116.385074222915975, 33.30336340202868 ], [ -116.385067491641138, 33.30335632483132 ], [ -116.385061652671908, 33.303348723034873 ], [ -116.385056765109326, 33.303340673583676 ], [ -116.385052878424304, 33.303332257953173 ], [ -116.38505003195705, 33.303323561325236 ], [ -116.384981004957908, 33.303061028088322 ], [ -116.384979240959893, 33.30305223530835 ], [ -116.38497854048677, 33.303043340790971 ], [ -116.384978910475937, 33.30303443263054 ], [ -116.384980347262541, 33.303025599056667 ], [ -116.384982836615748, 33.303016927559931 ], [ -116.384986353879839, 33.303008504025996 ], [ -116.384990864218338, 33.303000411884312 ], [ -116.384996322959012, 33.302992731282188 ], [ -116.385002676036464, 33.302985538290812 ], [ -116.385405985867436, 33.302573598881679 ], [ -116.385301998943987, 33.302178103324863 ], [ -116.385300221503073, 33.302169213714684 ], [ -116.385299531065527, 33.30216022110973 ], [ -116.385299934619553, 33.302151216531811 ], [ -116.385301428080041, 33.30214229112395 ], [ -116.385303996330009, 33.302133535227725 ], [ -116.38530761337374, 33.302125037468954 ], [ -116.385312242599738, 33.302116883860599 ], [ -116.385317837151419, 33.302109156932104 ], [ -116.385324340401453, 33.302101934894218 ], [ -116.385331686524736, 33.302095290847127 ], [ -116.385339801164932, 33.302089292040826 ], [ -116.385677524199608, 33.30186385178154 ], [ -116.385688901259741, 33.301554535741722 ], [ -116.385466402799054, 33.301092493820072 ], [ -116.384723822344583, 33.300697325441817 ], [ -116.384715189107268, 33.300692218604432 ], [ -116.384707201536258, 33.300686435183749 ], [ -116.384699936556274, 33.300680030877572 ], [ -116.384693464133079, 33.300673067362965 ], [ -116.384687846599476, 33.300665611702414 ], [ -116.384683138055294, 33.300657735698174 ], [ -116.384679383846148, 33.300649515200625 ], [ -116.384676620126896, 33.300641029377609 ], [ -116.384561581377994, 33.300203471829079 ], [ -116.384559834786771, 33.300194802396646 ], [ -116.384559122116201, 33.30018603285432 ], [ -116.384559450229276, 33.300177247657665 ], [ -116.384560815965784, 33.300168531412822 ], [ -116.384563206172601, 33.300159968061969 ], [ -116.384566597830386, 33.300151640074851 ], [ -116.384570958275361, 33.300143627654435 ], [ -116.384576245513855, 33.300136007964646 ], [ -116.384906660264477, 33.299709703244829 ], [ -116.384912823313897, 33.299702549645076 ], [ -116.384919802881228, 33.299695931048376 ], [ -116.384927531749327, 33.299689911195209 ], [ -116.384935935485032, 33.299684548059965 ], [ -116.384944933155865, 33.299679893292407 ], [ -116.384954438109432, 33.299675991720449 ], [ -116.384964358808119, 33.299672880918173 ], [ -116.384974599710389, 33.299670590844336 ], [ -116.385261779533195, 33.299618748884541 ], [ -116.3849542028793, 33.299103666951517 ], [ -116.384673357633829, 33.299078612344459 ], [ -116.384663056588764, 33.299077274215257 ], [ -116.384652959074828, 33.299075119853562 ], [ -116.38464315905847, 33.299072169307614 ], [ -116.384633747737581, 33.299068450034909 ], [ -116.38462481269292, 33.299063996646652 ], [ -116.384616437072992, 33.299058850585517 ], [ -116.384608698820315, 33.299053059740224 ], [ -116.384601669946093, 33.299046677999797 ], [ -116.384595415860076, 33.29903976475191 ], [ -116.384269160360304, 33.298640334765864 ], [ -116.384263705526436, 33.298632902842741 ], [ -116.384259146455335, 33.298625067497468 ], [ -116.384255526149758, 33.298616902636212 ], [ -116.38425287875755, 33.2986084852731 ], [ -116.384251229249671, 33.298599894804227 ], [ -116.384250593184646, 33.298591212258145 ], [ -116.384250976561674, 33.298582519532147 ], [ -116.384252375764348, 33.298573898619409 ], [ -116.384254777594435, 33.298565430835716 ], [ -116.384258159396708, 33.29855719605245 ], [ -116.384262489272331, 33.298549271943251 ], [ -116.384267726380074, 33.298541733251291 ], [ -116.384408737990938, 33.298359796439414 ], [ -116.384363466179707, 33.298187594823652 ], [ -116.384193979312357, 33.298151860691441 ], [ -116.384183589054672, 33.298149202308821 ], [ -116.384173573735296, 33.298145692268953 ], [ -116.384164034728059, 33.298141366100069 ], [ -116.384155068585542, 33.298136267591055 ], [ -116.384146766061804, 33.298130448348445 ], [ -116.384139211193855, 33.298123967273838 ], [ -116.384132480450916, 33.298116889967886 ], [ -116.384126641960449, 33.298109288066115 ], [ -116.384121754818622, 33.298101238513972 ], [ -116.38411786849214, 33.298092822787872 ], [ -116.384115022317516, 33.298084126070719 ], [ -116.383539875634426, 33.295896323473237 ], [ -116.38353811195779, 33.295887530579812 ], [ -116.383537411711174, 33.295878635961238 ], [ -116.383537781829702, 33.295869727712947 ], [ -116.383539218647243, 33.295860894065399 ], [ -116.383541707932665, 33.295852222509978 ], [ -116.3835452250309, 33.295843798932708 ], [ -116.383549735107152, 33.295835706763647 ], [ -116.383555193491745, 33.295828026150339 ], [ -116.383561546122806, 33.295820833164136 ], [ -116.383964826799328, 33.2954088945447 ], [ -116.383791840823378, 33.294750856458819 ], [ -116.3837901996244, 33.294742907601268 ], [ -116.383789427879677, 33.294734868632816 ], [ -116.383789531845622, 33.29472680472626 ], [ -116.383790510679077, 33.294718781256456 ], [ -116.383792356444275, 33.294710863270616 ], [ -116.38379505417717, 33.294703114960598 ], [ -116.383976077480966, 33.294259270696173 ], [ -116.383588676720279, 33.293918039838559 ], [ -116.383582334337959, 33.293911923458779 ], [ -116.383576681554729, 33.293905359116707 ], [ -116.383571764198265, 33.293898400030159 ], [ -116.383567622133967, 33.293891102617394 ], [ -116.383564288941827, 33.293883526039274 ], [ -116.383561791644155, 33.293875731720071 ], [ -116.383492777887341, 33.29361319399176 ], [ -116.383491000843961, 33.293604304243132 ], [ -116.383490310688131, 33.293595311515652 ], [ -116.383490714405141, 33.293586306832246 ], [ -116.383492207908233, 33.293577381337137 ], [ -116.383494776080056, 33.293568625372728 ], [ -116.383498392925631, 33.29356012756547 ], [ -116.383503021835466, 33.293551973928906 ], [ -116.383508615956231, 33.29354424699271 ], [ -116.383515118664889, 33.293537024967719 ], [ -116.383522464141876, 33.293530380954053 ], [ -116.383530578037366, 33.293524382201269 ], [ -116.383887111481812, 33.293286365792717 ], [ -116.384086300358931, 33.292925500056093 ], [ -116.383920705215985, 33.292295558655255 ], [ -116.383216971421433, 33.291991758343187 ], [ -116.383207892334667, 33.291987360816627 ], [ -116.383199371942169, 33.291982252883464 ], [ -116.383191490911315, 33.291976482903543 ], [ -116.383184323856241, 33.291970105504568 ], [ -116.383177938631434, 33.291963181065043 ], [ -116.383172395689257, 33.291955775142505 ], [ -116.383167747507613, 33.291947957853168 ], [ -116.383164038093298, 33.291939803207647 ], [ -116.383161302565071, 33.291931388410653 ], [ -116.382988776633084, 33.291275041370184 ], [ -116.38254650783874, 33.291107383126786 ], [ -116.382537156514076, 33.291103370617485 ], [ -116.382528320781674, 33.291098622962501 ], [ -116.382520084524742, 33.29109318523426 ], [ -116.38251252593524, 33.291087109056733 ], [ -116.382505716771576, 33.291080452114869 ], [ -116.38249972167732, 33.291073277607325 ], [ -116.382494597567444, 33.291065653646228 ], [ -116.382334408166344, 33.290797342019602 ], [ -116.382205658393801, 33.290820583600592 ], [ -116.382195197037561, 33.290822030656486 ], [ -116.382184614905384, 33.290822620975405 ], [ -116.382174013909307, 33.290822348872197 ], [ -116.382163496143093, 33.290821216967458 ], [ -116.382153162898874, 33.290819236162001 ], [ -116.382143113691797, 33.290816425532093 ], [ -116.382133445301449, 33.290812812145788 ], [ -116.382124250839979, 33.290808430801981 ], [ -116.382115618855266, 33.290803323695648 ], [ -116.38210763247811, 33.290797540010992 ], [ -116.382100368621749, 33.290791135448302 ], [ -116.382093897241106, 33.290784171687108 ], [ -116.382088280658991, 33.290776715792333 ], [ -116.382083572965996, 33.290768839568415 ], [ -116.382079819499594, 33.290760618867829 ], [ -116.382077056407454, 33.29075213286054 ], [ -116.382008050337248, 33.290489593048719 ], [ -116.382006273531957, 33.290480703236781 ], [ -116.382005583573005, 33.290471710459578 ], [ -116.382005987443762, 33.290462705740595 ], [ -116.382007481055908, 33.290453780224347 ], [ -116.38201004929094, 33.290445024253458 ], [ -116.382013666153242, 33.290436526454528 ], [ -116.38201829503322, 33.290428372840935 ], [ -116.382023889077772, 33.290420645942149 ], [ -116.382030391664671, 33.290413423968623 ], [ -116.382037736975619, 33.290406780019943 ], [ -116.382045850662365, 33.290400781344964 ], [ -116.382182030887066, 33.290309868658355 ], [ -116.382066303777336, 33.289869572950963 ], [ -116.381558342921849, 33.28952804867609 ], [ -116.38155058160855, 33.289522294974837 ], [ -116.381543524507691, 33.289515948940512 ], [ -116.381537237138375, 33.289509069490791 ], [ -116.381531777873306, 33.289501720495508 ], [ -116.381527197396977, 33.289493970183926 ], [ -116.381523538234916, 33.289485890511145 ], [ -116.381520834359122, 33.289477556489992 ], [ -116.381392355869636, 33.288988724408362 ], [ -116.380915629404612, 33.288734965391953 ], [ -116.380906997725504, 33.288729858179238 ], [ -116.380899011647372, 33.288724074393009 ], [ -116.380891748080558, 33.288717669734446 ], [ -116.380885276977125, 33.288710705884114 ], [ -116.380879660657286, 33.288703249907684 ], [ -116.380874953209116, 33.288695373610388 ], [ -116.380871199967672, 33.28868715284554 ], [ -116.380868437078504, 33.288678666783561 ], [ -116.380799436853934, 33.288416125454063 ], [ -116.380797717434262, 33.288407642106023 ], [ -116.38079698793878, 33.28839906118295 ], [ -116.380797255096269, 33.288390461838262 ], [ -116.38079851644207, 33.288381923395356 ], [ -116.380800760340719, 33.288373524615878 ], [ -116.380803966093467, 33.288365342973016 ], [ -116.380808104129045, 33.288357453937074 ], [ -116.380813136276515, 33.288349930279239 ], [ -116.380819016117414, 33.288342841400215 ], [ -116.380825689413896, 33.288336252690272 ], [ -116.380833094609059, 33.288330224925865 ], [ -116.38084116339482, 33.288324813709067 ], [ -116.380849821341869, 33.288320068954754 ], [ -116.381114590071434, 33.288189664294059 ], [ -116.381325333902709, 33.287807866517333 ], [ -116.381330478967087, 33.287799687120277 ], [ -116.38133661182259, 33.287791989657208 ], [ -116.381343667421746, 33.287784855770141 ], [ -116.381351570930136, 33.287778361123628 ], [ -116.381360238520244, 33.287772574602094 ], [ -116.381369578260518, 33.287767557579421 ], [ -116.381379491090328, 33.287763363267814 ], [ -116.38138987187078, 33.287760036153706 ], [ -116.381400610499782, 33.287757611525464 ], [ -116.381717398039456, 33.287700425411259 ], [ -116.381726398552757, 33.287699128147999 ], [ -116.381735499109254, 33.287698465509557 ], [ -116.38174463467837, 33.287698442231047 ], [ -116.384716247491767, 33.287795003979973 ], [ -116.385226904812527, 33.287454059613104 ], [ -116.385358607793492, 33.287175535173127 ], [ -116.385362962461087, 33.28716751045117 ], [ -116.385368246194133, 33.287159878572751 ], [ -116.385374407998867, 33.287152713193578 ], [ -116.385381388407197, 33.287146083466872 ], [ -116.385389120050689, 33.287140053376646 ], [ -116.385397528310818, 33.287134681119383 ], [ -116.385406532038999, 33.287130018543046 ], [ -116.385416044339834, 33.287126110646291 ], [ -116.38542597340971, 33.287122995144436 ], [ -116.385436223422857, 33.287120702105213 ], [ -116.385597953920495, 33.287091500601164 ], [ -116.385964507177746, 33.286508298205007 ], [ -116.385970154544552, 33.286500342461032 ], [ -116.385976759890724, 33.286492910671505 ], [ -116.385984253062517, 33.286486081767215 ], [ -116.385992554476928, 33.28647992827608 ], [ -116.386534745835775, 33.286117913096795 ], [ -116.386666441957516, 33.285839386614121 ], [ -116.386670661049635, 33.285831582483318 ], [ -116.386675758952833, 33.285824147407666 ], [ -116.38668168919294, 33.285817149167414 ], [ -116.386688397708028, 33.28581065156046 ], [ -116.386695823341256, 33.285804713820809 ], [ -116.386703898398352, 33.285799390078481 ], [ -116.386712549264814, 33.285794728866207 ], [ -116.386721697076894, 33.285790772676876 ], [ -116.387626009458273, 33.28544414151866 ], [ -116.387635526232344, 33.28544093930325 ], [ -116.387645366828977, 33.285438500346046 ], [ -116.387655442356248, 33.285436846678529 ], [ -116.389148064139349, 33.285252447818308 ], [ -116.389103632496656, 33.285083451159309 ], [ -116.389101885740786, 33.285074781605864 ], [ -116.389101172701288, 33.285066011899389 ], [ -116.389101500244763, 33.285057226496939 ], [ -116.389102865216444, 33.285048510006739 ], [ -116.389105254470536, 33.285039946373388 ], [ -116.389108644996966, 33.285031618069226 ], [ -116.3891130041428, 33.28502360530031 ], [ -116.389118289926884, 33.285015985233947 ], [ -116.389283453741953, 33.284802821806387 ], [ -116.389289603543631, 33.284795680066111 ], [ -116.389296566955963, 33.284789071294902 ], [ -116.389304277155148, 33.284783058912943 ], [ -116.389312660151106, 33.284777700617461 ], [ -116.389321635497311, 33.284773047828637 ], [ -116.389331117062866, 33.284769145196421 ], [ -116.38980110254451, 33.28459894386333 ], [ -116.390173373386347, 33.284006559622355 ], [ -116.390178678647629, 33.28399903527206 ], [ -116.390184841103618, 33.283991973870009 ], [ -116.390191802410826, 33.283985442270236 ], [ -116.390199496662603, 33.283979502310999 ], [ -116.390207851013301, 33.283974210228955 ], [ -116.390216786367688, 33.283969616127088 ], [ -116.390226218129968, 33.28396576350022 ], [ -116.390236057004628, 33.283962688823138 ], [ -116.390246209841848, 33.28396042120557 ], [ -116.391935622357181, 33.283655286416128 ], [ -116.391945755465642, 33.283653870577481 ], [ -116.391956005018855, 33.283653258846996 ], [ -116.391966278338131, 33.283653456755999 ], [ -116.391976482529898, 33.28365446251496 ], [ -116.392480164612294, 33.283724372213044 ], [ -116.396239937134325, 33.278871113880733 ], [ -116.396246447154084, 33.278863594831769 ], [ -116.396253858515394, 33.278856672732779 ], [ -116.396262092088193, 33.278850421489956 ], [ -116.396271059963766, 33.278844907846839 ], [ -116.396280666393523, 33.278840190671595 ], [ -116.396290808811116, 33.278836320328764 ], [ -116.396901274987272, 33.278634351660351 ], [ -116.396911991554575, 33.278631335062862 ], [ -116.396923029997907, 33.278629264062531 ], [ -116.396934269230115, 33.278628161377434 ], [ -116.396945585961518, 33.278628039103495 ], [ -116.396956856052384, 33.278628898582042 ], [ -116.397797151260292, 33.278729989675938 ], [ -116.398398306149346, 33.277843351043977 ], [ -116.398404206509454, 33.277835604794859 ], [ -116.398411030614227, 33.277828398628991 ], [ -116.398418707074597, 33.277821807932021 ], [ -116.398427155584841, 33.277815901651032 ], [ -116.398436287762706, 33.277810741573241 ], [ -116.398446008073932, 33.277806381679511 ], [ -116.398456214831725, 33.277802867579986 ], [ -116.398466801260426, 33.27780023603647 ], [ -116.398477656612684, 33.277798514578258 ], [ -116.399823962105188, 33.277643667385789 ], [ -116.400127349868399, 33.277251970602784 ], [ -116.400133509778314, 33.277244815951882 ], [ -116.400140486076722, 33.277238196213077 ], [ -116.400148211577971, 33.277232175137932 ], [ -116.400156611881286, 33.277226810712492 ], [ -116.40016560608727, 33.277222154599087 ], [ -116.400175107576914, 33.277218251638409 ], [ -116.400185024845939, 33.277215139418132 ], [ -116.400195262385807, 33.277212847910462 ], [ -116.400406416758045, 33.277174688732828 ], [ -116.400383398284902, 33.277087177429394 ], [ -116.400381649151782, 33.277078498641607 ], [ -116.400380935830313, 33.277069719474127 ], [ -116.400381265204516, 33.277060924655309 ], [ -116.400382634095166, 33.277052199064507 ], [ -116.400385029290732, 33.277043626912871 ], [ -116.400388427674656, 33.277035290930748 ], [ -116.400392796448713, 33.277027271569153 ], [ -116.400398093449311, 33.277019646223359 ], [ -116.400404267554606, 33.277012488485937 ], [ -116.400411259177815, 33.277005867436536 ], [ -116.400641772444828, 33.276808080823066 ], [ -116.400585035850284, 33.276592381514014 ], [ -116.40058322659597, 33.276583267336854 ], [ -116.400582559392092, 33.276574047173987 ], [ -116.400583041334002, 33.276564819082331 ], [ -116.400584667295846, 33.276555681202979 ], [ -116.400587419985087, 33.276546730717669 ], [ -116.400591270126355, 33.276538062815177 ], [ -116.400596176772922, 33.276529769678923 ], [ -116.400602087742143, 33.276521939506672 ], [ -116.401671208914209, 33.275255885594284 ], [ -116.401635248877753, 33.275119178177192 ], [ -116.401633500963655, 33.275110508689103 ], [ -116.401632786619217, 33.275101738933536 ], [ -116.401633112723616, 33.275092953368016 ], [ -116.401634476135939, 33.275084236602439 ], [ -116.401636863725471, 33.275075672583917 ], [ -116.401640252498083, 33.275067343788614 ], [ -116.401644609817751, 33.275059330427283 ], [ -116.401649893720915, 33.275051709672837 ], [ -116.402227771348166, 33.274305562363466 ], [ -116.402233303146076, 33.27429907222556 ], [ -116.402239507145637, 33.274293014055139 ], [ -116.402246334511929, 33.274287435539115 ], [ -116.402876655175604, 33.273816232492962 ], [ -116.403091991274394, 33.273425799336088 ], [ -116.403097133139184, 33.273417618791491 ], [ -116.403103262747905, 33.273409920003466 ], [ -116.403110315087488, 33.27340278462809 ], [ -116.403118215358163, 33.273396288345609 ], [ -116.403126879766674, 33.273390500057864 ], [ -116.403136216415234, 33.273385481157469 ], [ -116.403146126276013, 33.27338128487655 ], [ -116.403156504241622, 33.273377955722403 ], [ -116.40316724023981, 33.273375529005058 ], [ -116.409225049052651, 33.272280386221532 ], [ -116.409268114224119, 33.272139928157564 ], [ -116.409271318554687, 33.272131317358522 ], [ -116.409275550421185, 33.272123017033955 ], [ -116.409280766989042, 33.272115111198445 ], [ -116.409286915456747, 33.272107679873564 ], [ -116.409293933590291, 33.272100798277926 ], [ -116.409301750353151, 33.272094536065872 ], [ -116.409310286625185, 33.27208895662239 ], [ -116.409319456003615, 33.272084116421709 ], [ -116.40932916567759, 33.272080064455402 ], [ -116.409339317367412, 33.272076841736855 ], [ -116.409349808319533, 33.272074480885806 ], [ -116.410405487092646, 33.271883595361615 ], [ -116.410416094268612, 33.271882131326407 ], [ -116.410426824465176, 33.271881548519723 ], [ -116.410437571407087, 33.271881852713733 ], [ -116.410448228653252, 33.271883040895752 ], [ -116.41045869065097, 33.271885101297492 ], [ -116.410468853781254, 33.271888013512203 ], [ -116.410478617385252, 33.271891748696298 ], [ -116.410487884760983, 33.271896269855361 ], [ -116.41049656412136, 33.271901532210293 ], [ -116.411009192099073, 33.272246065832398 ], [ -116.411656931540847, 33.272303721960348 ], [ -116.411667010483725, 33.272305020446645 ], [ -116.411676896812509, 33.272307100963332 ], [ -116.411686502427429, 33.272309944970253 ], [ -116.411695741730284, 33.272313527123835 ], [ -116.411704532387105, 33.272317815502454 ], [ -116.411712796061934, 33.27232277189124 ], [ -116.411720459114846, 33.272328352122408 ], [ -116.411963157903557, 33.272522656448622 ], [ -116.413201282987259, 33.272386750699404 ], [ -116.413212082389791, 33.272386019500956 ], [ -116.413222915836855, 33.272386188565513 ], [ -116.413233674386106, 33.272387256192808 ], [ -116.413244249848276, 33.27238921164674 ], [ -116.413254535875296, 33.272392035262996 ], [ -116.413264429029638, 33.272395698646989 ], [ -116.413273829824533, 33.272400164959208 ], [ -116.413491574972269, 33.272516010028006 ], [ -116.416590104999415, 33.271865246301893 ], [ -116.416600294130021, 33.271863533902206 ], [ -116.416610634628483, 33.271862641174202 ], [ -116.416621030762457, 33.27186257638278 ], [ -116.416631386284564, 33.271863340127766 ], [ -116.416641605323434, 33.271864925338377 ], [ -116.416651593271183, 33.271867317338781 ], [ -116.416661257659371, 33.271870493983812 ], [ -116.416670509015077, 33.271874425864048 ], [ -116.416679261689154, 33.271879076578209 ], [ -116.41794670670501, 33.272626186803166 ], [ -116.419985711384896, 33.272167819078007 ], [ -116.419996164068962, 33.272165924222136 ], [ -116.420006791584044, 33.272164895625153 ], [ -116.420017489717353, 33.272164743373416 ], [ -116.420028153563592, 33.272165468959912 ], [ -116.42003867855361, 33.272167065269507 ], [ -116.420048961479949, 33.272169516648951 ], [ -116.420058901508796, 33.27217279906008 ], [ -116.420498789796682, 33.272339425552907 ], [ -116.420743791636568, 33.272218614598621 ], [ -116.420753010079792, 33.272214555266238 ], [ -116.420762658035585, 33.272211252240353 ], [ -116.420772645461184, 33.272208736347501 ], [ -116.420782879145662, 33.272207031068106 ], [ -116.42079326357981, 33.272206152317153 ], [ -116.420803701847532, 33.272206108296025 ], [ -116.420814096530322, 33.272206899415501 ], [ -116.4208243506164, 33.272208518292103 ], [ -116.420834368406162, 33.272210949817278 ], [ -116.420844056405315, 33.272214171297904 ], [ -116.420853324197424, 33.272218152668579 ], [ -116.420862085287652, 33.272222856771705 ], [ -116.422003504461003, 33.272902762907208 ], [ -116.423539976474061, 33.272624763452434 ], [ -116.423551041662677, 33.272623255022054 ], [ -116.423562235860643, 33.2726227053627 ], [ -116.423573438497598, 33.272623120394726 ], [ -116.423584528912258, 33.272624495647818 ], [ -116.423595387652142, 33.272626816309483 ], [ -116.424426519594405, 33.272843133967193 ], [ -116.424436212605244, 33.272846085421634 ], [ -116.424445521467391, 33.272849790398872 ], [ -116.424454361160699, 33.272854215060413 ], [ -116.424462650949977, 33.272859318994719 ], [ -116.424470315122392, 33.272865055586287 ], [ -116.424477283679025, 33.272871372441443 ], [ -116.424483492974119, 33.272878211866619 ], [ -116.424488886296359, 33.272885511395671 ], [ -116.424493414386959, 33.272893204360095 ], [ -116.424497035889416, 33.272901220498056 ], [ -116.424499717727315, 33.272909486595964 ], [ -116.424914518321359, 33.274484610018234 ], [ -116.424916296567929, 33.27449347743881 ], [ -116.424916993586862, 33.27450244794926 ], [ -116.424916602357143, 33.274511431195023 ], [ -116.42491512681903, 33.274520336693499 ], [ -116.424912581834334, 33.274529074745161 ], [ -116.424908993036723, 33.274537557337005 ], [ -116.424904396573737, 33.27454569902897 ], [ -116.424898838742337, 33.274553417814879 ], [ -116.424892375522987, 33.274560635948013 ], [ -116.424885072015584, 33.274567280724469 ], [ -116.424877001783713, 33.27457328521546 ], [ -116.424868246113888, 33.274578588941289 ], [ -116.424858893196628, 33.274583138480821 ], [ -116.424849037238218, 33.274586888009082 ], [ -116.424270830638235, 33.27477835830166 ], [ -116.424066129278032, 33.275042800940561 ], [ -116.424102672457323, 33.275181568039848 ], [ -116.424104422845787, 33.275190237184297 ], [ -116.424105139692742, 33.275199006798474 ], [ -116.4241048160942, 33.275207792426208 ], [ -116.424103455166232, 33.275216509457252 ], [ -116.424101070015013, 33.275225073941613 ], [ -116.424097683610512, 33.275233403398687 ], [ -116.424093328565377, 33.27524141761117 ], [ -116.424088046820856, 33.275249039397622 ], [ -116.423776647262443, 33.275651314409124 ], [ -116.423807619638794, 33.276166788580753 ], [ -116.423807624913678, 33.276175610612896 ], [ -116.423806583129277, 33.276184390281628 ], [ -116.423804504392152, 33.276193042410753 ], [ -116.423801408868826, 33.276201483061584 ], [ -116.423797326590304, 33.276209630346905 ], [ -116.423792297160588, 33.276217405225779 ], [ -116.423786369372536, 33.276224732270002 ], [ -116.423779600734505, 33.276231540395976 ], [ -116.423772056912426, 33.276237763554619 ], [ -116.423763811092769, 33.276243341371604 ], [ -116.423754943272542, 33.276248219733766 ], [ -116.423485340150876, 33.276381163590962 ], [ -116.422614661459363, 33.277621291142033 ], [ -116.422608678691958, 33.277628897336051 ], [ -116.422601797585443, 33.277635962366737 ], [ -116.422594088857835, 33.277642413625593 ], [ -116.422585631732844, 33.277648184811987 ], [ -116.422576513125549, 33.277653216614468 ], [ -116.422019362420414, 33.277927938476623 ], [ -116.421313731979708, 33.27929088415133 ], [ -116.421463466829906, 33.279859520710339 ], [ -116.421953904576156, 33.280488634542522 ], [ -116.421959075646583, 33.280496017325348 ], [ -116.421963375228259, 33.280503774616463 ], [ -116.42196676426255, 33.280511835946882 ], [ -116.421969211962406, 33.280520128085534 ], [ -116.421970696092032, 33.280528575704771 ], [ -116.421971203168965, 33.280537102064372 ], [ -116.421970728586444, 33.280545629708826 ], [ -116.421969276655389, 33.280554081170962 ], [ -116.421966860565192, 33.280562379675587 ], [ -116.421963502263893, 33.280570449837008 ], [ -116.421959232258914, 33.280578218343926 ], [ -116.421954089339749, 33.280585614625174 ], [ -116.421640120217106, 33.280991158391451 ], [ -116.421573997729382, 33.282811985241352 ], [ -116.421572998001366, 33.282821737917715 ], [ -116.421570720269713, 33.282831341946633 ], [ -116.421273255319292, 33.283801899210417 ], [ -116.421270143084271, 33.283810301813993 ], [ -116.421266052118426, 33.283818411126965 ], [ -116.421261021819731, 33.283826149052054 ], [ -116.421255100632536, 33.283833441068722 ], [ -116.421248345580992, 33.283840216950779 ], [ -116.42124082171982, 33.283846411442582 ], [ -116.421232601507953, 33.283851964887766 ], [ -116.421223764110593, 33.283856823803397 ], [ -116.420658288028548, 33.284135617230305 ], [ -116.420448624474616, 33.284406411723786 ], [ -116.420554294737641, 33.284807696989091 ], [ -116.420556044949507, 33.284816366066273 ], [ -116.420556761488982, 33.284825135579858 ], [ -116.42055643745509, 33.284833921074657 ], [ -116.420555075968096, 33.284842637941516 ], [ -116.420552690139502, 33.284851202232169 ], [ -116.420549302945886, 33.284859531467845 ], [ -116.420544947007485, 33.284867545433315 ], [ -116.420539664274088, 33.284875166949618 ], [ -116.420316220324437, 33.285163755850483 ], [ -116.420480227807261, 33.285786573653283 ], [ -116.421184049836725, 33.286090148003382 ], [ -116.421193489118906, 33.286094737011766 ], [ -116.421202320025486, 33.286100093665056 ], [ -116.421210452002711, 33.286106163035129 ], [ -116.421217801663701, 33.286112882885604 ], [ -116.421224293643476, 33.286120184309958 ], [ -116.421229861371842, 33.286127992437898 ], [ -116.421234447756049, 33.286136227203563 ], [ -116.421238005766085, 33.286144804166071 ], [ -116.421240498917101, 33.286153635375527 ], [ -116.421771786714359, 33.288584533223705 ], [ -116.422246727375992, 33.288837103252526 ], [ -116.42225536174675, 33.288842207352161 ], [ -116.422263350873195, 33.288847988256634 ], [ -116.422270617815698, 33.288854390292769 ], [ -116.42227709258961, 33.288861351805586 ], [ -116.42228271283922, 33.288868805752074 ], [ -116.422287424438323, 33.288876680346654 ], [ -116.422291182011449, 33.288884899752894 ], [ -116.422293949370811, 33.288893384813484 ], [ -116.422325798543682, 33.289014314298591 ], [ -116.422729505093514, 33.289099298261625 ], [ -116.422740564866544, 33.289102157390289 ], [ -116.422751191794617, 33.289105981233057 ], [ -116.422761263757835, 33.289110725847969 ], [ -116.423147168390457, 33.289315941208237 ], [ -116.42315580287206, 33.289321045236548 ], [ -116.423163792113172, 33.289326826074209 ], [ -116.423171059173058, 33.289333228048825 ], [ -116.423177534065914, 33.289340189505964 ], [ -116.423183154434938, 33.289347643403104 ], [ -116.423187866152716, 33.289355517955251 ], [ -116.423191623842627, 33.289363737326312 ], [ -116.423194391315818, 33.289372222359255 ], [ -116.423228962448206, 33.289503480091284 ], [ -116.423671308799243, 33.289670981808015 ], [ -116.423681180762031, 33.289675242176152 ], [ -116.423690471640001, 33.289680321398883 ], [ -116.423699082890835, 33.289686165604344 ], [ -116.423706923180461, 33.289692712806776 ], [ -116.423713909351889, 33.28969989356429 ], [ -116.423719967307093, 33.289707631715281 ], [ -116.42372503279303, 33.289715845186237 ], [ -116.423729052082976, 33.289724446862024 ], [ -116.423731982546627, 33.2897333455103 ], [ -116.423909758655384, 33.290408289035305 ], [ -116.424600442348265, 33.290994442978224 ], [ -116.424607483819472, 33.291001038369835 ], [ -116.424613709697752, 33.291008174943897 ], [ -116.424619059794892, 33.29101578370836 ], [ -116.42462348238908, 33.291023791106177 ], [ -116.424846953051997, 33.291487363008137 ], [ -116.425027841924489, 33.291525436422859 ], [ -116.425037576949748, 33.291527895136099 ], [ -116.425046989746974, 33.291531101790071 ], [ -116.42505599685235, 33.291535027951191 ], [ -116.42506451839931, 33.291539638806022 ], [ -116.425072478826721, 33.291544893469833 ], [ -116.425079807548912, 33.291550745349134 ], [ -116.425086439581506, 33.291557142555014 ], [ -116.425092316117684, 33.291564028362998 ], [ -116.425097385049668, 33.291571341716285 ], [ -116.425101601430626, 33.291579017766779 ], [ -116.425308558730777, 33.292008324597354 ], [ -116.426457426783941, 33.291715817776961 ], [ -116.42646757122094, 33.291713674471701 ], [ -116.426477918294268, 33.291712354595987 ], [ -116.426488370918946, 33.29171187053398 ], [ -116.426498831019529, 33.291712226827606 ], [ -116.426509200450539, 33.291713420133739 ], [ -116.426519381917117, 33.291715439255874 ], [ -116.426529279888129, 33.291718265248761 ], [ -116.426538801492327, 33.291721871596593 ], [ -116.426547857389878, 33.291726224461563 ], [ -116.426556362610512, 33.291731283001276 ], [ -116.426564237350945, 33.291736999752231 ], [ -116.426809810664366, 33.291933489995806 ], [ -116.427523802319769, 33.291890189357581 ], [ -116.427533730605035, 33.291889966414175 ], [ -116.427543641664684, 33.291890499707741 ], [ -116.427553451800691, 33.291891784734709 ], [ -116.42756307816731, 33.291893810643089 ], [ -116.42757243947068, 33.291896560324247 ], [ -116.427581456655346, 33.291900010557377 ], [ -116.427590053571905, 33.291904132205524 ], [ -116.428340443350152, 33.292303109919281 ], [ -116.428977288416291, 33.29235968291519 ], [ -116.429699286184373, 33.292229042022569 ], [ -116.429709758081543, 33.292227589544844 ], [ -116.4297203514232, 33.29222699558585 ], [ -116.429730963972645, 33.292227265877933 ], [ -116.429741493307873, 33.292228397812451 ], [ -116.429751837809931, 33.292230380465057 ], [ -116.429761897643672, 33.292233194701154 ], [ -116.429771575721304, 33.292236813360418 ], [ -116.429780778639312, 33.292241201519055 ], [ -116.429789417579926, 33.292246316826784 ], [ -116.429797409168273, 33.292252109915545 ], [ -116.430036144037928, 33.292443114148234 ], [ -116.430190814545242, 33.2924151264641 ], [ -116.430201540951231, 33.292413649470866 ], [ -116.430212392155838, 33.292413073122461 ], [ -116.430223258325185, 33.292413403252645 ], [ -116.430234029473866, 33.292414636519851 ], [ -116.430244596578348, 33.292416760441292 ], [ -116.430254852680264, 33.292419753518871 ], [ -116.430264693969235, 33.29242358545725 ], [ -116.430274020833394, 33.29242821747021 ], [ -116.430282738867874, 33.292433602673405 ], [ -116.430290759830044, 33.292439686558694 ], [ -116.430298002533036, 33.292446407546038 ], [ -116.431056523602081, 33.293225904141188 ], [ -116.431062444354495, 33.293232601534996 ], [ -116.431067591318907, 33.29323972448082 ], [ -116.431071920269375, 33.293247211774052 ], [ -116.43107539400873, 33.293254999079508 ], [ -116.431077982688294, 33.293263019483952 ], [ -116.43129430757341, 33.294083969784502 ], [ -116.431463807037176, 33.2941196345162 ], [ -116.431473946888033, 33.294122213018582 ], [ -116.431483732927859, 33.294125602717898 ], [ -116.431493070911955, 33.294129770969541 ], [ -116.431501870910637, 33.294134677631085 ], [ -116.431510048175255, 33.294140275448775 ], [ -116.431517523954327, 33.294146510512775 ], [ -116.431524226252023, 33.294153322776118 ], [ -116.431530090521463, 33.294160646633081 ], [ -116.431858510241199, 33.294618040017845 ], [ -116.432650498045348, 33.294824043024114 ], [ -116.432660194069783, 33.294826993688986 ], [ -116.432669505916991, 33.294830697880052 ], [ -116.432678348539568, 33.294835121766155 ], [ -116.432686641175565, 33.294840224942753 ], [ -116.432694308086184, 33.294845960801332 ], [ -116.432701279247439, 33.294852276954749 ], [ -116.432707490989785, 33.294859115716008 ], [ -116.432712886579637, 33.294866414624998 ], [ -116.43271741673739, 33.294874107018806 ], [ -116.432721040087742, 33.294882122640871 ], [ -116.43272372353735, 33.294890388282354 ], [ -116.432784813610397, 33.29512220164014 ], [ -116.433293032629081, 33.295463496177653 ], [ -116.433300798307116, 33.295469246326348 ], [ -116.433307860111157, 33.295475589119697 ], [ -116.433314152478374, 33.295482465670297 ], [ -116.433319616989465, 33.295489812135493 ], [ -116.433324202910995, 33.295497560309727 ], [ -116.433327867666392, 33.295505638257893 ], [ -116.433330577231303, 33.295513970983343 ], [ -116.433413267385717, 33.295827735618111 ], [ -116.43372386811761, 33.295992849835301 ], [ -116.433891318037908, 33.295962545581972 ], [ -116.433901689497347, 33.295961102570367 ], [ -116.433912181097412, 33.295960501651201 ], [ -116.433922693508592, 33.295960748513757 ], [ -116.433933127204497, 33.295961840820794 ], [ -116.433943383403815, 33.295963768230884 ], [ -116.433953365005721, 33.295966512496292 ], [ -116.433962977509154, 33.295970047635528 ], [ -116.433972129907431, 33.29597434017959 ], [ -116.433980735549881, 33.295979349488647 ], [ -116.434610528481699, 33.296385253873702 ], [ -116.43617171222958, 33.296191760784183 ], [ -116.436182754147509, 33.296190869243709 ], [ -116.436193848184715, 33.296190920363429 ], [ -116.436204877455125, 33.296191913604865 ], [ -116.436215725755034, 33.296193838503235 ], [ -116.436226278787416, 33.296196674777853 ], [ -116.436236425366175, 33.296200392545956 ], [ -116.436246058587415, 33.296204952637417 ], [ -116.437403988218279, 33.296820452153305 ], [ -116.437412161599482, 33.296825253807512 ], [ -116.437419763313187, 33.296830661980742 ], [ -116.43742672804089, 33.296836630202797 ], [ -116.437432995937428, 33.2968431071913 ], [ -116.437438513145196, 33.296850037291996 ], [ -116.438137684708465, 33.297823597753286 ], [ -116.438143067925807, 33.297832099783435 ], [ -116.438147321914656, 33.297841030463438 ], [ -116.438150397789656, 33.297850287165971 ], [ -116.438427199276987, 33.298900299030841 ], [ -116.438532796293345, 33.298881184888629 ], [ -116.438543523423576, 33.298879707128933 ], [ -116.438554375458111, 33.298879129996592 ], [ -116.438565242554603, 33.29887945933325 ], [ -116.438576014718336, 33.298880691805429 ], [ -116.438586582915434, 33.298882814938224 ], [ -116.43859684017653, 33.298885807241653 ], [ -116.438606682679435, 33.298889638428214 ], [ -116.438616010800104, 33.298894269719277 ], [ -116.438624730120821, 33.298899654237751 ], [ -116.438632752386084, 33.29890573748245 ], [ -116.438639996395722, 33.298912457879915 ], [ -116.438749790630268, 33.299025259008374 ], [ -116.439106916245862, 33.298960614242361 ], [ -116.439117377635611, 33.29895916201199 ], [ -116.439127960432501, 33.298958566446423 ], [ -116.439138562718782, 33.298958833281318 ], [ -116.439149082388937, 33.298959959946913 ], [ -116.439159418133158, 33.298961935592772 ], [ -116.439169470412892, 33.298964741192549 ], [ -116.439179142419476, 33.298968349726728 ], [ -116.4391883410064, 33.298972726443267 ], [ -116.439398851292225, 33.299084613174507 ], [ -116.439957712950275, 33.298899527075591 ], [ -116.439967563934687, 33.298896712757923 ], [ -116.439977696183462, 33.298894697531338 ], [ -116.439988015530432, 33.298893500124763 ], [ -116.439998426070687, 33.298893131666574 ], [ -116.440008831051728, 33.298893595581099 ], [ -116.440019133772736, 33.298894887556862 ], [ -116.440029238483305, 33.298896995586617 ], [ -116.440039051273175, 33.298899900078901 ], [ -116.44004848094518, 33.298903574040331 ], [ -116.440057439862599, 33.298907983326025 ], [ -116.440065844763879, 33.298913086957455 ], [ -116.4400736175361, 33.298918837502917 ], [ -116.440080685941297, 33.29892518151847 ], [ -116.44008698428749, 33.298932060044706 ], [ -116.440092454039487, 33.298939409154407 ], [ -116.440097044362673, 33.298947160547122 ], [ -116.440100712595637, 33.298955242183531 ], [ -116.440103424646495, 33.298963578955167 ], [ -116.440188011248438, 33.299284414196151 ], [ -116.440569809426833, 33.299557558036796 ], [ -116.440577021653169, 33.299563217366092 ], [ -116.440583576455793, 33.299569401410736 ], [ -116.440589418479746, 33.299576057946908 ], [ -116.440594498389402, 33.299583130760666 ], [ -116.440598773285117, 33.299590560122645 ], [ -116.44060220706541, 33.299598283292362 ], [ -116.440604770732008, 33.299606235048188 ], [ -116.440737307284067, 33.30010892491935 ], [ -116.441606616868555, 33.300939473567752 ], [ -116.44161327102708, 33.300946512067881 ], [ -116.441619045111224, 33.300954065228602 ], [ -116.44162388157865, 33.300962057778321 ], [ -116.441627732230842, 33.30097041006654 ], [ -116.441630558693447, 33.300979038857754 ], [ -116.441780970025519, 33.301549483760375 ], [ -116.44235469781627, 33.301784799714341 ], [ -116.442363487804656, 33.301788836879339 ], [ -116.442371787276514, 33.30179353304873 ], [ -116.442379524484636, 33.301798847625051 ], [ -116.442386632542465, 33.301804734665026 ], [ -116.442393050002224, 33.301811143276417 ], [ -116.442398721386141, 33.301818018058107 ], [ -116.442403597666171, 33.301825299579157 ], [ -116.442579413123468, 33.302119270602518 ], [ -116.442765499084729, 33.302158401377241 ], [ -116.442775004657946, 33.302160790400698 ], [ -116.442784205416103, 33.302163892369272 ], [ -116.44279302365949, 33.302167681087134 ], [ -116.442801384918752, 33.302172124558865 ], [ -116.442809218583662, 33.302177185259694 ], [ -116.442816458499479, 33.302182820452401 ], [ -116.442823043525507, 33.302188982548223 ], [ -116.443388091160926, 33.30276942097187 ], [ -116.444167632950197, 33.302628285793517 ], [ -116.444177510355331, 33.30262689133486 ], [ -116.444187501158325, 33.302626260703931 ], [ -116.444197519512429, 33.302626399319479 ], [ -116.444207479334167, 33.302627305990455 ], [ -116.444217295043046, 33.302628972926229 ], [ -116.44515440097824, 33.302826011527422 ], [ -116.445163906704536, 33.302828400350563 ], [ -116.445173107634758, 33.302831502124526 ], [ -116.445181926067875, 33.302835290655089 ], [ -116.445190287532853, 33.302839733948396 ], [ -116.445198121417704, 33.302844794481125 ], [ -116.44520536156584, 33.302850429517576 ], [ -116.445211946834647, 33.302856591470281 ], [ -116.445321755982789, 33.302969385662273 ], [ -116.445890095290395, 33.302866479287395 ], [ -116.445899972694917, 33.302865084680874 ], [ -116.445909963514325, 33.302864453900114 ], [ -116.445919981901767, 33.302864592365147 ], [ -116.445929941773485, 33.302865498886227 ], [ -116.445939757548516, 33.302867165674009 ], [ -116.447086416124705, 33.303108245087117 ], [ -116.447695089852459, 33.30299802584566 ], [ -116.44770555162016, 33.302996572840378 ], [ -116.447716134894662, 33.302995976485839 ], [ -116.447726737753598, 33.302996242525239 ], [ -116.447737258085979, 33.30299736839649 ], [ -116.447747594575588, 33.30299934325685 ], [ -116.447757647676696, 33.303002148087415 ], [ -116.447767320572723, 33.3030057558762 ], [ -116.44777652010859, 33.303010131878317 ], [ -116.447996189184323, 33.303126856628687 ], [ -116.448797249689306, 33.302981792439887 ], [ -116.44880771143454, 33.302980339333999 ], [ -116.448818294698512, 33.302979742877753 ], [ -116.448828897558968, 33.302980008815254 ], [ -116.448839417904964, 33.302981134585437 ], [ -116.448849754420081, 33.302983109346556 ], [ -116.44885980755835, 33.302985914080537 ], [ -116.448869480502879, 33.302989521776489 ], [ -116.448878680098105, 33.302993897690286 ], [ -116.449098350762313, 33.303110620332426 ], [ -116.449477009828911, 33.303042045834346 ], [ -116.449487471569554, 33.303040592666626 ], [ -116.449498054836511, 33.303039996147653 ], [ -116.449508657707383, 33.303040262022336 ], [ -116.449519178071128, 33.303041387730033 ], [ -116.4495295146112, 33.303043362429669 ], [ -116.449539567781386, 33.303046167103908 ], [ -116.449549240764455, 33.303049774742149 ], [ -116.449558440404502, 33.303054150601064 ], [ -116.450060420751782, 33.303320873728239 ], [ -116.451084908600194, 33.303575948124902 ], [ -116.451873095737994, 33.303433193892133 ], [ -116.452310051354971, 33.303092080155892 ], [ -116.452317428419406, 33.303086819943793 ], [ -116.452325346611801, 33.303082130861618 ], [ -116.452333741738627, 33.303078050924078 ], [ -116.452342545739853, 33.303074613207642 ], [ -116.452351687240665, 33.303071845582153 ], [ -116.45236109213009, 33.303069770484974 ], [ -116.452889087738555, 33.302974135227537 ], [ -116.452899549407235, 33.3029726817484 ], [ -116.452910132639175, 33.302972084914572 ], [ -116.452920735512436, 33.302972350473802 ], [ -116.452931255915871, 33.302973475868676 ], [ -116.452941592532582, 33.302975450261002 ], [ -116.452951645815617, 33.302978254636429 ], [ -116.452961318946677, 33.302981861987277 ], [ -116.452970518768382, 33.302986237572917 ], [ -116.453613938789331, 33.303328086081663 ], [ -116.453622576781797, 33.303333187711942 ], [ -116.453630569680811, 33.303338966309319 ], [ -116.453637840510439, 33.303345366222764 ], [ -116.453644319248625, 33.303352325817841 ], [ -116.45364994350146, 33.303359778069911 ], [ -116.453654659104188, 33.303367651209818 ], [ -116.453658420642725, 33.303375869415092 ], [ -116.453661191891186, 33.303384353539904 ], [ -116.453689338120284, 33.303491032252722 ], [ -116.45405046208657, 33.303499936633919 ], [ -116.454060664449003, 33.303500589676894 ], [ -116.454070746569485, 33.303502039147737 ], [ -116.454080618096128, 33.303504272056848 ], [ -116.45409019056423, 33.303507268393787 ], [ -116.454099378189127, 33.303511001306539 ], [ -116.454108098634947, 33.303515437342277 ], [ -116.454116273752405, 33.30352053674693 ], [ -116.454123830279215, 33.303526253821694 ], [ -116.454130700496663, 33.303532537332359 ], [ -116.454136822836361, 33.303539330968569 ], [ -116.454142142432104, 33.303546573848372 ], [ -116.454146611611463, 33.303554201063854 ], [ -116.454150190323176, 33.303562144262891 ], [ -116.454152846495887, 33.303570332261458 ], [ -116.454360622039729, 33.304357805867497 ], [ -116.454362376407843, 33.304366474182345 ], [ -116.454363096890134, 33.304375243235434 ], [ -116.454362776547626, 33.304384028576024 ], [ -116.454361418465027, 33.304392745596495 ], [ -116.454359035721083, 33.304401310347139 ], [ -116.454355651262645, 33.304409640344709 ], [ -116.454351297683601, 33.304417655366592 ], [ -116.454346016911032, 33.304425278223718 ], [ -116.454122641396893, 33.30471392479825 ], [ -116.454152261337413, 33.304826184380381 ], [ -116.454409171579485, 33.30503158815695 ], [ -116.454416422330851, 33.30503798241314 ], [ -116.454422883201289, 33.305044933800318 ], [ -116.454428492189606, 33.305052375610195 ], [ -116.45443319546952, 33.305060236428339 ], [ -116.454436947906302, 33.305068440819312 ], [ -116.454439713489791, 33.305076910050545 ], [ -116.454637932866461, 33.305828139077889 ], [ -116.454986310005793, 33.306013217804107 ], [ -116.454994948381724, 33.306018319311214 ], [ -116.455002941654016, 33.30602409779047 ], [ -116.455010212843149, 33.306030497592026 ], [ -116.455016691923561, 33.306037457082503 ], [ -116.455022316498088, 33.306044909238288 ], [ -116.455027032398817, 33.306052782291175 ], [ -116.455030794208881, 33.306061000419433 ], [ -116.455033565699708, 33.30606948447813 ], [ -116.455125916718501, 33.306419470929157 ], [ -116.455127702138114, 33.306428359400144 ], [ -116.455128400587768, 33.306437351526768 ], [ -116.455128004997391, 33.306446356292014 ], [ -116.455126519370779, 33.306455282551077 ], [ -116.455123958744863, 33.306464039953632 ], [ -116.455120349037557, 33.306472539858504 ], [ -116.455115726785479, 33.306480696230807 ], [ -116.455110138774145, 33.306488426512928 ], [ -116.455103641564421, 33.306495652459937 ], [ -116.455096300919919, 33.306502300931797 ], [ -116.45508819114157, 33.30650830463351 ], [ -116.455016795538427, 33.306556031694313 ], [ -116.455147924344303, 33.306625694044783 ], [ -116.455156225205528, 33.306630575594369 ], [ -116.45516393507053, 33.306636082424362 ], [ -116.455170985572565, 33.306642165703366 ], [ -116.455177314191829, 33.306648771488391 ], [ -116.455182864809572, 33.306655841203188 ], [ -116.455187588205959, 33.306663312157632 ], [ -116.4551914424964, 33.306671118103623 ], [ -116.455194393502993, 33.306679189822525 ], [ -116.455196415057642, 33.306687455738967 ], [ -116.455452798423963, 33.308066581890934 ], [ -116.455926509950956, 33.308318232520833 ], [ -116.455934458802687, 33.308322886438077 ], [ -116.455941870182144, 33.308328113868903 ], [ -116.455948684004483, 33.308333872434041 ], [ -116.455954845029353, 33.30834011544826 ], [ -116.455960303308572, 33.308346792298927 ], [ -116.455965014591214, 33.308353848856136 ], [ -116.456342381215762, 33.308984534428156 ], [ -116.457029457609295, 33.309207124696812 ], [ -116.457038562388149, 33.309210483006765 ], [ -116.45704725516751, 33.309214521761547 ], [ -116.457055462060922, 33.309219206632612 ], [ -116.45706311331179, 33.30922449779986 ], [ -116.457070143886227, 33.309230350289667 ], [ -116.457076494026012, 33.309236714357247 ], [ -116.457082109756357, 33.309243535909673 ], [ -116.45708694334472, 33.309250756965362 ], [ -116.457271614613191, 33.309559382916852 ], [ -116.458109603643976, 33.310004518704346 ], [ -116.459016322223917, 33.309840252627595 ], [ -116.459026795922057, 33.30983879750994 ], [ -116.459037391411513, 33.309838200858003 ], [ -116.459048006434855, 33.309838468430115 ], [ -116.459058538546174, 33.309839597643943 ], [ -116.459068886099743, 33.309841577601411 ], [ -116.459078949230999, 33.309844389193792 ], [ -116.459088630820261, 33.30984800528644 ], [ -116.459097837430178, 33.309852390980161 ], [ -116.459106480207311, 33.309857503948642 ], [ -116.459114475739796, 33.309863294846252 ], [ -116.459633830614408, 33.310278452492739 ], [ -116.460484030165205, 33.310124414700788 ], [ -116.460624886361003, 33.309942387289752 ], [ -116.460631408391777, 33.309934848740269 ], [ -116.460638836477244, 33.309927909449819 ], [ -116.460647090953842, 33.309921643839587 ], [ -116.460656083295419, 33.3099161191058 ], [ -116.460665717062525, 33.309911394499103 ], [ -116.460675888936763, 33.309907520688981 ], [ -116.460686489828745, 33.309904539220447 ], [ -116.460697406048197, 33.309902482068701 ], [ -116.463149437070442, 33.309549862048627 ], [ -116.463159380375032, 33.309548822675495 ], [ -116.463169397128652, 33.30954855070123 ], [ -116.463179401235791, 33.309549048463388 ], [ -116.463189306709708, 33.309550311683736 ], [ -116.463199028411395, 33.309552329504641 ], [ -116.463208482781326, 33.309555084582634 ], [ -116.463217588557782, 33.309558553237387 ], [ -116.463226267475221, 33.30956270565531 ], [ -116.463869785762, 33.309904493374319 ], [ -116.463878425140422, 33.309909594183587 ], [ -116.463886419459698, 33.309915372011211 ], [ -116.463893691730249, 33.309921771213524 ], [ -116.463900171916038, 33.309928730163008 ], [ -116.463905797609328, 33.309936181841152 ], [ -116.463910514631408, 33.309944054484426 ], [ -116.463914277554608, 33.309952272275076 ], [ -116.463917050139614, 33.309960756071241 ], [ -116.463948971758555, 33.310081670292057 ], [ -116.464118520442838, 33.310117285931653 ], [ -116.464128632333939, 33.310119852191718 ], [ -116.464138393172931, 33.310123224778401 ], [ -116.464147709542004, 33.310127371413842 ], [ -116.464156492277141, 33.310132252411776 ], [ -116.464164657321504, 33.310137821057815 ], [ -116.464172126529931, 33.310144024056235 ], [ -116.464178828416848, 33.310150802040063 ], [ -116.464184698840398, 33.310158090139353 ], [ -116.464189681616361, 33.310165818602009 ], [ -116.464193729055879, 33.310173913461213 ], [ -116.464196802421839, 33.310182297243664 ], [ -116.464198872299733, 33.310190889710725 ], [ -116.464199918879004, 33.310199608626405 ], [ -116.464265143831781, 33.311275399884323 ], [ -116.464573844327631, 33.312031933456197 ], [ -116.464576650734145, 33.312040055132755 ], [ -116.464578521010267, 33.312048359743521 ], [ -116.464579438515671, 33.312056773401629 ], [ -116.464579395086972, 33.312065221250236 ], [ -116.464578391110237, 33.312073628128253 ], [ -116.464576435517586, 33.312081919238906 ], [ -116.464573545707836, 33.312090020815575 ], [ -116.464569747391579, 33.312097860777826 ], [ -116.464565074362483, 33.312105369372937 ], [ -116.464559568196677, 33.312112479796177 ], [ -116.464553277882771, 33.312119128785518 ], [ -116.464218201917149, 33.312440823248927 ], [ -116.463954959003416, 33.313457583143283 ], [ -116.464336767569847, 33.314903715104279 ], [ -116.46520648944373, 33.315734067070217 ], [ -116.465213126083555, 33.315741079563786 ], [ -116.465218888729396, 33.315748603687886 ], [ -116.465223720336965, 33.315756564961703 ], [ -116.465227573078053, 33.315764884576858 ], [ -116.465230408814321, 33.31577348017796 ], [ -116.465232199474599, 33.315782266677559 ], [ -116.465232927332835, 33.315791157098403 ], [ -116.465242823395101, 33.316247762054793 ], [ -116.4652424674683, 33.316256806652959 ], [ -116.465241011625068, 33.316265775327224 ], [ -116.465238470728053, 33.316274576514274 ], [ -116.465234870717495, 33.316283120360964 ], [ -116.465230248346359, 33.31629131964123 ], [ -116.465224650805183, 33.316299090646794 ], [ -116.465218135240249, 33.316306354041551 ], [ -116.46521076817028, 33.316313035671946 ], [ -116.465202624807262, 33.316319067323619 ], [ -116.465070448168376, 33.316407432636453 ], [ -116.465491294605968, 33.31761116031403 ], [ -116.466486848593419, 33.318139831693472 ], [ -116.46649548904513, 33.318144932244962 ], [ -116.466503484392746, 33.31815070982136 ], [ -116.466510757636726, 33.318157108781605 ], [ -116.466517238731726, 33.318164067500341 ], [ -116.466522865261197, 33.318171518961442 ], [ -116.466527583038427, 33.318179391403341 ], [ -116.466531346628429, 33.318187609010302 ], [ -116.466534119785507, 33.318196092642218 ], [ -116.466535875802336, 33.318204760597304 ], [ -116.466536597767217, 33.318213529398335 ], [ -116.466536278726835, 33.318222314597001 ], [ -116.466534921753436, 33.318231031587075 ], [ -116.466532539915065, 33.318239596419112 ], [ -116.46652915614979, 33.318247926609047 ], [ -116.466524803044877, 33.318255941932556 ], [ -116.46651952252283, 33.318263565197512 ], [ -116.466296152379343, 33.318552229700337 ], [ -116.466402102148862, 33.318953452817716 ], [ -116.46640391830887, 33.318962552996467 ], [ -116.466404594991616, 33.318971759653621 ], [ -116.466404125019579, 33.318980975140072 ], [ -116.466402513377048, 33.318990101712949 ], [ -116.466399777157307, 33.318999042572329 ], [ -116.466395945381379, 33.319007702888065 ], [ -116.466391058690206, 33.319015990805688 ], [ -116.466385168913547, 33.319023818420163 ], [ -116.466378338520443, 33.319031102708927 ], [ -116.466052878490501, 33.319343546886962 ], [ -116.466094280270738, 33.3203091448908 ], [ -116.4660941681651, 33.32031749333261 ], [ -116.46609311808794, 33.320325796852529 ], [ -116.466091139164249, 33.320333983292556 ], [ -116.466088248590694, 33.320341981512094 ], [ -116.466084471486184, 33.32034972200627 ], [ -116.466079840673785, 33.320357137509703 ], [ -116.466074396395257, 33.32036416358121 ], [ -116.466068185961547, 33.320370739163842 ], [ -116.466061263341487, 33.320376807115331 ], [ -116.464916532200462, 33.321290816321905 ], [ -116.465019138306786, 33.32167938929534 ], [ -116.465020894234513, 33.321688057229935 ], [ -116.465021616062572, 33.321696825996405 ], [ -116.465021296839026, 33.321705611146683 ], [ -116.465019939637841, 33.321714328074989 ], [ -116.465017557529222, 33.321722892832497 ], [ -116.465014173453923, 33.321731222935846 ], [ -116.465009820002123, 33.321739238161484 ], [ -116.465004539099709, 33.321746861318388 ], [ -116.464674465716328, 33.322173383050412 ], [ -116.464668308157755, 33.32218054070114 ], [ -116.464661333304136, 33.322187163933371 ], [ -116.464653608327069, 33.32219318896157 ], [ -116.46464520762234, 33.322198557761439 ], [ -116.464636212093396, 33.322203218628275 ], [ -116.464626708372279, 33.322207126675231 ], [ -116.464616787985193, 33.322210244265655 ], [ -116.464606546471174, 33.322212541375364 ], [ -116.464025624957202, 33.322317796430617 ], [ -116.463823612664044, 33.32268444009636 ], [ -116.463818473892559, 33.322692622778391 ], [ -116.463812346385239, 33.322700324260786 ], [ -116.463805295132588, 33.322707462858496 ], [ -116.463797394922665, 33.32271396285693 ], [ -116.463788729548043, 33.322719755314473 ], [ -116.463779390917026, 33.322724778794019 ], [ -116.463769478078689, 33.322728980014624 ], [ -116.463759096172524, 33.322732314416328 ], [ -116.463748355313186, 33.322734746633266 ], [ -116.463475236978709, 33.322784229847521 ], [ -116.46302844707256, 33.323361542673794 ], [ -116.463065081356135, 33.323500287625201 ], [ -116.463066837109309, 33.323508955566965 ], [ -116.463067558736412, 33.323517724322627 ], [ -116.463067239287398, 33.323526509444413 ], [ -116.463065881838418, 33.323535226326641 ], [ -116.463063499462123, 33.323543791021081 ], [ -116.463060115101754, 33.323552121044884 ], [ -116.463055761350319, 33.323560136175303 ], [ -116.463050480136545, 33.32356775922225 ], [ -116.463044322321238, 33.323574916771378 ], [ -116.463037347207447, 33.32358153989157 ], [ -116.463029621969255, 33.323587564798338 ], [ -116.463021221004965, 33.32359293346844 ], [ -116.463012225220538, 33.323597594198525 ], [ -116.463002721250433, 33.323601502103131 ], [ -116.462992800623326, 33.323604619546849 ], [ -116.462982558880498, 33.323606916506932 ], [ -116.462815061363685, 33.323637262021826 ], [ -116.462203213214153, 33.324427828031766 ], [ -116.462286048815415, 33.32474155871023 ], [ -116.462287804510481, 33.324750226648376 ], [ -116.462288526062181, 33.324758995393253 ], [ -116.462288206521222, 33.324767780497069 ], [ -116.462286848964553, 33.324776497354527 ], [ -116.462284466465931, 33.324785062017433 ], [ -116.462281081969778, 33.324793392003365 ], [ -116.462276728070336, 33.324801407089907 ], [ -116.462271446697841, 33.324809030087252 ], [ -116.461858819848914, 33.32534216987716 ], [ -116.461852477272259, 33.32534952040259 ], [ -116.461845272886279, 33.325356304200611 ], [ -116.461837280010172, 33.325362452231943 ], [ -116.461828579987767, 33.325367901927848 ], [ -116.46181926135958, 33.325372597826401 ], [ -116.461809418961749, 33.325376492137174 ], [ -116.460736083811497, 33.325747319864917 ], [ -116.460610841678019, 33.326012655822097 ], [ -116.460606680449175, 33.326020375809406 ], [ -116.460601658922982, 33.326027736385036 ], [ -116.460595821847562, 33.32603467195672 ], [ -116.46058922123872, 33.32604112071936 ], [ -116.46058191591635, 33.326047025206009 ], [ -116.460573970980349, 33.326052332800003 ], [ -116.46056545723043, 33.326056996203754 ], [ -116.460314760466275, 33.326180639032152 ], [ -116.460134911189968, 33.327074117112453 ], [ -116.460222860939766, 33.327407239240074 ], [ -116.460224593765744, 33.327415748582233 ], [ -116.460225329820318, 33.327424356559312 ], [ -116.460225062269544, 33.32743298325363 ], [ -116.460223793597009, 33.327441548573695 ], [ -116.460221535581027, 33.327449972997911 ], [ -116.460218309184953, 33.327458178312575 ], [ -116.460214144362865, 33.327466088338376 ], [ -116.459926213247329, 33.327948122208205 ], [ -116.460296383748783, 33.328944817160675 ], [ -116.460298952635142, 33.328953132810753 ], [ -116.460300548615962, 33.328961613960509 ], [ -116.460301157030983, 33.32897018270652 ], [ -116.460300772291347, 33.328978760340647 ], [ -116.46029939793074, 33.328987268073114 ], [ -116.460297046573046, 33.328995627756157 ], [ -116.460293739816322, 33.32900376260195 ], [ -116.460163697179695, 33.329279252314642 ], [ -116.460641817415024, 33.33109010453142 ], [ -116.460643633189079, 33.331099204641966 ], [ -116.460644309302438, 33.331108411171904 ], [ -116.460643838583522, 33.331117626473329 ], [ -116.460642226024618, 33.331126752805432 ], [ -116.460639488728674, 33.33113569337084 ], [ -116.460635655728169, 33.33114435334253 ], [ -116.460630767676975, 33.331152640869576 ], [ -116.460624876419374, 33.331160468051266 ], [ -116.460618044440011, 33.331167751869458 ], [ -116.460264806827723, 33.331506762816041 ], [ -116.460257975745819, 33.331512739924804 ], [ -116.460250511030893, 33.331518172410071 ], [ -116.460242475722069, 33.331523014394627 ], [ -116.460233937677145, 33.331527224988236 ], [ -116.460224968999569, 33.33153076863254 ], [ -116.460215645429471, 33.331533615401504 ], [ -116.460206045704041, 33.331535741254363 ], [ -116.459721623170893, 33.331623481192388 ], [ -116.459580726087637, 33.331805501795635 ], [ -116.459574349445404, 33.33181288688133 ], [ -116.459567102804129, 33.331819699295622 ], [ -116.459559060638512, 33.33182586902619 ], [ -116.459550305599052, 33.331831332665757 ], [ -116.45954092766263, 33.331836034063592 ], [ -116.458897900676746, 33.332122564094334 ], [ -116.458867623775603, 33.332357202046083 ], [ -116.458866025497514, 33.332365701223175 ], [ -116.458863450152577, 33.332374034209089 ], [ -116.458859921496355, 33.332382124137354 ], [ -116.458855472078213, 33.332389896383582 ], [ -116.458850142940918, 33.332397279253691 ], [ -116.458843983242161, 33.332404204645393 ], [ -116.458837049801062, 33.332410608676334 ], [ -116.458829406574125, 33.332416432273369 ], [ -116.458821124065167, 33.332421621717486 ], [ -116.458812278675083, 33.332426129139229 ], [ -116.458802951996987, 33.332429912960485 ], [ -116.458793230063634, 33.332432938277918 ], [ -116.458783202553832, 33.332435177184756 ], [ -116.455107556295886, 33.333100807809167 ], [ -116.454455430582414, 33.333486501954638 ], [ -116.454446216454542, 33.3334913882032 ], [ -116.454436453327503, 33.33349547828859 ], [ -116.454426241150017, 33.33349873033913 ], [ -116.454415684467875, 33.333501111062354 ], [ -116.453076219622176, 33.333743635544018 ], [ -116.452475448361497, 33.334293702958938 ], [ -116.452467534665686, 33.334300235973288 ], [ -116.452458849239051, 33.334306057772594 ], [ -116.452449484814721, 33.334311106198122 ], [ -116.452439541375583, 33.334315327348513 ], [ -116.452429125086496, 33.33431867615495 ], [ -116.452418347161085, 33.33432111686264 ], [ -116.452101423438748, 33.334378494411752 ], [ -116.452090901410145, 33.334379953209414 ], [ -116.452080257026694, 33.334380546201089 ], [ -116.452069593894208, 33.334380267614804 ], [ -116.452059015801083, 33.334379120162239 ], [ -116.450688805067585, 33.334173097872906 ], [ -116.449282414312577, 33.334246037542563 ], [ -116.449270651204174, 33.334246116573155 ], [ -116.449258947333661, 33.334245136881421 ], [ -116.449247441206168, 33.334243110061074 ], [ -116.449236268986695, 33.334240060097812 ], [ -116.448907620861689, 33.334133601502302 ], [ -116.447511995040486, 33.334474099777871 ], [ -116.447071851101228, 33.334817515240722 ], [ -116.447064470712306, 33.334822774874368 ], [ -116.447056549013354, 33.334827463378375 ], [ -116.447048150226593, 33.334831542742563 ], [ -116.447039342441983, 33.334834979894886 ], [ -116.447030197065359, 33.334837746970045 ], [ -116.447020788239442, 33.334839821534899 ], [ -116.446809501793965, 33.334878063364776 ], [ -116.446799035772131, 33.334879516221399 ], [ -116.446788448203591, 33.334880112463857 ], [ -116.446777841052793, 33.334879846349992 ], [ -116.446767316472702, 33.334878720442553 ], [ -116.446756975821103, 33.334876745584786 ], [ -116.446746918684482, 33.334873940795653 ], [ -116.446737241918854, 33.334870333086933 ], [ -116.446728038716913, 33.334865957202844 ], [ -116.445999410773766, 33.334478948266018 ], [ -116.445120946312642, 33.334724743202969 ], [ -116.445110262684636, 33.334727234498509 ], [ -116.44509932699448, 33.334728805686069 ], [ -116.445088254447811, 33.334729440213387 ], [ -116.443999393990751, 33.334745435390971 ], [ -116.442186227047301, 33.335162029652281 ], [ -116.44206388073755, 33.335421046976833 ], [ -116.442059529181734, 33.335429073290477 ], [ -116.442054247706068, 33.335436707246764 ], [ -116.442048087282217, 33.335443875169844 ], [ -116.442041107364702, 33.335450507881539 ], [ -116.442033375317109, 33.335456541368941 ], [ -116.442024965761945, 33.335461917402426 ], [ -116.442015959860427, 33.335466584097361 ], [ -116.442006444529241, 33.335470496415077 ], [ -116.441996511601644, 33.335473616597525 ], [ -116.441986256941235, 33.335475914531465 ], [ -116.440929801893958, 33.335667073242128 ], [ -116.440919920284983, 33.335668467354552 ], [ -116.440909925261622, 33.335669097670802 ], [ -116.4408999027075, 33.335668958774647 ], [ -116.440889938742743, 33.335668051859741 ], [ -116.440880118984012, 33.33566638471877 ], [ -116.440427135936162, 33.335571166559681 ], [ -116.438472510242846, 33.335652058699075 ], [ -116.438461336522721, 33.335652042323616 ], [ -116.438450224493252, 33.335651071098908 ], [ -116.438439292796446, 33.335649155394485 ], [ -116.438428658148794, 33.335646315664192 ], [ -116.438418434095325, 33.335642582227514 ], [ -116.438408729797075, 33.335637994945913 ], [ -116.437287923105202, 33.33504256946479 ], [ -116.436803453454601, 33.335130212199019 ], [ -116.436792987214574, 33.33513166414248 ], [ -116.436782399536369, 33.335132259461453 ], [ -116.436771792385471, 33.335131992422731 ], [ -116.436761267914861, 33.335130865597968 ], [ -116.436750927481285, 33.335128889839218 ], [ -116.436740870669084, 33.335126084174071 ], [ -116.436731194331117, 33.335122475622825 ], [ -116.436721991656057, 33.335118098937812 ], [ -116.436368317754287, 33.334930204137891 ], [ -116.435327126436647, 33.335030134350561 ], [ -116.435315671552374, 33.335030725892793 ], [ -116.435304205486318, 33.335030308613653 ], [ -116.435292857400896, 33.335028887213582 ], [ -116.434350953330849, 33.334868157311234 ], [ -116.434316880416162, 33.334979311261833 ], [ -116.434313676266953, 33.334987921976754 ], [ -116.434309443660922, 33.334996222469478 ], [ -116.434304225439575, 33.335004128723426 ], [ -116.434298074420809, 33.335011560712751 ], [ -116.434291052864154, 33.335018443211723 ], [ -116.434283231840652, 33.335024706556595 ], [ -116.434274690513604, 33.335030287350541 ], [ -116.434265515337088, 33.335035129105648 ], [ -116.434255799181017, 33.335039182814114 ], [ -116.434245640391126, 33.33504240744486 ], [ -116.434235141793394, 33.335044770358529 ], [ -116.433946763401792, 33.33509693153529 ], [ -116.432901400926198, 33.335892373897039 ], [ -116.432975487622201, 33.336567360904894 ], [ -116.432975904432041, 33.33657747856536 ], [ -116.432974939853594, 33.336587570544673 ], [ -116.432972606211152, 33.336597507893181 ], [ -116.432794090557294, 33.337179814955604 ], [ -116.432790639671254, 33.337188980353176 ], [ -116.432786023959864, 33.337197787158594 ], [ -116.432780296464728, 33.337206134167531 ], [ -116.432381908062169, 33.337720435541385 ], [ -116.432261476743818, 33.338912161049045 ], [ -116.432259987655996, 33.338921256461958 ], [ -116.432257382287716, 33.338930177886283 ], [ -116.432253688004295, 33.338938831615089 ], [ -116.432248943608585, 33.338947126753219 ], [ -116.431798778479731, 33.339640004115815 ], [ -116.432097056945324, 33.34037152702556 ], [ -116.432099724328495, 33.34037917434388 ], [ -116.432101561246967, 33.340386987595963 ], [ -116.432102553189551, 33.340394905060343 ], [ -116.432102692320044, 33.340402864192171 ], [ -116.432075961391902, 33.341141053417147 ], [ -116.432075153430787, 33.341149618475747 ], [ -116.432073358189882, 33.341158080014651 ], [ -116.432070592188822, 33.341166360169943 ], [ -116.432066880880356, 33.341174382746821 ], [ -116.432062258416011, 33.341182073920699 ], [ -116.432056767331972, 33.341189362916715 ], [ -116.432050458157519, 33.341196182660568 ], [ -116.432043388950234, 33.341202470396318 ], [ -116.432035624761511, 33.341208168263513 ], [ -116.432027237038255, 33.341213223829676 ], [ -116.432018302965105, 33.341217590573038 ], [ -116.432008904754412, 33.341221228310189 ], [ -116.431999128889586, 33.341224103566347 ], [ -116.431989065329262, 33.341226189882939 ], [ -116.431978806679595, 33.341227468061554 ], [ -116.431968447341887, 33.341227926340238 ], [ -116.431958082644087, 33.3412275605017 ], [ -116.431947807963383, 33.341226373912647 ], [ -116.431937717848626, 33.341224377492019 ], [ -116.43192790515036, 33.34122158961123 ], [ -116.431918460166145, 33.341218035924655 ], [ -116.43190946980981, 33.341213749133772 ], [ -116.431689718289519, 33.341096999994271 ], [ -116.430725521627636, 33.34127136106116 ], [ -116.430276648278095, 33.341962200931349 ], [ -116.430271310128362, 33.341969549946349 ], [ -116.4302651476264, 33.341976442428908 ], [ -116.430258217282201, 33.34198281517493 ], [ -116.430250582646835, 33.341988609746274 ], [ -116.43024231372992, 33.341993773006742 ], [ -116.430233486357309, 33.341998257609163 ], [ -116.430224181476092, 33.342002022429625 ], [ -116.430214484412076, 33.342005032944783 ], [ -116.430204484087469, 33.342007261548147 ], [ -116.429415773488955, 33.342149876623012 ], [ -116.429294760990018, 33.342405943420843 ], [ -116.429290407745739, 33.342413969169421 ], [ -116.429285124562739, 33.342421602461179 ], [ -116.429278962429166, 33.34242876962665 ], [ -116.429271980816068, 33.342435401494811 ], [ -116.429264247103347, 33.342441434061108 ], [ -116.429255835929581, 33.342446809104658 ], [ -116.429246828471648, 33.342451474750469 ], [ -116.429237311661254, 33.34245538596997 ], [ -116.429227377345924, 33.342458505015635 ], [ -116.429217121402601, 33.342460801785286 ], [ -116.428583174127454, 33.34257542649344 ], [ -116.428572440854452, 33.342576903228334 ], [ -116.428561582721343, 33.34257747937977 ], [ -116.428550709632944, 33.342577149116103 ], [ -116.428539931645332, 33.342575915780138 ], [ -116.428529357852113, 33.342573791855557 ], [ -116.42851909527991, 33.342570798840562 ], [ -116.42850924780528, 33.342566967029995 ], [ -116.42849991510306, 33.342562335209045 ], [ -116.428491191637676, 33.342556950260366 ], [ -116.428483165706837, 33.342550866689777 ], [ -116.428475918547846, 33.342544146074339 ], [ -116.428366078326718, 33.342431342199987 ], [ -116.428114404672826, 33.34247684611671 ], [ -116.428103926060132, 33.34247829834333 ], [ -116.428093325942385, 33.342478892109867 ], [ -116.428082706622362, 33.342478621685892 ], [ -116.428072170588123, 33.342477489681258 ], [ -116.428061819523933, 33.342475507021035 ], [ -116.428051753328887, 33.342472692840083 ], [ -116.428042069152767, 33.34246907429835 ], [ -116.428032860458345, 33.34246468631865 ], [ -116.42802421611951, 33.342459571249748 ], [ -116.42801621956346, 33.342453778457696 ], [ -116.427784732041602, 33.342268695735541 ], [ -116.427163904697196, 33.342460364063292 ], [ -116.425921280429208, 33.343948708067828 ], [ -116.425915124055521, 33.343955388391791 ], [ -116.425908238672989, 33.343961561470103 ], [ -116.425900684903198, 33.343967172952489 ], [ -116.425892529252422, 33.343972173433194 ], [ -116.42588384352625, 33.343976518885974 ], [ -116.425874704197284, 33.343980171051669 ], [ -116.425865191731873, 33.343983097775144 ], [ -116.425855389881633, 33.343985273288297 ], [ -116.425644068602949, 33.344023475641535 ], [ -116.425633788427817, 33.344024908204204 ], [ -116.425623389452866, 33.344025514475923 ], [ -116.425612968299816, 33.344025288823659 ], [ -116.425602621796372, 33.344024233344001 ], [ -116.42559244607672, 33.344022357843883 ], [ -116.425582535688079, 33.344019679749451 ], [ -116.425572982712453, 33.344016223944145 ], [ -116.425563875910839, 33.344012022537335 ], [ -116.425555299898662, 33.344007114566288 ], [ -116.425547334359436, 33.344001545633148 ], [ -116.425540053304445, 33.343995367481398 ], [ -116.425533524385131, 33.343988637515025 ], [ -116.42552780826442, 33.343981418265138 ], [ -116.425522958053108, 33.343973776809086 ], [ -116.425519018816388, 33.343965784146853 ], [ -116.42524253744763, 33.343317057898247 ], [ -116.424307449533288, 33.342890087129575 ], [ -116.423818851500201, 33.342978408984855 ], [ -116.42380838397699, 33.342979859727571 ], [ -116.423797795144807, 33.342980453841733 ], [ -116.423787186980277, 33.342980185605725 ], [ -116.423776661646116, 33.342979057602768 ], [ -116.423766320507411, 33.342977080696208 ], [ -116.423756263155312, 33.342974273924817 ], [ -116.423746586447834, 33.342970664319438 ], [ -116.423737383577262, 33.342966286642501 ], [ -116.423570958132998, 33.342877854006147 ], [ -116.423584468410169, 33.342929109335465 ], [ -116.42358622024831, 33.342937777637992 ], [ -116.423586937654605, 33.342946546395794 ], [ -116.42358661371965, 33.342955331160923 ], [ -116.423585251562784, 33.342964047331307 ], [ -116.42358286430202, 33.342972610965404 ], [ -116.423579474927621, 33.342980939590689 ], [ -116.423575116080855, 33.342988952997921 ], [ -116.423569829739591, 33.342996574013419 ], [ -116.423156845387538, 33.343529560602462 ], [ -116.423151222984714, 33.343536144443007 ], [ -116.423144908241355, 33.343542282800861 ], [ -116.423137952351709, 33.343547925911516 ], [ -116.423130411707859, 33.34355302802561 ], [ -116.423122347442771, 33.343557547779646 ], [ -116.423113824934291, 33.343561448531439 ], [ -116.422751711630553, 33.343709973705664 ], [ -116.422634639259627, 33.34395764643731 ], [ -116.42274276845238, 33.344731258965354 ], [ -116.422837337544919, 33.344714165631281 ], [ -116.422848071217018, 33.344712689437358 ], [ -116.422858929686555, 33.344712113828287 ], [ -116.422869803046041, 33.344712444630275 ], [ -116.422880581237365, 33.344713678494976 ], [ -116.422891155165644, 33.344715802933422 ], [ -116.422901417803502, 33.344718796442471 ], [ -116.422911265274337, 33.344722628722423 ], [ -116.422920597903797, 33.344727260983454 ], [ -116.42292932122858, 33.34473264633877 ], [ -116.42293734695258, 33.344738730278742 ], [ -116.422944593840668, 33.344745451222686 ], [ -116.423096383099917, 33.344901348962672 ], [ -116.42310250692374, 33.344908296607997 ], [ -116.423107797633676, 33.344915698691921 ], [ -116.423112206426211, 33.34492348693508 ], [ -116.423115692632862, 33.344931589496106 ], [ -116.423118224095361, 33.344939931634137 ], [ -116.423119777462375, 33.344948436398461 ], [ -116.423120338404743, 33.344957025338196 ], [ -116.42311990174781, 33.344965619225889 ], [ -116.42311847151916, 33.344974138788473 ], [ -116.423116060911397, 33.344982505438566 ], [ -116.423112692160501, 33.344990641999125 ], [ -116.423108396340808, 33.344998473415494 ], [ -116.423103213078221, 33.345005927447993 ], [ -116.421946804420486, 33.346498276108633 ], [ -116.421940641073078, 33.346505431214624 ], [ -116.421933660468227, 33.346512051616486 ], [ -116.421925929832938, 33.346518073556048 ], [ -116.421917523617452, 33.346523439038585 ], [ -116.421908522778352, 33.346528096391488 ], [ -116.421899013998754, 33.346532000761741 ], [ -116.421889088853604, 33.346535114548004 ], [ -116.421878842927754, 33.346537407762803 ], [ -116.418752638955581, 33.347102380785188 ], [ -116.418529011771554, 33.347390940252495 ], [ -116.41852338870568, 33.347397523829784 ], [ -116.418517073291483, 33.347403661898888 ], [ -116.41851011672864, 33.347409304697713 ], [ -116.418502575414777, 33.34741440647938 ], [ -116.418494510488173, 33.347418925883119 ], [ -116.418485987332133, 33.347422826269565 ], [ -116.417713611697351, 33.347739567343197 ], [ -116.417481962766033, 33.348038467815279 ], [ -116.417475798892028, 33.348045622665595 ], [ -116.41746881777496, 33.348052242781264 ], [ -116.417461086646696, 33.348058264406717 ], [ -116.417452679962267, 33.348063629550339 ], [ -116.417443678682758, 33.348068286542727 ], [ -116.417434169495536, 33.348072190534417 ], [ -116.417424243979482, 33.348075303927679 ], [ -116.417413997723017, 33.348077596738797 ] ] ] } }
]
}
