{
  "type": "FeatureCollection",
  "name": "deanza_villas_complex_boundary",
  "crs": {
    "type": "name",
    "properties": {
      "name": "urn:ogc:def:crs:OGC:1.3:CRS84"
    }
  },
  "features": [
    {
      "type": "Feature",
      "properties": {
        "name": "De Anza Villas complex boundary",
        "source": "SanGIS Parcels_East, subname LIKE 'DE ANZA VILLAS%', excluding Vista Villas (APN 14026410xx). Two blocks merged across Monroe St ROW with morphological close.",
        "parcel_count": 36,
        "excluded_count": 0
      },
      "geometry": {
        "type": "Polygon",
        "coordinates": [
          [
            [
              -116.40174416835137,
              33.285142702783766
            ],
            [
              -116.40174437590726,
              33.28514583069323
            ],
            [
              -116.40176558944512,
              33.28791542491333
            ],
            [
              -116.40176543172055,
              33.28791853097139
            ],
            [
              -116.40176169153706,
              33.28791876862284
            ],
            [
              -116.40072313990262,
              33.28794296649586
            ],
            [
              -116.40071928608576,
              33.287942897609184
            ],
            [
              -116.40071922172515,
              33.287942564086094
            ],
            [
              -116.40071588106453,
              33.287929472300625
            ],
            [
              -116.40071098553527,
              33.28791672086818
            ],
            [
              -116.400704583704,
              33.287904436289026
            ],
            [
              -116.4006967390806,
              33.28789274043189
            ],
            [
              -116.40068752948791,
              33.28788174932505
            ],
            [
              -116.40067704628986,
              33.28787157200542
            ],
            [
              -116.40066539348499,
              33.28786230943655
            ],
            [
              -116.40065268667468,
              33.287854053507296
            ],
            [
              -116.4006390519165,
              33.28784688612017
            ],
            [
              -116.40062462447342,
              33.28784087837895
            ],
            [
              -116.40060954747226,
              33.287836089882994
            ],
            [
              -116.40059397048348,
              33.28783256813636
            ],
            [
              -116.4005780480377,
              33.2878303480763
            ],
            [
              -116.40056193809248,
              33.28782945172675
            ],
            [
              -116.40054580046547,
              33.28782988798
            ],
            [
              -116.40052979524891,
              33.287831652508075
            ],
            [
              -116.40051408122153,
              33.287834727806235
            ],
            [
              -116.40049881427336,
              33.287839083366045
            ],
            [
              -116.40048414585924,
              33.28784467597852
            ],
            [
              -116.4004702214964,
              33.28785145016242
            ],
            [
              -116.40045717932088,
              33.28785933871484
            ],
            [
              -116.40044514871713,
              33.28786826337773
            ],
            [
              -116.40043424903443,
              33.28787813561455
            ],
            [
              -116.40043073267697,
              33.28788165775183
            ],
            [
              -116.40042701712044,
              33.28788111329824
            ],
            [
              -116.4000712530637,
              33.287814270210866
            ],
            [
              -116.40006768219956,
              33.28781344819934
            ],
            [
              -116.40006854842248,
              33.287810461842966
            ],
            [
              -116.40007213750516,
              33.28780026787474
            ],
            [
              -116.40007234029616,
              33.28779968703535
            ],
            [
              -116.40007670640257,
              33.28778707528681
            ],
            [
              -116.40007690759968,
              33.2877864891052
            ],
            [
              -116.40008120709847,
              33.2877738538156
            ],
            [
              -116.40008139929552,
              33.28777328419327
            ],
            [
              -116.40008563332593,
              33.287760628269965
            ],
            [
              -116.40008582358223,
              33.2877600546458
            ],
            [
              -116.40008998840918,
              33.28774738799366
            ],
            [
              -116.40009017933254,
              33.28774680211763
            ],
            [
              -116.40009427491415,
              33.287734120507125
            ],
            [
              -116.40009445984711,
              33.287733542735
            ],
            [
              -116.40009848980442,
              33.287720838266814
            ],
            [
              -116.40009866807843,
              33.28772027123067
            ],
            [
              -116.40010262847352,
              33.28770756086046
            ],
            [
              -116.40010281478617,
              33.28770695713408
            ],
            [
              -116.40010670493396,
              33.28769422862229
            ],
            [
              -116.40010687379734,
              33.28769367109515
            ],
            [
              -116.40011070094286,
              33.287680919752134
            ],
            [
              -116.40011087538385,
              33.28768033291513
            ],
            [
              -116.40011462946946,
              33.28766758035526
            ],
            [
              -116.40011480068478,
              33.28766699300692
            ],
            [
              -116.40011848304098,
              33.287654235187475
            ],
            [
              -116.40011865690565,
              33.28765362656129
            ],
            [
              -116.40012227557543,
              33.28764082630534
            ],
            [
              -116.40012242433275,
              33.287640295259784
            ],
            [
              -116.40012598257573,
              33.28762747473181
            ],
            [
              -116.40012614553926,
              33.28762688141868
            ],
            [
              -116.40012962456521,
              33.2876140812027
            ],
            [
              -116.4001297859798,
              33.28761348091142
            ],
            [
              -116.40013319531911,
              33.287600663666794
            ],
            [
              -116.40013334956622,
              33.287600077561024
            ],
            [
              -116.40013669123775,
              33.28758724236227
            ],
            [
              -116.40013684395885,
              33.28758664927847
            ],
            [
              -116.40014011802303,
              33.28757379253775
            ],
            [
              -116.40014026158856,
              33.28757322267024
            ],
            [
              -116.4001434698683,
              33.28756034839923
            ],
            [
              -116.40014361224193,
              33.28755977068094
            ],
            [
              -116.40014675130188,
              33.287546889004965
            ],
            [
              -116.40014689364584,
              33.287546298044454
            ],
            [
              -116.40014995684331,
              33.28753343049819
            ],
            [
              -116.40015010266735,
              33.28753281025874
            ],
            [
              -116.40015309692612,
              33.28751991315541
            ],
            [
              -116.40015322514262,
              33.287519354521905
            ],
            [
              -116.40015615752243,
              33.28750642932614
            ],
            [
              -116.40015628915883,
              33.2875058419167
            ],
            [
              -116.40015915099066,
              33.28749291129633
            ],
            [
              -116.40015927661125,
              33.287492336669516
            ],
            [
              -116.40016206798107,
              33.28747940797159
            ],
            [
              -116.40016219851337,
              33.28747879520822
            ],
            [
              -116.40016491544979,
              33.28746586617008
            ],
            [
              -116.40016503778865,
              33.28746527622588
            ],
            [
              -116.40016768944673,
              33.28745231647627
            ],
            [
              -116.40016780654982,
              33.28745173644589
            ],
            [
              -116.40017038924854,
              33.287438769622185
            ],
            [
              -116.40017050549883,
              33.287438177753266
            ],
            [
              -116.40017301601257,
              33.287425213503106
            ],
            [
              -116.40017313143343,
              33.2874246086647
            ],
            [
              -116.40017557232296,
              33.28741162601225
            ],
            [
              -116.40017567982414,
              33.28741104590617
            ],
            [
              -116.40017805405986,
              33.287398044663306
            ],
            [
              -116.40017815875721,
              33.28739746273431
            ],
            [
              -116.40018046279043,
              33.28738446133751
            ],
            [
              -116.40018056674047,
              33.28738386547559
            ],
            [
              -116.4001827995761,
              33.28737086073418
            ],
            [
              -116.40018290067822,
              33.28737026223465
            ],
            [
              -116.40018506298406,
              33.28735724882549
            ],
            [
              -116.40018515985652,
              33.28735665605616
            ],
            [
              -116.40018725224218,
              33.28734363470326
            ],
            [
              -116.40018734707043,
              33.287343034227526
            ],
            [
              -116.40018936870422,
              33.28733000459054
            ],
            [
              -116.40018945898154,
              33.28732941234531
            ],
            [
              -116.40019141208147,
              33.28731636642061
            ],
            [
              -116.4001914979387,
              33.28731578246866
            ],
            [
              -116.4001933829754,
              33.28730272346621
            ],
            [
              -116.40019346545381,
              33.287302141314335
            ],
            [
              -116.40019527990196,
              33.287289088734205
            ],
            [
              -116.40019536289617,
              33.287288479475066
            ],
            [
              -116.40019710526913,
              33.287275421516654
            ],
            [
              -116.40019718184234,
              33.28727483590165
            ],
            [
              -116.40019885555506,
              33.28726176831994
            ],
            [
              -116.40019893172826,
              33.287261160424876
            ],
            [
              -116.40020053383826,
              33.28724808550261
            ],
            [
              -116.40020060355573,
              33.28724750395256
            ],
            [
              -116.40020213664576,
              33.28723442659927
            ],
            [
              -116.40020220667571,
              33.28723381469973
            ],
            [
              -116.40020366797877,
              33.28722072791131
            ],
            [
              -116.40020373126744,
              33.28722014740448
            ],
            [
              -116.40020512469118,
              33.28720704944407
            ],
            [
              -116.40020518636311,
              33.2872064546348
            ],
            [
              -116.40020650907297,
              33.28719335633988
            ],
            [
              -116.40020656780928,
              33.28719275864963
            ],
            [
              -116.40020781979511,
              33.287179657334185
            ],
            [
              -116.40020787479718,
              33.2871790651398
            ],
            [
              -116.40020905678499,
              33.28716596045837
            ],
            [
              -116.40020910940886,
              33.2871653588535
            ],
            [
              -116.4002102194745,
              33.28715226073728
            ],
            [
              -116.40021027010467,
              33.28715164296626
            ],
            [
              -116.40021130911896,
              33.287138518003935
            ],
            [
              -116.40021135179057,
              33.287137961279825
            ],
            [
              -116.40021232444704,
              33.28712484082735
            ],
            [
              -116.40021236962403,
              33.28712420695184
            ],
            [
              -116.40021326640777,
              33.28711109800074
            ],
            [
              -116.4002133047644,
              33.28711051489179
            ],
            [
              -116.40021413438487,
              33.28709737751386
            ],
            [
              -116.40021416973121,
              33.28709679343683
            ],
            [
              -116.40021492975099,
              33.287083663406314
            ],
            [
              -116.4002149633028,
              33.287083054953754
            ],
            [
              -116.40021565145614,
              33.28706992283333
            ],
            [
              -116.40021568049112,
              33.28706933951959
            ],
            [
              -116.40021629984552,
              33.28705620370281
            ],
            [
              -116.4002163268537,
              33.28705559559527
            ],
            [
              -116.4002168741038,
              33.28704246497349
            ],
            [
              -116.40021689725549,
              33.28704187145881
            ],
            [
              -116.4002173748756,
              33.287028727839015
            ],
            [
              -116.40021739500345,
              33.28702812967058
            ],
            [
              -116.40021780150546,
              33.28701499976251
            ],
            [
              -116.40021781871714,
              33.287014389822204
            ],
            [
              -116.4002181534575,
              33.28700125116134
            ],
            [
              -116.40021816695132,
              33.28700065986371
            ],
            [
              -116.40021843215307,
              33.28698750768915
            ],
            [
              -116.40021844237799,
              33.28698692495114
            ],
            [
              -116.40021863839397,
              33.28697379485245
            ],
            [
              -116.40021864606527,
              33.28697315957573
            ],
            [
              -116.4002187673399,
              33.28696000950092
            ],
            [
              -116.40021877104513,
              33.28695946149841
            ],
            [
              -116.40021882763347,
              33.28694630267722
            ],
            [
              -116.40021882857651,
              33.286945685053006
            ],
            [
              -116.40021881221472,
              33.28693255990877
            ],
            [
              -116.40021880974844,
              33.28693194473832
            ],
            [
              -116.40021876729962,
              33.286925676121236
            ],
            [
              -116.40021872151074,
              33.28691880512985
            ],
            [
              -116.4002187160333,
              33.286918216604505
            ],
            [
              -116.40021855882166,
              33.28690506104113
            ],
            [
              -116.40021855032698,
              33.28690447797665
            ],
            [
              -116.40021832472732,
              33.28689135251493
            ],
            [
              -116.40021831181467,
              33.28689070936388
            ],
            [
              -116.4002180102143,
              33.28687757722672
            ],
            [
              -116.40021799552453,
              33.28687700228593
            ],
            [
              -116.40021762572813,
              33.2868638580322
            ],
            [
              -116.40021760696406,
              33.286863250113285
            ],
            [
              -116.40021716553966,
              33.28685011203815
            ],
            [
              -116.40021714405269,
              33.28684951950848
            ],
            [
              -116.40021663216237,
              33.28683636972721
            ],
            [
              -116.40021660835731,
              33.2868357962145
            ],
            [
              -116.40021602917413,
              33.286822659117995
            ],
            [
              -116.40021600022325,
              33.286822041401074
            ],
            [
              -116.40021534837409,
              33.286808911979094
            ],
            [
              -116.40021531788356,
              33.28680832869961
            ],
            [
              -116.400214597725,
              33.28679521135157
            ],
            [
              -116.40021456107854,
              33.28679457688876
            ],
            [
              -116.40021376522327,
              33.28678144808441
            ],
            [
              -116.40021373008621,
              33.28678089148808
            ],
            [
              -116.40021286772924,
              33.286767753496
            ],
            [
              -116.40021282597668,
              33.286767143013066
            ],
            [
              -116.40021189351692,
              33.28675403703667
            ],
            [
              -116.40021184860271,
              33.28675342920202
            ],
            [
              -116.40021084327326,
              33.286740311209066
            ],
            [
              -116.40021079708492,
              33.28673972854145
            ],
            [
              -116.40020972195344,
              33.28672660187128
            ],
            [
              -116.40020967265836,
              33.28672601878474
            ],
            [
              -116.40020852979353,
              33.28671290948806
            ],
            [
              -116.40020847509469,
              33.28671230127197
            ],
            [
              -116.40020726207938,
              33.28669921415597
            ],
            [
              -116.40020720286543,
              33.286698594100685
            ],
            [
              -116.40020591402313,
              33.286685483975965
            ],
            [
              -116.400205859013,
              33.28668493816037
            ],
            [
              -116.40020450667544,
              33.28667184202386
            ],
            [
              -116.4002044382694,
              33.28667119782752
            ],
            [
              -116.40020301152279,
              33.28665812223493
            ],
            [
              -116.40020294737454,
              33.28665754807946
            ],
            [
              -116.40020145012741,
              33.28664445318572
            ],
            [
              -116.40020138053632,
              33.28664385862066
            ],
            [
              -116.40019981529113,
              33.28663078807471
            ],
            [
              -116.40019974121596,
              33.28663018342999
            ],
            [
              -116.40019810297146,
              33.28661710552975
            ],
            [
              -116.40019802929113,
              33.286616529444196
            ],
            [
              -116.40019632262519,
              33.28660345449572
            ],
            [
              -116.40019624346048,
              33.286602860369804
            ],
            [
              -116.40019446882486,
              33.28658980805004
            ],
            [
              -116.40019438515496,
              33.28658920491415
            ],
            [
              -116.40019253847598,
              33.286576153052614
            ],
            [
              -116.40019245321602,
              33.28657556178755
            ],
            [
              -116.40019053787546,
              33.28656252446662
            ],
            [
              -116.40019044759038,
              33.28656192129004
            ],
            [
              -116.40018846047064,
              33.286548887134316
            ],
            [
              -116.40018836860226,
              33.28654829511751
            ],
            [
              -116.40018630774287,
              33.286535243789096
            ],
            [
              -116.40018621910372,
              33.28653469134912
            ],
            [
              -116.40018409907393,
              33.286521684858926
            ],
            [
              -116.4001839895175,
              33.28652102505631
            ],
            [
              -116.40018179032177,
              33.28650801919551
            ],
            [
              -116.40018169811337,
              33.28650748178401
            ],
            [
              -116.40017943251794,
              33.28649446607978
            ],
            [
              -116.4001793215203,
              33.28649383887907
            ],
            [
              -116.40017698724117,
              33.28648086215025
            ],
            [
              -116.40017687849029,
              33.28648026673507
            ],
            [
              -116.40017446683282,
              33.286467259870776
            ],
            [
              -116.40017436471923,
              33.286466716547174
            ],
            [
              -116.40017189095069,
              33.28645372900713
            ],
            [
              -116.40017177047845,
              33.28645310601669
            ],
            [
              -116.40016923002383,
              33.286440163298444
            ],
            [
              -116.4001691093998,
              33.286439557499435
            ],
            [
              -116.40016649095294,
              33.286426591611125
            ],
            [
              -116.40016637633867,
              33.28642603135038
            ],
            [
              -116.40016369262206,
              33.28641307899359
            ],
            [
              -116.40016356465806,
              33.28641246981179
            ],
            [
              -116.40016081095891,
              33.28639953683491
            ],
            [
              -116.40016068648016,
              33.28639895957445
            ],
            [
              -116.40015786189637,
              33.28638602386028
            ],
            [
              -116.40015773163256,
              33.28638543478829
            ],
            [
              -116.40015483968553,
              33.28637251939027
            ],
            [
              -116.40015470618798,
              33.28637193051483
            ],
            [
              -116.40015174694855,
              33.28635903542923
            ],
            [
              -116.40015160739571,
              33.286358434771046
            ],
            [
              -116.40014857571369,
              33.286345544040046
            ],
            [
              -116.40014843698592,
              33.286344961037706
            ],
            [
              -116.40014533188278,
              33.286332062203314
            ],
            [
              -116.40014519537452,
              33.28633150136408
            ],
            [
              -116.40014202599052,
              33.28631862160744
            ],
            [
              -116.40014187816372,
              33.28631802771668
            ],
            [
              -116.4001386435485,
              33.28630517932895
            ],
            [
              -116.4001384917046,
              33.28630458295073
            ],
            [
              -116.40013518294646,
              33.286291731924614
            ],
            [
              -116.40013503546207,
              33.28629116509985
            ],
            [
              -116.40013166297996,
              33.28627833807901
            ],
            [
              -116.40013150083495,
              33.28627772818841
            ],
            [
              -116.40012805884425,
              33.286264923221474
            ],
            [
              -116.40012789830254,
              33.286264332251115
            ],
            [
              -116.40012437827929,
              33.28625150965966
            ],
            [
              -116.40012422855985,
              33.28625096942233
            ],
            [
              -116.40012064783815,
              33.28623817007211
            ],
            [
              -116.40012047276915,
              33.286237550947696
            ],
            [
              -116.40011682990726,
              33.286224803983266
            ],
            [
              -116.40011665252375,
              33.286224189731094
            ],
            [
              -116.40011292067537,
              33.28621139979053
            ],
            [
              -116.40011277390485,
              33.28621090094712
            ],
            [
              -116.40010898348352,
              33.286198124194605
            ],
            [
              -116.40010879972489,
              33.286197511003316
            ],
            [
              -116.40010494992565,
              33.28618479237541
            ],
            [
              -116.4001047702392,
              33.28618420437052
            ],
            [
              -116.40010084674032,
              33.28617148583915
            ],
            [
              -116.40010066649103,
              33.28617090690865
            ],
            [
              -116.40009667492671,
              33.28615820357574
            ],
            [
              -116.40009648744513,
              33.286157612424354
            ],
            [
              -116.40009242433433,
              33.28614491847937
            ],
            [
              -116.40009224361928,
              33.286144358763174
            ],
            [
              -116.4000881141586,
              33.286131678433506
            ],
            [
              -116.40008792171113,
              33.28613109274783
            ],
            [
              -116.4000837212288,
              33.28611842216747
            ],
            [
              -116.40008353911146,
              33.28611787730834
            ],
            [
              -116.40007928289575,
              33.28610524690719
            ],
            [
              -116.40007906377151,
              33.28610460284719
            ],
            [
              -116.40007473138216,
              33.28609198923774
            ],
            [
              -116.40007454609506,
              33.28609145399515
            ],
            [
              -116.40007014136488,
              33.28607882872052
            ],
            [
              -116.40006993514196,
              33.286078242617776
            ],
            [
              -116.40006546379148,
              33.28606564127002
            ],
            [
              -116.40006526623928,
              33.28606508889845
            ],
            [
              -116.40006073139111,
              33.28605250816683
            ],
            [
              -116.40006051657059,
              33.286051917157884
            ],
            [
              -116.40005592144509,
              33.286039379512125
            ],
            [
              -116.40005570083515,
              33.28603878257614
            ],
            [
              -116.40005102256475,
              33.286026228148756
            ],
            [
              -116.40005082418101,
              33.28602569963749
            ],
            [
              -116.40004608528089,
              33.286013165882444
            ],
            [
              -116.40004585861337,
              33.286012571217704
            ],
            [
              -116.40004105752271,
              33.286000076534435
            ],
            [
              -116.40004083589963,
              33.28599950419874
            ],
            [
              -116.40003595894906,
              33.285987005764966
            ],
            [
              -116.40003574452938,
              33.28598646024083
            ],
            [
              -116.4000308054781,
              33.285973984876215
            ],
            [
              -116.40003057250078,
              33.28597340092319
            ],
            [
              -116.40002557047701,
              33.285960959065974
            ],
            [
              -116.40002533848013,
              33.2859603863025
            ],
            [
              -116.40002026293965,
              33.28594794836745
            ],
            [
              -116.40002003757562,
              33.28594739999688
            ],
            [
              -116.40001490223091,
              33.28593499205396
            ],
            [
              -116.40001465425942,
              33.28593439744878
            ],
            [
              -116.40000944975549,
              33.28592201168729
            ],
            [
              -116.40000921727714,
              33.28592146226753
            ],
            [
              -116.40000394204105,
              33.285909081190006
            ],
            [
              -116.40000370001144,
              33.285908517147504
            ],
            [
              -116.39999836029087,
              33.285896160366214
            ],
            [
              -116.39999811739595,
              33.28589560216349
            ],
            [
              -116.3999927174107,
              33.28588327767867
            ],
            [
              -116.39999245837829,
              33.28588269074291
            ],
            [
              -116.39998699188723,
              33.28587039307875
            ],
            [
              -116.3999867406795,
              33.28586983180858
            ],
            [
              -116.39998119399228,
              33.28585752308547
            ],
            [
              -116.3999809559072,
              33.28585699809378
            ],
            [
              -116.39997535543786,
              33.285844726562075
            ],
            [
              -116.39997508248024,
              33.285844132715965
            ],
            [
              -116.39996941928125,
              33.28583189891995
            ],
            [
              -116.39996916132449,
              33.2858313453336
            ],
            [
              -116.3999634176117,
              33.285819099620504
            ],
            [
              -116.39996316824801,
              33.285818571277915
            ],
            [
              -116.39995737293187,
              33.28580636838367
            ],
            [
              -116.39995708894685,
              33.285805774557296
            ],
            [
              -116.39995123337633,
              33.285793614745344
            ],
            [
              -116.399950959114,
              33.28579304893881
            ],
            [
              -116.39994502121348,
              33.28578087888939
            ],
            [
              -116.3999447646304,
              33.28578035616989
            ],
            [
              -116.39993876470004,
              33.28576820607903
            ],
            [
              -116.39993848531145,
              33.285767643937874
            ],
            [
              -116.39993242837336,
              33.28575553500493
            ],
            [
              -116.39993214654166,
              33.28575497514773
            ],
            [
              -116.39992602422919,
              33.2857428900557
            ],
            [
              -116.39992573824017,
              33.28574232909502
            ],
            [
              -116.39991954602004,
              33.28573025957083
            ],
            [
              -116.39991926896462,
              33.285729722791906
            ],
            [
              -116.39991301257136,
              33.285717673855515
            ],
            [
              -116.39991272165001,
              33.28571711704791
            ],
            [
              -116.39990640402183,
              33.28570509994245
            ],
            [
              -116.39990611224034,
              33.28570454830893
            ],
            [
              -116.39989972875296,
              33.285692553068124
            ],
            [
              -116.3998994343521,
              33.28569200319548
            ],
            [
              -116.3998929866436,
              33.28568003272896
            ],
            [
              -116.39989269028251,
              33.2856794858027
            ],
            [
              -116.39988617568432,
              33.2856675347141
            ],
            [
              -116.39988587773024,
              33.2856669913348
            ],
            [
              -116.3998792999254,
              33.28565506578075
            ],
            [
              -116.39987900126242,
              33.28565452744757
            ],
            [
              -116.39987236328824,
              33.285642631830235
            ],
            [
              -116.39987204600246,
              33.28564206668128
            ],
            [
              -116.39986534154919,
              33.285630196787494
            ],
            [
              -116.39986504754566,
              33.28562967914249
            ],
            [
              -116.39985827883972,
              33.285617827195956
            ],
            [
              -116.39985795651928,
              33.285617266174285
            ],
            [
              -116.39985113108472,
              33.28560545645502
            ],
            [
              -116.39985081570808,
              33.28560491389857
            ],
            [
              -116.39984391555205,
              33.28559311097964
            ],
            [
              -116.3998436096645,
              33.28559259060974
            ],
            [
              -116.39983665724272,
              33.285580827709644
            ],
            [
              -116.39983631726048,
              33.285580255926384
            ],
            [
              -116.39982929194214,
              33.285568511074196
            ],
            [
              -116.39982899306987,
              33.285568014006984
            ],
            [
              -116.39982190827308,
              33.285556291733656
            ],
            [
              -116.39982156418301,
              33.285555725751074
            ],
            [
              -116.39981441910214,
              33.2855440417004
            ],
            [
              -116.39981410414886,
              33.285543529392044
            ],
            [
              -116.39980689759007,
              33.285531868831086
            ],
            [
              -116.39980654931684,
              33.2855313085508
            ],
            [
              -116.39979928250762,
              33.28551968520709
            ],
            [
              -116.39979895335732,
              33.28551916154767
            ],
            [
              -116.39979161323679,
              33.28550754619537
            ],
            [
              -116.39979128050291,
              33.285507022471776
            ],
            [
              -116.39978388861721,
              33.28549544954056
            ],
            [
              -116.39978353845821,
              33.28549490435654
            ],
            [
              -116.39977607202817,
              33.28548334355624
            ],
            [
              -116.39977575145204,
              33.28548284966592
            ],
            [
              -116.39976823342107,
              33.2854713248527
            ],
            [
              -116.39976786786404,
              33.28547076761775
            ],
            [
              -116.3997602975491,
              33.285459292477356
            ],
            [
              -116.39975994471402,
              33.285458760505975
            ],
            [
              -116.39975230523699,
              33.28544730381214
            ],
            [
              -116.39975194698094,
              33.28544676942177
            ],
            [
              -116.3997442395525,
              33.28543533404327
            ],
            [
              -116.39974389187987,
              33.285434820850746
            ],
            [
              -116.39973612087684,
              33.28542340885624
            ],
            [
              -116.39973576519726,
              33.28542288923059
            ],
            [
              -116.39972793636005,
              33.28541151080707
            ],
            [
              -116.39972757999463,
              33.285410995516095
            ],
            [
              -116.39971968759419,
              33.2853996416453
            ],
            [
              -116.39971932814352,
              33.2853991271805
            ],
            [
              -116.39971138496833,
              33.285387816269754
            ],
            [
              -116.39971100776995,
              33.28538728198235
            ],
            [
              -116.39970299973582,
              33.28537599861599
            ],
            [
              -116.3997026372406,
              33.28537549041637
            ],
            [
              -116.39969457499544,
              33.2853642440414
            ],
            [
              -116.39969418361348,
              33.28536370100091
            ],
            [
              -116.39968975750375,
              33.285357592505086
            ],
            [
              -116.3996848493456,
              33.285351481477356
            ],
            [
              -116.39968492750724,
              33.285351438596
            ],
            [
              -116.3996806113822,
              33.285346034689915
            ],
            [
              -116.39968275765756,
              33.28534339348979
            ],
            [
              -116.40013204427159,
              33.28484510791296
            ],
            [
              -116.40013442323392,
              33.28484271612539
            ],
            [
              -116.4001380354028,
              33.28484351962675
            ],
            [
              -116.40082137124622,
              33.285024847831295
            ],
            [
              -116.4008249951083,
              33.285025972682426
            ],
            [
              -116.40082921188663,
              33.28503076090948
            ],
            [
              -116.40083915585707,
              33.285040966230525
            ],
            [
              -116.40085025326104,
              33.28505031918282
            ],
            [
              -116.400862398305,
              33.28505873060267
            ],
            [
              -116.40087547520798,
              33.285066120302275
            ],
            [
              -116.40088935930527,
              33.28507241783411
            ],
            [
              -116.40090391823689,
              33.28507756316236
            ],
            [
              -116.40091901320946,
              33.28508150723558
            ],
            [
              -116.40093450031931,
              33.285084212453995
            ],
            [
              -116.40095023192437,
              33.28508565302818
            ],
            [
              -116.40096605805172,
              33.2850858152249
            ],
            [
              -116.40098182782734,
              33.285084697497815
            ],
            [
              -116.40099739091443,
              33.285082310502474
            ],
            [
              -116.40101259894655,
              33.285078676994694
            ],
            [
              -116.40101502114626,
              33.28507799048762
            ],
            [
              -116.40101890155412,
              33.28507817794535
            ],
            [
              -116.40174043406041,
              33.285142218322925
            ],
            [
              -116.40174416835137,
              33.285142702783766
            ]
          ]
        ]
      }
    }
  ]
}