{
"type": "FeatureCollection",
"name": "parcel_contributing_area",
"crs": { "type": "name", "properties": { "name": "urn:ogc:def:crs:OGC:1.3:CRS84" } },
"features": [
{ "type": "Feature", "properties": { "area_km2": 0.92, "cells": 9230, "resolution_m": 10.0, "trace_type": "boolean_dinf" }, "geometry": { "type": "Polygon", "coordinates": [ [ [ -116.414246287020333, 33.293114540314008 ], [ -116.414352375865988, 33.293170964131484 ], [ -116.414361010200238, 33.293176068793464 ], [ -116.414368999186834, 33.293181850211539 ], [ -116.414376265887455, 33.29318825270758 ], [ -116.414382740319837, 33.293195214622379 ], [ -116.414388360131539, 33.293202668908812 ], [ -116.414393071200564, 33.29321054377823 ], [ -116.414396828156512, 33.293218763391479 ], [ -116.414399594817624, 33.293227248589162 ], [ -116.414401344539058, 33.293235917654322 ], [ -116.414402060469811, 33.293244687099111 ], [ -116.414401735714691, 33.293253472469104 ], [ -116.414400373400909, 33.29326218915628 ], [ -116.414397986647984, 33.293270753214173 ], [ -116.414394598441319, 33.293279082166123 ], [ -116.414390241410914, 33.293287095799812 ], [ -116.414384957517143, 33.293294716939386 ], [ -116.41437879764662, 33.293301872189033 ], [ -116.414371821122117, 33.293308492639582 ], [ -116.414364095131376, 33.29331451453244 ], [ -116.414355694079902, 33.293319879873273 ], [ -116.414346698874525, 33.293324536990937 ], [ -116.414337196144132, 33.293328441034596 ], [ -116.414327277405405, 33.29333155440613 ], [ -116.414317038181494, 33.293333847121986 ], [ -116.414211442729368, 33.293352939120773 ], [ -116.414200981625427, 33.293354389091078 ], [ -116.414190399393462, 33.293354982361308 ], [ -116.414179797946531, 33.293354713217873 ], [ -116.414169279382676, 33.293353584252856 ], [ -116.414158945001788, 33.293351606338767 ], [ -116.414148894329898, 33.293348798524136 ], [ -116.414139224160721, 33.293345187849795 ], [ -116.414130027623528, 33.293340809088562 ], [ -116.414121393286194, 33.293335704410431 ], [ -116.414113404302171, 33.29332992297639 ], [ -116.414106137609835, 33.293323520464959 ], [ -116.414099663191365, 33.293316558535864 ], [ -116.414094043398862, 33.293309104236535 ], [ -116.414089332353839, 33.293301229355897 ], [ -116.414085575426029, 33.293293009733624 ], [ -116.414082808796479, 33.293284524529199 ], [ -116.414066239046022, 33.293221587785332 ], [ -116.413790945140889, 33.293334556481007 ], [ -116.413780728687058, 33.293338218777869 ], [ -116.413770111862831, 33.29334099084199 ], [ -116.413759207285111, 33.293342843268945 ], [ -116.413748130623262, 33.29334375640935 ], [ -116.413736999371935, 33.293343720577155 ], [ -116.413725931604873, 33.293342736152383 ], [ -116.413715044722466, 33.293340813577295 ], [ -116.413704454206282, 33.293337973245372 ], [ -116.41369427239421, 33.293334245285145 ], [ -116.413684607288829, 33.29332966924067 ], [ -116.41306663593501, 33.293000991545092 ], [ -116.412219021115888, 33.292979783458634 ], [ -116.410753679136903, 33.293244685702732 ], [ -116.410742952253202, 33.293246160875078 ], [ -116.410732100791549, 33.293246735380521 ], [ -116.410721234589175, 33.293246403403828 ], [ -116.410710463632498, 33.293245168305361 ], [ -116.410699896943925, 33.29324304258656 ], [ -116.4106896414782, 33.293240047763732 ], [ -116.410679801039876, 33.293236214150078 ], [ -116.410670475232664, 33.293231580548969 ], [ -116.410661758451184, 33.293226193861166 ], [ -116.410653738925419, 33.293220108610029 ], [ -116.410646497827898, 33.293213386389716 ], [ -116.410581703534135, 33.293146771875435 ], [ -116.410064220062182, 33.293713932739209 ], [ -116.410057104430237, 33.293720953316743 ], [ -116.410049159984339, 33.293727334285876 ], [ -116.41004046997223, 33.293733008781956 ], [ -116.410031125454339, 33.29373791734325 ], [ -116.410021224349578, 33.293742008534181 ], [ -116.410010870409167, 33.293745239484139 ], [ -116.410000172129671, 33.29374757633672 ], [ -116.40998924161579, 33.293748994604556 ], [ -116.409015833292585, 33.293833275664525 ], [ -116.409005380188844, 33.293833758201444 ], [ -116.408994919788228, 33.293833400367127 ], [ -116.408984550241527, 33.293832205519173 ], [ -116.408974368847041, 33.293830184868924 ], [ -116.408964471137637, 33.293827357376337 ], [ -116.408954949984221, 33.293823749571935 ], [ -116.408945894724525, 33.293819395308049 ], [ -116.408937390324652, 33.293814335441112 ], [ -116.408929516581907, 33.293808617448157 ], [ -116.40869082876965, 33.293617569658586 ], [ -116.408270109024627, 33.293693614582772 ], [ -116.407985939061248, 33.294168925387382 ], [ -116.407980494759869, 33.294176963232047 ], [ -116.407974082397061, 33.294184494818573 ], [ -116.407966769887622, 33.294191440377858 ], [ -116.407958634680142, 33.294197726347583 ], [ -116.407949762936695, 33.294203286151244 ], [ -116.40794024862025, 33.294208060903465 ], [ -116.407247122590732, 33.294516677035723 ], [ -116.407237691297325, 33.294520401296268 ], [ -116.407227870152823, 33.294523353573254 ], [ -116.407217750922044, 33.294525506281822 ], [ -116.407207428154962, 33.294526839307913 ], [ -116.407196998303363, 33.294527340196353 ], [ -116.407186558819618, 33.294527004266911 ], [ -116.407176207246053, 33.294525834658479 ], [ -116.407166040303665, 33.294523842299391 ], [ -116.407156152988179, 33.294521045805418 ], [ -116.407146637682715, 33.294517471305845 ], [ -116.407137583294372, 33.294513152199372 ], [ -116.406660740448231, 33.294259502257724 ], [ -116.406387685047335, 33.29430885159281 ], [ -116.406377808017098, 33.294310242813715 ], [ -116.406367817967165, 33.294310870158569 ], [ -116.406357800738292, 33.294310728236901 ], [ -116.406347842404884, 33.294309818268232 ], [ -116.406338028535288, 33.294308148071472 ], [ -116.405869574259285, 33.294209469949607 ], [ -116.405858861135684, 33.294206715561792 ], [ -116.405848550195913, 33.294203055886179 ], [ -116.40583875249763, 33.29419853034041 ], [ -116.405829573570301, 33.294193187668583 ], [ -116.405821112278701, 33.2941870854158 ], [ -116.405582430860221, 33.293996031261678 ], [ -116.405216551392513, 33.294062153180988 ], [ -116.405206090028798, 33.294063602329231 ], [ -116.40519550763382, 33.294064194768829 ], [ -116.405184906122216, 33.294063924794166 ], [ -116.405174387592638, 33.294062795005274 ], [ -116.40516405334462, 33.294060816282652 ], [ -116.405154002902961, 33.294058007682537 ], [ -116.405144333059155, 33.294054396253451 ], [ -116.405135136939322, 33.294050016775415 ], [ -116.404915556732647, 33.29393320840984 ], [ -116.404456232465165, 33.294016214789707 ], [ -116.404099757891359, 33.294254294889853 ], [ -116.404090906259796, 33.294259617710679 ], [ -116.404081450816975, 33.294264171987187 ], [ -116.404071488379515, 33.294267911086855 ], [ -116.404061120955461, 33.294270796724078 ], [ -116.404050454699572, 33.294272799352086 ], [ -116.404039598826515, 33.294273898465384 ], [ -116.404028664492458, 33.294274082809899 ], [ -116.403583240310738, 33.294262903742563 ], [ -116.403573039565103, 33.294262246200759 ], [ -116.403562959558386, 33.294260792271714 ], [ -116.403553090624172, 33.294258554984985 ], [ -116.40354352120444, 33.294255554390425 ], [ -116.403534337057053, 33.294251817378267 ], [ -116.403525620487059, 33.294247377438332 ], [ -116.403517449609296, 33.294242274359824 ], [ -116.40350989764822, 33.294236553874754 ], [ -116.403503032281677, 33.294230267248082 ], [ -116.40349691503458, 33.294223470818338 ], [ -116.403491600727264, 33.294216225492654 ], [ -116.403487136984495, 33.294208596201202 ], [ -116.403483563808422, 33.294200651314767 ], [ -116.403480913220335, 33.294192462032704 ], [ -116.403348188647016, 33.29368806864192 ], [ -116.40306089652934, 33.29339266019776 ], [ -116.403054978146471, 33.293385961360087 ], [ -116.403049833706334, 33.293378837158819 ], [ -116.403045507412969, 33.293371348809522 ], [ -116.403042036440254, 33.293363560656658 ], [ -116.403039450612738, 33.293355539620855 ], [ -116.402726626926636, 33.292166663530217 ], [ -116.401349468866769, 33.291433994152584 ], [ -116.401340068860634, 33.291428381551277 ], [ -116.401331447840832, 33.291421967325135 ], [ -116.401323704876518, 33.291414825183821 ], [ -116.401062332238368, 33.291146048236136 ], [ -116.400810806712215, 33.29119149563963 ], [ -116.400800169119933, 33.291192961390117 ], [ -116.400789408223019, 33.291193541339354 ], [ -116.400778631152946, 33.291193229713606 ], [ -116.400767945202062, 33.291192029615218 ], [ -116.40075745675567, 33.291189952992013 ], [ -116.400747270232756, 33.291187020518016 ], [ -116.400737487046456, 33.2911832613878 ], [ -116.400728204594316, 33.291178713025815 ], [ -116.400719515288799, 33.291173420713839 ], [ -116.400711505637176, 33.291167437140004 ], [ -116.400704255380262, 33.291160821874477 ], [ -116.400697836698612, 33.291153640776336 ], [ -116.400692313493835, 33.291145965337606 ], [ -116.400687740752545, 33.291137871971962 ], [ -116.400684163998775, 33.291129441253773 ], [ -116.400681618840991, 33.291120757115827 ], [ -116.399912377809898, 33.287776307128844 ], [ -116.399910861128859, 33.287767184179685 ], [ -116.399910482803762, 33.287757980383859 ], [ -116.39991124683381, 33.287748793043214 ], [ -116.399913145141355, 33.287739719285653 ], [ -116.399916157657231, 33.287730855038269 ], [ -116.399920252532993, 33.287722294013143 ], [ -116.400134748329847, 33.28733349294852 ], [ -116.40011651499016, 33.28645845689222 ], [ -116.399683787635269, 33.285637925995495 ], [ -116.39968000476685, 33.285629664510736 ], [ -116.399677222549727, 33.285621134297934 ], [ -116.399400984348631, 33.284571008757176 ], [ -116.399399226634372, 33.284562269444308 ], [ -116.399398519313763, 33.284553428959725 ], [ -116.399398869307731, 33.284544573809363 ], [ -116.399400273191134, 33.284535790642721 ], [ -116.399402717226337, 33.284527165404931 ], [ -116.399406177497653, 33.284518782495695 ], [ -116.399410620145304, 33.284510723943463 ], [ -116.399416001696807, 33.284503068602817 ], [ -116.399422269492405, 33.284495891382612 ], [ -116.399429362200237, 33.284489262513453 ], [ -116.399437210416664, 33.284483246860106 ], [ -116.399445737345218, 33.284477903286813 ], [ -116.399454859548271, 33.284473284081443 ], [ -116.399464487763254, 33.2844694344438 ], [ -116.401054019068809, 33.283912423971771 ], [ -116.401352433422829, 33.283527171484238 ], [ -116.401422748989447, 33.282984971336369 ], [ -116.401424279997585, 33.282976766412098 ], [ -116.401426721094296, 33.282968714236759 ], [ -116.401430051303947, 33.2829608839996 ], [ -116.401434242011163, 33.282953342982516 ], [ -116.401439257206604, 33.282946155982508 ], [ -116.401662764024522, 33.282657602942308 ], [ -116.401511150472018, 33.282081278154102 ], [ -116.401509546835214, 33.282073585057091 ], [ -116.401508757580302, 33.282065805440659 ], [ -116.401508788703694, 33.282057998412576 ], [ -116.401509639968594, 33.282050223288735 ], [ -116.401677170744975, 33.281020918779674 ], [ -116.401543983602338, 33.279679785786868 ], [ -116.401543626086593, 33.279671440737616 ], [ -116.401544207758604, 33.279663104358427 ], [ -116.401545723562265, 33.279654849107715 ], [ -116.40154816032215, 33.279646746738756 ], [ -116.401551496858119, 33.279638867675928 ], [ -116.40155570416934, 33.279631280402633 ], [ -116.401560745686339, 33.279624050866154 ], [ -116.401890982464465, 33.279197684524277 ], [ -116.401897142366394, 33.279190529798925 ], [ -116.401904118688876, 33.279183909971515 ], [ -116.401911844246143, 33.27917788879455 ], [ -116.401920244636855, 33.27917252425511 ], [ -116.401929238960747, 33.279167868016515 ], [ -116.401938740597714, 33.279163964920755 ], [ -116.401948658042016, 33.279160852556757 ], [ -116.40195889578348, 33.279158560898068 ], [ -116.40248679223393, 33.279063154370753 ], [ -116.402496667420962, 33.279061763454187 ], [ -116.402506655567734, 33.279061136432681 ], [ -116.402516670850318, 33.279061278693874 ], [ -116.402526627211643, 33.279062189015384 ], [ -116.402536439100928, 33.279063859575331 ], [ -116.403004799126606, 33.279162553484191 ], [ -116.40301585678823, 33.27916541455658 ], [ -116.403026481417911, 33.279169240282435 ], [ -116.403036550922209, 33.279173986698268 ], [ -116.403808162039368, 33.27958455473884 ], [ -116.40381633158357, 33.27958935890728 ], [ -116.403823929326691, 33.279594769442483 ], [ -116.403830889984349, 33.279600739853883 ], [ -116.403837153746409, 33.27960721884029 ], [ -116.403842666790737, 33.27961415073031 ], [ -116.404890578182275, 33.281074833002442 ], [ -116.404895956665897, 33.281083336799433 ], [ -116.404900205980255, 33.281092268929328 ], [ -116.404903277293712, 33.281101526748074 ], [ -116.405064451043089, 33.281714095611505 ], [ -116.405066094117572, 33.281722044314769 ], [ -116.405066867906299, 33.281730083291748 ], [ -116.405066766135874, 33.281738147369616 ], [ -116.405065789631081, 33.281746171172074 ], [ -116.405063946308275, 33.281754089649176 ], [ -116.405061251111221, 33.281761838605071 ], [ -116.404869206041269, 33.282233134518002 ], [ -116.404922366204957, 33.282435177216271 ], [ -116.406170789732883, 33.283099388784159 ], [ -116.406178959785748, 33.283104192759737 ], [ -116.406186558030171, 33.283109603110745 ], [ -116.406193519177563, 33.283115573348226 ], [ -116.406199783413442, 33.283122052172409 ], [ -116.406205296911722, 33.283128983913407 ], [ -116.406379961207307, 33.283372426996301 ], [ -116.406385041029935, 33.283380393972898 ], [ -116.406389129278182, 33.283388743671921 ], [ -116.406392184571175, 33.283397391579015 ], [ -116.40639417598338, 33.28340625016147 ], [ -116.406395083357665, 33.283415229754077 ], [ -116.406394897509358, 33.283424239466754 ], [ -116.406393620319221, 33.283433188104617 ], [ -116.406391264714429, 33.283441985090775 ], [ -116.406387854537698, 33.283450541383459 ], [ -116.406383424306, 33.28345877037701 ], [ -116.406378018861318, 33.283466588778751 ], [ -116.406071969155875, 33.283861744733734 ], [ -116.406232415074925, 33.284471487539143 ], [ -116.406401882498187, 33.284507189810157 ], [ -116.406412271705875, 33.284509846232439 ], [ -116.406422286282123, 33.284513354399529 ], [ -116.406431824861201, 33.284517678802573 ], [ -116.406440790895203, 33.284522775670546 ], [ -116.406449093631451, 33.284528593413917 ], [ -116.406456649030929, 33.28453507314655 ], [ -116.40646338061903, 33.28454214928167 ], [ -116.406469220259538, 33.284549750195772 ], [ -116.406474108844293, 33.284557798953699 ], [ -116.40647799689161, 33.284566214087278 ], [ -116.406480845046929, 33.284574910419863 ], [ -116.406549927508323, 33.284837437751435 ], [ -116.406551676179419, 33.284846107041965 ], [ -116.406552391159892, 33.284854876642562 ], [ -116.406552065563787, 33.284863662097301 ], [ -116.406550702526417, 33.284872378797381 ], [ -116.40654831517422, 33.284880942796221 ], [ -116.406544926498384, 33.284889271617693 ], [ -116.40654056913344, 33.284897285050747 ], [ -116.406535285042992, 33.284904905921422 ], [ -116.406529125115512, 33.28491206083654 ], [ -116.40652214867437, 33.284918680890222 ], [ -116.406514422906469, 33.284924702327551 ], [ -116.406506022215197, 33.284930067158705 ], [ -116.40649702750386, 33.284934723717335 ], [ -116.406487525396628, 33.28493862715807 ], [ -116.406477607404213, 33.284941739888588 ], [ -116.406467369042545, 33.284944031931474 ], [ -116.406361782936102, 33.284963116934776 ], [ -116.406384810353259, 33.285050626035549 ], [ -116.406386559010926, 33.285059295325901 ], [ -116.406387273974971, 33.285068064924836 ], [ -116.40638694835954, 33.285076850376399 ], [ -116.4063855853002, 33.285085567071782 ], [ -116.406383197923589, 33.285094131064533 ], [ -116.406379809221121, 33.285102459878551 ], [ -116.406375451827586, 33.285110473302851 ], [ -116.406370167706839, 33.285118094163565 ], [ -116.406149565867423, 33.285402917936871 ], [ -116.406508593852067, 33.286372145043629 ], [ -116.406768805275789, 33.286580451370185 ], [ -116.406776050459797, 33.286586848808412 ], [ -116.406782505611034, 33.28659380306437 ], [ -116.406788108783147, 33.286601247402281 ], [ -116.406792806205729, 33.286609110383409 ], [ -116.406796552800188, 33.286617316551514 ], [ -116.406799312612492, 33.286625787157064 ], [ -116.406953539879382, 33.287211852934405 ], [ -116.407210269536733, 33.287417367656261 ], [ -116.407217491469794, 33.287423742297776 ], [ -116.407223928953428, 33.287430670194382 ], [ -116.40722952063048, 33.287438085314712 ], [ -116.407234213205271, 33.28744591698392 ], [ -116.407237961951608, 33.287454090556622 ], [ -116.407573845795142, 33.288310090001104 ], [ -116.407576630688496, 33.288318586510975 ], [ -116.407578395547375, 33.288327268573418 ], [ -116.407579123317419, 33.288336052292614 ], [ -116.407578806965759, 33.288344852790622 ], [ -116.407577449549009, 33.288353585027224 ], [ -116.407575064183689, 33.288362164621752 ], [ -116.407571673919534, 33.288370508668542 ], [ -116.407567311516786, 33.288378536538104 ], [ -116.4075620191296, 33.288386170656061 ], [ -116.40725595624761, 33.288781326947067 ], [ -116.407328996247188, 33.289058866274537 ], [ -116.408448921955511, 33.289654623975544 ], [ -116.408456866116964, 33.289659281308396 ], [ -116.408464272587807, 33.289664511947755 ], [ -116.408471081323043, 33.289670273488447 ], [ -116.408477237123506, 33.289676519220983 ], [ -116.408482690083417, 33.289683198510815 ], [ -116.408487395994968, 33.289690257208221 ], [ -116.408665759039195, 33.289988806857167 ], [ -116.409584591649349, 33.290261461471687 ], [ -116.409594686646543, 33.290264943938446 ], [ -116.409604305359096, 33.290269253942952 ], [ -116.409613349323465, 33.290274347365063 ], [ -116.40962172595961, 33.290280172065195 ], [ -116.409629349518625, 33.290286668417878 ], [ -116.409636141960519, 33.290293769922144 ], [ -116.409642033753158, 33.290301403882253 ], [ -116.409646964583928, 33.290309492151884 ], [ -116.409650883977292, 33.290317951934149 ], [ -116.409653751811362, 33.290326696628988 ], [ -116.409713309412624, 33.290552972970524 ], [ -116.410061513367552, 33.290738192228588 ], [ -116.410070421949086, 33.290743477808107 ], [ -116.410078639012099, 33.290749483702122 ], [ -116.410086080108755, 33.290756148187434 ], [ -116.410092668765785, 33.290763402772228 ], [ -116.410098337270512, 33.290771172900392 ], [ -116.41045750275471, 33.29132510479117 ], [ -116.41107707432208, 33.291654661294714 ], [ -116.411085708277767, 33.291659766214501 ], [ -116.411093696870097, 33.29166554787345 ], [ -116.411100963164557, 33.291671950591216 ], [ -116.41110743718275, 33.291678912706168 ], [ -116.411113056576227, 33.29168636716954 ], [ -116.41111776722704, 33.291694242190829 ], [ -116.411121523768827, 33.291702461929397 ], [ -116.411124290023764, 33.291710947224786 ], [ -116.411159764954334, 33.291845714134652 ], [ -116.411993367477862, 33.292217603638932 ], [ -116.412002235123126, 33.292222026027844 ], [ -116.412010551675579, 33.292227131043582 ], [ -116.412018240872612, 33.292232871873324 ], [ -116.412025232204456, 33.292239195873798 ], [ -116.412031461560673, 33.292246045054213 ], [ -116.412036871818017, 33.292253356607731 ], [ -116.41204141336442, 33.292261063487665 ], [ -116.412045044553679, 33.292269095022021 ], [ -116.412047732087672, 33.292277377561881 ], [ -116.412100236465051, 33.292476827128802 ], [ -116.413042245441702, 33.29256064226702 ], [ -116.413053013726639, 33.292562058700511 ], [ -116.413063555009302, 33.292564367016496 ], [ -116.413073762011024, 33.292567543723152 ], [ -116.413083530855118, 33.292571556491197 ], [ -116.413092762123924, 33.292576364482642 ], [ -116.413101361870716, 33.292581918766494 ], [ -116.413490988644455, 33.292860850365322 ], [ -116.414168944629679, 33.293003613284256 ], [ -116.414178996744155, 33.293006167273553 ], [ -116.414188701839976, 33.293009518580057 ], [ -116.414197968073694, 33.293013635489054 ], [ -116.414206707754971, 33.293018479040349 ], [ -116.414214838176449, 33.293024003397484 ], [ -116.414222282396352, 33.29303015628102 ], [ -116.414228969966672, 33.293036879463713 ], [ -116.414234837599878, 33.293044109321038 ], [ -116.414239829767823, 33.293051777433867 ], [ -116.414243899227174, 33.293059811235466 ], [ -116.414247007466599, 33.293068134698395 ], [ -116.414249125071152, 33.293076669054116 ], [ -116.41425023200064, 33.293085333538329 ], [ -116.414250317779448, 33.293094046155019 ], [ -116.414249381595383, 33.293102724452844 ], [ -116.41424743230769, 33.293111286305205 ], [ -116.414246287020333, 33.293114540314008 ] ] ] } }
]
}
