{
  "type": "FeatureCollection",
  "name": "borrego_palm_canyon_huc12",
  "crs": {
    "type": "name",
    "properties": {
      "name": "urn:ogc:def:crs:OGC:1.3:CRS84"
    }
  },
  "features": [
    {
      "type": "Feature",
      "properties": {
        "huc12": "181002030302",
        "name": "Borrego Palm Canyon",
        "source": "USGS Watershed Boundary Dataset (WBD) HUC12 181002030302, extracted from Region 18 shapefile",
        "area_km2": 149.1
      },
      "geometry": {
        "type": "Polygon",
        "coordinates": [
          [
            [
              -116.41292909536935,
              33.34762526907099
            ],
            [
              -116.41039815162327,
              33.34724240552987
            ],
            [
              -116.40945355787471,
              33.34752225136276
            ],
            [
              -116.40871717766754,
              33.34750638677946
            ],
            [
              -116.40657190371252,
              33.34672968469732
            ],
            [
              -116.4033321620509,
              33.34661526073921
            ],
            [
              -116.40253839434382,
              33.34637655865623
            ],
            [
              -116.40224322246928,
              33.34646167636441
            ],
            [
              -116.40157885059529,
              33.347131661780054
            ],
            [
              -116.40112788601266,
              33.34712948678009
            ],
            [
              -116.40042663913874,
              33.34604467636507
            ],
            [
              -116.39779387143449,
              33.344788294075386
            ],
            [
              -116.39699773289408,
              33.34345968470245
            ],
            [
              -116.39681024851939,
              33.3426206669954
            ],
            [
              -116.3963630381034,
              33.34207778053792
            ],
            [
              -116.39425160373168,
              33.33998575241617
            ],
            [
              -116.38973501832203,
              33.3363949305467
            ],
            [
              -116.38884339644841,
              33.33493061909064
            ],
            [
              -116.38810539436622,
              33.32992537847343
            ],
            [
              -116.38854823186551,
              33.32646698368711
            ],
            [
              -116.38906209644807,
              33.317439567034455
            ],
            [
              -116.38821005269938,
              33.31494808162171
            ],
            [
              -116.38747834332548,
              33.313673794123645
            ],
            [
              -116.38627674436907,
              33.3105317107952
            ],
            [
              -116.38567256103664,
              33.309447296213534
            ],
            [
              -116.38557938082846,
              33.308960189964296
            ],
            [
              -116.38586500999469,
              33.30496029934551
            ],
            [
              -116.38471969541314,
              33.29841196185566
            ],
            [
              -116.3847602412464,
              33.297222582690836
            ],
            [
              -116.38543462562035,
              33.29287314415592
            ],
            [
              -116.38620058916081,
              33.2892270847866
            ],
            [
              -116.38586107978637,
              33.28714364624818
            ],
            [
              -116.38522866103733,
              33.285518362917344
            ],
            [
              -116.38379554749787,
              33.28332135771245
            ],
            [
              -116.38308212354065,
              33.282625588963526
            ],
            [
              -116.38080327146088,
              33.28104831500764
            ],
            [
              -116.37637858396772,
              33.2791708952189
            ],
            [
              -116.3756337902189,
              33.27846928896997
            ],
            [
              -116.37525374959449,
              33.27776951292941
            ],
            [
              -116.37506861938647,
              33.273792057727235
            ],
            [
              -116.37491807667834,
              33.273404983769524
            ],
            [
              -116.37397979855479,
              33.272413002521034
            ],
            [
              -116.37322360272265,
              33.27097122543995
            ],
            [
              -116.37266537147349,
              33.27043185773243
            ],
            [
              -116.37046928814357,
              33.270270520232714
            ],
            [
              -116.36794866418916,
              33.269055850442896
            ],
            [
              -116.36723842773193,
              33.26834398690238
            ],
            [
              -116.36655731627468,
              33.26713863794589
            ],
            [
              -116.36603679231712,
              33.26492537961599
            ],
            [
              -116.36499791523539,
              33.26373965670115
            ],
            [
              -116.36332898190466,
              33.261370280663186
            ],
            [
              -116.35771668295502,
              33.25679143483694
            ],
            [
              -116.35681087670645,
              33.25440649109066
            ],
            [
              -116.35660365483176,
              33.25130241505383
            ],
            [
              -116.35728240378904,
              33.25174649942812
            ],
            [
              -116.35931015482754,
              33.253934051508054
            ],
            [
              -116.36480381940237,
              33.25607426296307
            ],
            [
              -116.36732572460681,
              33.256265109837784
            ],
            [
              -116.3691524016873,
              33.256156053587915
            ],
            [
              -116.37068114022657,
              33.2555110869223
            ],
            [
              -116.37349176105556,
              33.25467358692356
            ],
            [
              -116.37556775584397,
              33.254614090048676
            ],
            [
              -116.37958346104608,
              33.254184724424306
            ],
            [
              -116.38372058708137,
              33.253512339008694
            ],
            [
              -116.3857286433282,
              33.25295432025956
            ],
            [
              -116.38730279332577,
              33.25190141192786
            ],
            [
              -116.38773809749176,
              33.251178449429005
            ],
            [
              -116.3883567579075,
              33.25076204422129
            ],
            [
              -116.38962976936386,
              33.25030994630532
            ],
            [
              -116.39052206727911,
              33.25063117338817
            ],
            [
              -116.39083331415361,
              33.24990671297263
            ],
            [
              -116.39172402561059,
              33.24944675359836
            ],
            [
              -116.39430130789827,
              33.249670387973026
            ],
            [
              -116.39564440372948,
              33.249170392140456
            ],
            [
              -116.39653227664479,
              33.2491184244322
            ],
            [
              -116.39767234747637,
              33.24820412339193
            ],
            [
              -116.39851705580838,
              33.24823981505858
            ],
            [
              -116.39899294851597,
              33.24775202547596
            ],
            [
              -116.39918330580736,
              33.247192852560204
            ],
            [
              -116.40009939747256,
              33.246978701518856
            ],
            [
              -116.40124007142913,
              33.246327128603184
            ],
            [
              -116.40223517976096,
              33.24431137235632
            ],
            [
              -116.40370234642535,
              33.24375003173219
            ],
            [
              -116.4043267422577,
              33.24303543902499
            ],
            [
              -116.40455032871569,
              33.24216415569299
            ],
            [
              -116.40451912871572,
              33.24182631819349
            ],
            [
              -116.4041528682996,
              33.24151502027735
            ],
            [
              -116.40431262559105,
              33.24017910882105
            ],
            [
              -116.40552456933915,
              33.23978083173836
            ],
            [
              -116.40615511933817,
              33.239948724446435
            ],
            [
              -116.40672594642064,
              33.23985295569656
            ],
            [
              -116.40713070475334,
              33.239542885905394
            ],
            [
              -116.40926032245835,
              33.23974514007176
            ],
            [
              -116.41048574537314,
              33.23945960465551
            ],
            [
              -116.41070899537277,
              33.23921234736423
            ],
            [
              -116.41209961620399,
              33.23970435153012
            ],
            [
              -116.41352093182678,
              33.239362822364
            ],
            [
              -116.41450280682523,
              33.238693832781735
            ],
            [
              -116.41521107557412,
              33.23793737028291
            ],
            [
              -116.41606692765612,
              33.23764591507501
            ],
            [
              -116.4170386693213,
              33.23755198174183
            ],
            [
              -116.41760969848707,
              33.23728732028388
            ],
            [
              -116.42015356202478,
              33.234921326537574
            ],
            [
              -116.42071301827394,
              33.23386865987254
            ],
            [
              -116.42136985577292,
              33.23328076508176
            ],
            [
              -116.42270931410417,
              33.23327291716515
            ],
            [
              -116.4233529005615,
              33.23215027862523
            ],
            [
              -116.42356892868617,
              33.231398526543046
            ],
            [
              -116.4243529307683,
              33.23028355779479
            ],
            [
              -116.42463873493449,
              33.23010196717007
            ],
            [
              -116.42652886722323,
              33.230363958836335
            ],
            [
              -116.42729998493036,
              33.23021273904487
            ],
            [
              -116.42810632451244,
              33.22979433800384
            ],
            [
              -116.42981194117647,
              33.23011171404505
            ],
            [
              -116.43036468492562,
              33.2300720359201
            ],
            [
              -116.43126945367419,
              33.22996361404529
            ],
            [
              -116.43219341721442,
              33.229475373420996
            ],
            [
              -116.43490289533526,
              33.22989574946206
            ],
            [
              -116.43614799324996,
              33.22893054633852
            ],
            [
              -116.4365876869993,
              33.22824309425624
            ],
            [
              -116.43812066824688,
              33.22675857134192
            ],
            [
              -116.43879290782917,
              33.22635356717586
            ],
            [
              -116.44056904636813,
              33.22610829946791
            ],
            [
              -116.44143822553343,
              33.226323259884225
            ],
            [
              -116.44229200678211,
              33.226327089050926
            ],
            [
              -116.44517675365262,
              33.22549576821888
            ],
            [
              -116.44626533906762,
              33.22543026717727
            ],
            [
              -116.4493391734378,
              33.226138632801224
            ],
            [
              -116.45044499010277,
              33.22599578488473
            ],
            [
              -116.45146749843451,
              33.227129440091346
            ],
            [
              -116.45260829634941,
              33.22741939113257
            ],
            [
              -116.45324916718175,
              33.22733778696602
            ],
            [
              -116.45432542447173,
              33.227912360923426
            ],
            [
              -116.45515509322047,
              33.22775770571536
            ],
            [
              -116.4564775650934,
              33.2270986682164
            ],
            [
              -116.45674312967634,
              33.22679379530018
            ],
            [
              -116.45753407446676,
              33.22680780050848
            ],
            [
              -116.4584605932153,
              33.2272339484245
            ],
            [
              -116.45948312758873,
              33.22634140988424
            ],
            [
              -116.45935060050562,
              33.22543329530231
            ],
            [
              -116.45965608383847,
              33.22475924738666
            ],
            [
              -116.4610206765447,
              33.2233616463472
            ],
            [
              -116.46190309529334,
              33.222785065098094
            ],
            [
              -116.46353680987414,
              33.22253885259846
            ],
            [
              -116.4646288452891,
              33.22258576718173
            ],
            [
              -116.4659989567453,
              33.222327838015474
            ],
            [
              -116.46740371924312,
              33.222566018223404
            ],
            [
              -116.46996963382247,
              33.222149590099036
            ],
            [
              -116.470691912988,
              33.22174462239133
            ],
            [
              -116.47144496194517,
              33.22179003384963
            ],
            [
              -116.47283733590137,
              33.221303479683684
            ],
            [
              -116.47374129319161,
              33.22130730780867
            ],
            [
              -116.47419865569088,
              33.22040873593511
            ],
            [
              -116.47471944006509,
              33.22010138593555
            ],
            [
              -116.47716678693632,
              33.2195488807281
            ],
            [
              -116.47768370776885,
              33.21988873906088
            ],
            [
              -116.47964466505744,
              33.21948891510317
            ],
            [
              -116.48123451088833,
              33.219565907811386
            ],
            [
              -116.48200312442879,
              33.21980830468601
            ],
            [
              -116.48339309838497,
              33.21971559114451
            ],
            [
              -116.48562446400649,
              33.22022396822706
            ],
            [
              -116.48685032129629,
              33.221080654684044
            ],
            [
              -116.4873450306705,
              33.221607514058235
            ],
            [
              -116.48833350254398,
              33.22209271822413
            ],
            [
              -116.48854693796028,
              33.22260407134837
            ],
            [
              -116.48929988795913,
              33.223224619264045
            ],
            [
              -116.48906222337615,
              33.22446647447049
            ],
            [
              -116.48952804525044,
              33.22529010259416
            ],
            [
              -116.49148003587243,
              33.226244598426035
            ],
            [
              -116.49153999628896,
              33.22781635571528
            ],
            [
              -116.48989618691655,
              33.2296368942541
            ],
            [
              -116.48998584941637,
              33.23020726404491
            ],
            [
              -116.49076212129017,
              33.231149246335065
            ],
            [
              -116.49075840566519,
              33.23155971404276
            ],
            [
              -116.48959366920866,
              33.23292421299902
            ],
            [
              -116.48855573796027,
              33.233688855706134
            ],
            [
              -116.48884118483483,
              33.23470006507955
            ],
            [
              -116.4893962087923,
              33.23578005986957
            ],
            [
              -116.48948268795885,
              33.2364227807019
            ],
            [
              -116.48928898691747,
              33.23691185361781
            ],
            [
              -116.48970461191686,
              33.236913690076165
            ],
            [
              -116.49014015254119,
              33.23713160986745
            ],
            [
              -116.49108312649804,
              33.23689533799285
            ],
            [
              -116.49172150149701,
              33.237060144242605
            ],
            [
              -116.4943073837847,
              33.23885685986477
            ],
            [
              -116.49579411919905,
              33.238956234864645
            ],
            [
              -116.49684878586407,
              33.23857231611521
            ],
            [
              -116.49728765669676,
              33.23870672965671
            ],
            [
              -116.49737685148824,
              33.239289147364104
            ],
            [
              -116.49763213482117,
              33.23968351611353
            ],
            [
              -116.49589954524055,
              33.24058359527879
            ],
            [
              -116.495612995241,
              33.240900721319974
            ],
            [
              -116.4955190941995,
              33.241404981735855
            ],
            [
              -116.49582322440733,
              33.24232013694274
            ],
            [
              -116.49645054732304,
              33.24306420985823
            ],
            [
              -116.49728484419671,
              33.24366980777398
            ],
            [
              -116.4972392577385,
              33.24438086089788
            ],
            [
              -116.49753171502971,
              33.24490921714704
            ],
            [
              -116.49715018794694,
              33.2458569848539
            ],
            [
              -116.49710207961368,
              33.2464741463113
            ],
            [
              -116.49776384002934,
              33.2474644202681
            ],
            [
              -116.49740153482156,
              33.24983206609778
            ],
            [
              -116.49703639732212,
              33.2499776890142
            ],
            [
              -116.49686393169736,
              33.250310441096985
            ],
            [
              -116.49853982023643,
              33.253973190049635
            ],
            [
              -116.50045367648346,
              33.2531994733842
            ],
            [
              -116.50105975356587,
              33.25279566296814
            ],
            [
              -116.501853655648,
              33.252035418177684
            ],
            [
              -116.50200326293941,
              33.251569116095084
            ],
            [
              -116.50239013064714,
              33.251255095262195
            ],
            [
              -116.5027606452299,
              33.251640947344924
            ],
            [
              -116.50339862647894,
              33.25181774942803
            ],
            [
              -116.50466936606028,
              33.2526179733851
            ],
            [
              -116.50596050147493,
              33.25164370046997
            ],
            [
              -116.50742991605597,
              33.25174444005313
            ],
            [
              -116.50905359105349,
              33.25112313380407
            ],
            [
              -116.51091720146724,
              33.250774357762964
            ],
            [
              -116.51178095250759,
              33.25078569317964
            ],
            [
              -116.51264283063125,
              33.251181293179
            ],
            [
              -116.51438056083686,
              33.25035126818028
            ],
            [
              -116.51510468062742,
              33.25060353067988
            ],
            [
              -116.5157737545847,
              33.25115454526235
            ],
            [
              -116.5162725462506,
              33.251275999428856
            ],
            [
              -116.517726837915,
              33.251161895262385
            ],
            [
              -116.51819365041428,
              33.25057535255496
            ],
            [
              -116.51844779520553,
              33.24992941505593
            ],
            [
              -116.51851279312211,
              33.24909820984891
            ],
            [
              -116.51931935874586,
              33.24870050359954
            ],
            [
              -116.52020622020285,
              33.24876414734939
            ],
            [
              -116.52179183999203,
              33.24826974735021
            ],
            [
              -116.52318878478155,
              33.248481956724845
            ],
            [
              -116.52417503686331,
              33.248898831724205
            ],
            [
              -116.52480548998733,
              33.248501309849814
            ],
            [
              -116.52583676706911,
              33.248962202557436
            ],
            [
              -116.52725976915019,
              33.249235542140354
            ],
            [
              -116.52808527435724,
              33.249719874431264
            ],
            [
              -116.53003278372921,
              33.24915199109881
            ],
            [
              -116.531265022269,
              33.24787373276746
            ],
            [
              -116.53166992539337,
              33.24780167860092
            ],
            [
              -116.53215260247595,
              33.247261071310106
            ],
            [
              -116.53284618997486,
              33.24714960568525
            ],
            [
              -116.53425822538935,
              33.2478186150592
            ],
            [
              -116.53519368476287,
              33.24804184735052
            ],
            [
              -116.53578053580367,
              33.24855487755809
            ],
            [
              -116.53689755663527,
              33.24846548380822
            ],
            [
              -116.53744121600943,
              33.24948980463995
            ],
            [
              -116.53774748371728,
              33.2496936619313
            ],
            [
              -116.5388965795488,
              33.24983501193111
            ],
            [
              -116.54071644517097,
              33.25049199526342
            ],
            [
              -116.54144324204486,
              33.251168316095686
            ],
            [
              -116.54285148891768,
              33.2530852535927
            ],
            [
              -116.54296361600086,
              33.25340681505054
            ],
            [
              -116.54280249412608,
              33.25421502234093
            ],
            [
              -116.54220496704369,
              33.255398621297445
            ],
            [
              -116.54117125662862,
              33.255985510879896
            ],
            [
              -116.54121539204522,
              33.256906037961755
            ],
            [
              -116.54165805871122,
              33.25783886921033
            ],
            [
              -116.54197801600236,
              33.2602424973316
            ],
            [
              -116.54187036808588,
              33.26040824628967
            ],
            [
              -116.54117406496192,
              33.26058006503939
            ],
            [
              -116.54002758058874,
              33.26153501503791
            ],
            [
              -116.5399059930889,
              33.2623523973283
            ],
            [
              -116.53907397225686,
              33.26337035774338
            ],
            [
              -116.5394822451729,
              33.263848784825996
            ],
            [
              -116.53909118684015,
              33.264706611908025
            ],
            [
              -116.5384653785078,
              33.26557111919834
            ],
            [
              -116.53745888684273,
              33.26649474315525
            ],
            [
              -116.53612507538645,
              33.26721371294576
            ],
            [
              -116.53586845663682,
              33.2682840660691
            ],
            [
              -116.53557269830395,
              33.26880525773498
            ],
            [
              -116.53339312018238,
              33.270611826482195
            ],
            [
              -116.53300499518298,
              33.27132459314771
            ],
            [
              -116.53190032330969,
              33.272085977521556
            ],
            [
              -116.53108552435259,
              33.27535738064148
            ],
            [
              -116.53062113685331,
              33.27589102647397
            ],
            [
              -116.5302881191455,
              33.276782248347615
            ],
            [
              -116.52956292018831,
              33.27799722959571
            ],
            [
              -116.52886760039769,
              33.27852375980319
            ],
            [
              -116.52796760560744,
              33.2784429400117
            ],
            [
              -116.52710100977544,
              33.278557708761525
            ],
            [
              -116.5268512868592,
              33.2787264754279
            ],
            [
              -116.5259618108189,
              33.27866393167801
            ],
            [
              -116.52656830873462,
              33.28113947959082
            ],
            [
              -116.52698120873396,
              33.28178864521482
            ],
            [
              -116.5270132254006,
              33.28291452646306
            ],
            [
              -116.52731407748348,
              33.28379621917003
            ],
            [
              -116.52786778269092,
              33.2845910004188
            ],
            [
              -116.52811024102391,
              33.285390967084254
            ],
            [
              -116.52818738269042,
              33.28589080458346
            ],
            [
              -116.52786764623261,
              33.286675510832254
            ],
            [
              -116.52847946185665,
              33.28695183479016
            ],
            [
              -116.52929479102204,
              33.28704770458165
            ],
            [
              -116.5323523691423,
              33.28825543791311
            ],
            [
              -116.53244736185047,
              33.288488129579434
            ],
            [
              -116.53225267435079,
              33.28916520770338
            ],
            [
              -116.53131200560227,
              33.2896675410359
            ],
            [
              -116.53110006601923,
              33.29002469728539
            ],
            [
              -116.53017985039565,
              33.290610735826135
            ],
            [
              -116.52974095872969,
              33.29112851290864
            ],
            [
              -116.52968339935478,
              33.29179085769931
            ],
            [
              -116.5298610181045,
              33.292327623323445
            ],
            [
              -116.53046089206191,
              33.29305851811398
            ],
            [
              -116.53044671393695,
              33.293384101446804
            ],
            [
              -116.53064760351992,
              33.293716309779654
            ],
            [
              -116.53118315664415,
              33.29427617019542
            ],
            [
              -116.53361306289037,
              33.29550576811022
            ],
            [
              -116.53608842226151,
              33.29609451394259
            ],
            [
              -116.53657601913574,
              33.29648062435871
            ],
            [
              -116.5369854066351,
              33.29721797019084
            ],
            [
              -116.5384597420495,
              33.298111649356144
            ],
            [
              -116.54060595975449,
              33.29805383268956
            ],
            [
              -116.5423122899602,
              33.2965382118586
            ],
            [
              -116.54288404829265,
              33.29626596706737
            ],
            [
              -116.54332382954192,
              33.2963881347755
            ],
            [
              -116.54475309828973,
              33.29753078164873
            ],
            [
              -116.54653109828695,
              33.29809420768953
            ],
            [
              -116.54820419099269,
              33.30171781601723
            ],
            [
              -116.54927879203268,
              33.302765002473905
            ],
            [
              -116.5495480628656,
              33.30350980143112
            ],
            [
              -116.54942807744914,
              33.30429097434654
            ],
            [
              -116.5495641659906,
              33.30446418580465
            ],
            [
              -116.55013044932304,
              33.304650571220975
            ],
            [
              -116.5517647097372,
              33.304048575388606
            ],
            [
              -116.55217847536153,
              33.30410953788851
            ],
            [
              -116.55345210244286,
              33.30487298059563
            ],
            [
              -116.55450961181623,
              33.30498984830382
            ],
            [
              -116.55512985348196,
              33.30716839100876
            ],
            [
              -116.55690101285421,
              33.308283401423694
            ],
            [
              -116.55720868472872,
              33.309017127464244
            ],
            [
              -116.5580289545191,
              33.30997902329608
            ],
            [
              -116.55890868368442,
              33.31184977641817
            ],
            [
              -116.55953112639179,
              33.312400059750644
            ],
            [
              -116.55968134826657,
              33.31291177120818
            ],
            [
              -116.56020549618239,
              33.31341074933238
            ],
            [
              -116.56027885347396,
              33.31470494724704
            ],
            [
              -116.55978421805804,
              33.3151848972463
            ],
            [
              -116.55902854514255,
              33.315391234746016
            ],
            [
              -116.55704860556233,
              33.31634500245286
            ],
            [
              -116.55631378681346,
              33.31739716807624
            ],
            [
              -116.55565482743947,
              33.31769095870078
            ],
            [
              -116.55401067952533,
              33.31751994932603
            ],
            [
              -116.55286159515214,
              33.31779613682562
            ],
            [
              -116.55139198369608,
              33.31718821286819
            ],
            [
              -116.54974532640699,
              33.31739687224291
            ],
            [
              -116.54850501286722,
              33.31807138995015
            ],
            [
              -116.54639504724548,
              33.318829658698974
            ],
            [
              -116.54521331495567,
              33.318533925366125
            ],
            [
              -116.54476312120636,
              33.31868130140754
            ],
            [
              -116.54358942329151,
              33.32027466598839
            ],
            [
              -116.54269712537626,
              33.31994748994725
            ],
            [
              -116.54171559725279,
              33.31999507953054
            ],
            [
              -116.54141221600327,
              33.318745862865796
            ],
            [
              -116.54097796392057,
              33.31835325140804
            ],
            [
              -116.54054966183793,
              33.31746690245109
            ],
            [
              -116.54086493996243,
              33.31516477328802
            ],
            [
              -116.54080545350416,
              33.31430816808103
            ],
            [
              -116.5404496055881,
              33.31384849724839
            ],
            [
              -116.53716487850983,
              33.314147553497946
            ],
            [
              -116.53674252330217,
              33.313891761831655
            ],
            [
              -116.53538623059592,
              33.31374899412356
            ],
            [
              -116.53453557330556,
              33.31324930766601
            ],
            [
              -116.53297107851637,
              33.31348725349898
            ],
            [
              -116.53250708372542,
              33.31333853683253
            ],
            [
              -116.53212042122601,
              33.313630021207075
            ],
            [
              -116.53132983997722,
              33.31338519933246
            ],
            [
              -116.53089499831123,
              33.313064899332915
            ],
            [
              -116.52791472331586,
              33.31230942016742
            ],
            [
              -116.527819545191,
              33.31211906391775
            ],
            [
              -116.52629333477671,
              33.31119311183585
            ],
            [
              -116.52364650353081,
              33.31025746287895
            ],
            [
              -116.5225490389492,
              33.3101560076708
            ],
            [
              -116.52149017853418,
              33.310423697253725
            ],
            [
              -116.5203718316609,
              33.3103701597538
            ],
            [
              -116.51962230145375,
              33.30992995975447
            ],
            [
              -116.51818867645596,
              33.30981693475462
            ],
            [
              -116.51641453791706,
              33.309384476422
            ],
            [
              -116.51543445041858,
              33.309584937880004
            ],
            [
              -116.5148812254194,
              33.31000729204601
            ],
            [
              -116.51477530771126,
              33.311148668085934
            ],
            [
              -116.51402462021241,
              33.31142307121047
            ],
            [
              -116.51359631708806,
              33.31213096079273
            ],
            [
              -116.5120734618821,
              33.31243434204225
            ],
            [
              -116.50973814001071,
              33.31202759725119
            ],
            [
              -116.50923000563654,
              33.31160747954351
            ],
            [
              -116.50859350042919,
              33.31134573891893
            ],
            [
              -116.5068029556403,
              33.31123866287743
            ],
            [
              -116.50622593689121,
              33.31097692225285
            ],
            [
              -116.50516707647614,
              33.31089364100296
            ],
            [
              -116.50481014522671,
              33.310532571211866
            ],
            [
              -116.50423313793596,
              33.31033446808715
            ],
            [
              -116.50199049627275,
              33.31051887642025
            ],
            [
              -116.50177764835644,
              33.31062044308675
            ],
            [
              -116.50119932544067,
              33.311970347251304
            ],
            [
              -116.50087809731616,
              33.31220829308427
            ],
            [
              -116.50042600044185,
              33.31295782329141
            ],
            [
              -116.50066394627481,
              33.313558637873825
            ],
            [
              -116.4992780202353,
              33.31414545349793
            ],
            [
              -116.49882581294435,
              33.31425462953945
            ],
            [
              -116.49706042128042,
              33.31361337224877
            ],
            [
              -116.49670618794761,
              33.31409482120637
            ],
            [
              -116.49637054628147,
              33.31412028891464
            ],
            [
              -116.49547668690786,
              33.31398252745652
            ],
            [
              -116.49480741815893,
              33.31368471079031
            ],
            [
              -116.49356148586918,
              33.31365281391538
            ],
            [
              -116.49221791503794,
              33.31392901391496
            ],
            [
              -116.49048780045729,
              33.31474015141367
            ],
            [
              -116.48940137754232,
              33.314749104538635
            ],
            [
              -116.48804164629439,
              33.31505201703817
            ],
            [
              -116.48744732650368,
              33.31559952016232
            ],
            [
              -116.48705809317096,
              33.31659050870246
            ],
            [
              -116.486385215047,
              33.316909652451955
            ],
            [
              -116.48611403796406,
              33.3183864649497
            ],
            [
              -116.48467872963295,
              33.31911580453186
            ],
            [
              -116.48454555254983,
              33.32002736598878
            ],
            [
              -116.48428763380025,
              33.320415286821515
            ],
            [
              -116.48343818067656,
              33.32086781390416
            ],
            [
              -116.48236187130323,
              33.321855928485945
            ],
            [
              -116.48014159109835,
              33.322395856610115
            ],
            [
              -116.47942211609944,
              33.32184364411097
            ],
            [
              -116.47844928276766,
              33.32154446806976
            ],
            [
              -116.47812750568482,
              33.32191869411088
            ],
            [
              -116.4777109858938,
              33.32210473161058
            ],
            [
              -116.47678643277021,
              33.32442136494029
            ],
            [
              -116.47648254214567,
              33.324473738898575
            ],
            [
              -116.47551510464717,
              33.324175520149026
            ],
            [
              -116.47419833902421,
              33.3243701982737
            ],
            [
              -116.4738287640248,
              33.324717380564834
            ],
            [
              -116.47287600048463,
              33.326390020145595
            ],
            [
              -116.47155138590335,
              33.326129538896
            ],
            [
              -116.47053287132161,
              33.32545452952206
            ],
            [
              -116.46916799007369,
              33.32393298681609
            ],
            [
              -116.46778010986753,
              33.32362682327488
            ],
            [
              -116.46605381716188,
              33.32369161181646
            ],
            [
              -116.46582874216222,
              33.323918674316076
            ],
            [
              -116.46530327237139,
              33.32395916181605
            ],
            [
              -116.4641849254981,
              33.32464920556498
            ],
            [
              -116.4620553077931,
              33.32468489827323
            ],
            [
              -116.46168649112701,
              33.3251726878558
            ],
            [
              -116.460625308837,
              33.325653348271715
            ],
            [
              -116.46012529112943,
              33.326415739937204
            ],
            [
              -116.4597798265466,
              33.328023847226405
            ],
            [
              -116.46051285571212,
              33.33093774305519
            ],
            [
              -116.46030323175415,
              33.331245339929694
            ],
            [
              -116.45913314946426,
              33.33183043992881
            ],
            [
              -116.45852222446524,
              33.33243138159452
            ],
            [
              -116.45700415571758,
              33.33243816701122
            ],
            [
              -116.45562680780307,
              33.332941849302074
            ],
            [
              -116.45508360988725,
              33.33292605346878
            ],
            [
              -116.45482627655429,
              33.3331931899267
            ],
            [
              -116.45378614009758,
              33.33343006284298
            ],
            [
              -116.45217786093343,
              33.33415781284185
            ],
            [
              -116.44843170052258,
              33.33410164200859
            ],
            [
              -116.4468481724,
              33.334695289924355
            ],
            [
              -116.4457494130267,
              33.334356274299864
            ],
            [
              -116.44310362240583,
              33.3347442992993
            ],
            [
              -116.44071793178455,
              33.33535296804837
            ],
            [
              -116.43852308699627,
              33.33532738471507
            ],
            [
              -116.43634117137469,
              33.334745155549285
            ],
            [
              -116.43422060991963,
              33.3347903972159
            ],
            [
              -116.43273831513028,
              33.33579504096434
            ],
            [
              -116.43267693492203,
              33.336618000338035
            ],
            [
              -116.43225904325601,
              33.337682381586376
            ],
            [
              -116.43220750992276,
              33.33842697950189
            ],
            [
              -116.43159075054871,
              33.33990598679128
            ],
            [
              -116.4318897963816,
              33.34115667220601
            ],
            [
              -116.43095641513304,
              33.34113237116435
            ],
            [
              -116.43032205263398,
              33.3412901742891
            ],
            [
              -116.42950579117695,
              33.34223833470435
            ],
            [
              -116.42869475680322,
              33.342382956579115
            ],
            [
              -116.42775350784632,
              33.342168461787764
            ],
            [
              -116.42742762138852,
              33.34245129512067
            ],
            [
              -116.42697079430587,
              33.34248627532895
            ],
            [
              -116.42630363389026,
              33.3431507669946
            ],
            [
              -116.42543724534994,
              33.34275116387022
            ],
            [
              -116.42353783493621,
              33.34265582428702
            ],
            [
              -116.42239451722963,
              33.34404746595152
            ],
            [
              -116.42261153285432,
              33.34464187324227
            ],
            [
              -116.422150201605,
              33.3453567471995
            ],
            [
              -116.42108881619004,
              33.34548778990762
            ],
            [
              -116.41956459535902,
              33.34655620553093
            ],
            [
              -116.41744604536234,
              33.34759315865432
            ],
            [
              -116.41645856932217,
              33.3475693638627
            ],
            [
              -116.4154449995321,
              33.348057458653614
            ],
            [
              -116.41463422140833,
              33.34815254094514
            ],
            [
              -116.4141777745341,
              33.348125662820166
            ],
            [
              -116.41292909536935,
              33.34762526907099
            ]
          ]
        ]
      }
    }
  ]
}